{"type":"FeatureCollection","features":[{"type":"Feature","properties":{"name":"Karłowice–Różanka — okręg 4","district":4,"precinct":88,"seats":6,"election_year":2027,"version_label":"2027 - propozycja miasta","proposal_status":"propozycja miasta","source_state_date":"2026-06-30","polling_station":"Liceum Ogólnokształcące nr X, ul. Piesza 1","reconstruction":true,"method":"City proposal for 2027 (state date 2026-06-30) + current SIP EMUiA address points + current cadastral parcels","crs":"EPSG:4326"},"geometry":{"type":"Polygon","coordinates":[[[17.02520700880004,51.141612938359245],[17.02517075359953,51.141598936819854],[17.02506800322072,51.14155925513797],[17.024886592069834,51.14148919467567],[17.024802238411095,51.14145664173666],[17.024720995008103,51.141425288976976],[17.02451988123078,51.14148351931884],[17.02406482240097,51.14145009106356],[17.02401306652007,51.141499492116644],[17.023866479805655,51.14143552040791],[17.023683271716894,51.141422061257764],[17.02355357490075,51.141545261655885],[17.023079728686167,51.14132727891262],[17.02251793990852,51.14106887891881],[17.022047102484034,51.14085233745788],[17.020665259156996,51.14021667660972],[17.02000548292529,51.13985968133083],[17.019466337253778,51.14035802583675],[17.018322738621915,51.141601653440524],[17.01820350356569,51.141557610087006],[17.01814582160153,51.14153428313424],[17.01816371334777,51.1415181171116],[17.01676791898142,51.14098307611452],[17.016660959496726,51.14094253246547],[17.01545110703423,51.140477737817804],[17.015230494042484,51.14039045168945],[17.014208374358383,51.14069232564849],[17.013111209016834,51.140589103667466],[17.01234022115596,51.14085494605404],[17.012321988418996,51.1408930340948],[17.012168427122795,51.141911928698306],[17.012015039797546,51.142931714392525],[17.01199334422096,51.14318751160951],[17.011988209711838,51.14324593696448],[17.012003285906356,51.14328279606187],[17.011426485301328,51.14467221774762],[17.0106090399211,51.14516815083859],[17.010605361872805,51.14517039410717],[17.010536059868937,51.14521258060914],[17.009840046186074,51.14562708247222],[17.00920929732936,51.14606132601059],[17.009133442780907,51.14611438759373],[17.009259743275578,51.14619638240628],[17.009445098553527,51.1463384786524],[17.009019167174685,51.146758247280054],[17.008962376850196,51.14684601751583],[17.008617675665537,51.147433141099974],[17.007388228190052,51.147919634540486],[17.007157136842626,51.148111256274504],[17.00658498873965,51.148261775221194],[17.00638619691967,51.14831814176833],[17.006368560651676,51.148592976421426],[17.006358495626685,51.14875084809244],[17.006401920138867,51.149203297591924],[17.006460195364934,51.14965710477247],[17.006505465472348,51.15010955185784],[17.006505301743005,51.15093057513905],[17.006349431831172,51.15094844239464],[17.006349365248823,51.15095196463712],[17.00634735703579,51.15116266673756],[17.00633066767959,51.15176642163741],[17.00630944749649,51.15197976346318],[17.006280851096573,51.152231254003475],[17.006248340468485,51.15251715779849],[17.006223367810254,51.15273114282468],[17.006169380819177,51.15301798511119],[17.006111439712654,51.15333268863118],[17.006093965820053,51.15342759485953],[17.006037698533948,51.15373746083649],[17.0059857837217,51.15402334972459],[17.00592415431359,51.15428872165554],[17.005861380720614,51.154506729073525],[17.005794851184532,51.15473777906375],[17.005688643251002,51.15510662027803],[17.005594975867425,51.155431907098304],[17.005573095199775,51.15550789031569],[17.005686985671392,51.15560410469185],[17.00588192569247,51.15576878785442],[17.00589241687534,51.155777650689075],[17.005916126868925,51.15579768062806],[17.00604317039383,51.1559050055855],[17.00673374122567,51.156295477443145],[17.006736282948037,51.15629652772389],[17.006887504333346,51.15635901484355],[17.006891680540793,51.15636074051994],[17.007029679401487,51.1564177638788],[17.007451302237403,51.15659198524666],[17.007763588101138,51.15670821250556],[17.008206647306015,51.15687311128228],[17.008801787920945,51.157058685091805],[17.00938462234871,51.15723630277879],[17.01006763290501,51.15739906679666],[17.01019079396436,51.15742467524103],[17.01055909577399,51.1575012549364],[17.010775942270843,51.15754634306314],[17.011497238528875,51.15767017732394],[17.011650714574685,51.157687040781596],[17.012580616406435,51.15778921542442],[17.013403166483958,51.15783016855164],[17.014232160725445,51.15784607316675],[17.01423222305396,51.15784607436255],[17.014242490234775,51.15784627146224],[17.01428074960188,51.1578470056123],[17.01428788162169,51.15784714212678],[17.01498401856841,51.1578387354402],[17.015232055039363,51.157823451467145],[17.015580976012046,51.157801951109725],[17.01600281534136,51.15777595524815],[17.016002891247265,51.15777594869498],[17.01615645457369,51.15776282646184],[17.016210832212014,51.15775818041288],[17.016318635099058,51.1577489683282],[17.016362502124043,51.15774521908034],[17.016408266729865,51.15774130867703],[17.01645582168672,51.15773649816556],[17.016506289165548,51.157731393890764],[17.016603363166542,51.15772157442944],[17.0165713722882,51.15766362978131],[17.01652994525479,51.15758859650073],[17.016462781351176,51.157466945008004],[17.016446963876167,51.15743835082624],[17.016399800438343,51.15735068107613],[17.016257597507956,51.1570863433324],[17.016157983406906,51.1569011703597],[17.01613545969898,51.15685930136618],[17.016063510344278,51.156725555169885],[17.0159937823218,51.15659593407748],[17.015991550425685,51.15659178726109],[17.015936095199656,51.15648869842842],[17.015929586789095,51.156476599578674],[17.01592687776639,51.15647156416671],[17.0159036820769,51.15642830866285],[17.01588502380674,51.156393514618],[17.015876078300053,51.15637683280113],[17.015958138343038,51.15635262999689],[17.015969505677024,51.156349277204924],[17.016120364286337,51.156300114403614],[17.01633247552679,51.1562253444613],[17.016336266411344,51.15622400811912],[17.016358313492983,51.15621541424894],[17.016546848504305,51.15614192354778],[17.01683381704694,51.1560170517597],[17.016962904753875,51.15595566775657],[17.01708967238103,51.15588976030786],[17.017216344272192,51.15582161349854],[17.017235207770234,51.15581092150236],[17.017251815519497,51.15580150775495],[17.0174352628021,51.155697525883284],[17.017608704196434,51.155589844954385],[17.01792478492366,51.15539360536473],[17.017960968899192,51.15537114021762],[17.018111785047658,51.15527860490119],[17.01824016151113,51.15519983745462],[17.018424547366063,51.15508670506935],[17.018547400297866,51.15501132587268],[17.018561341287743,51.155002731892054],[17.018958726239244,51.15475775476267],[17.019225860829575,51.15459307096453],[17.019460296334284,51.15444854498541],[17.019490631403123,51.1544296990041],[17.019819241288697,51.15422554956686],[17.01999714590275,51.1541150249213],[17.020037225649308,51.15409034706153],[17.02004876098909,51.15408324430448],[17.020048761626388,51.154083243912076],[17.020432960363394,51.15384668247058],[17.020743572629833,51.15365542637131],[17.020781907814197,51.15363182229595],[17.020911626452072,51.15355194844356],[17.021031908998058,51.15347788458124],[17.021127144400044,51.15341924395851],[17.021282809343912,51.153323392004566],[17.021382848055275,51.1532617933222],[17.02156087184092,51.153152173454394],[17.021630465711457,51.15310932037472],[17.021661781684003,51.153090037049076],[17.021882145367165,51.1529531366886],[17.021912889783493,51.15293403639965],[17.022063795728528,51.152840284943444],[17.022188855436298,51.152762591163935],[17.022190555882425,51.1527615347137],[17.022288586286873,51.15270063224585],[17.022308389020967,51.1526883300484],[17.02240287518989,51.1526300192372],[17.02261548121814,51.15249881231845],[17.022797618807502,51.15238640849382],[17.023172770658686,51.15215488387879],[17.02334192202285,51.15205049109191],[17.023505828540394,51.151949334592096],[17.02370428896958,51.15183526230953],[17.023865655281543,51.1517425100905],[17.02408434751849,51.15161680711012],[17.024191407108926,51.151555268205584],[17.024211446736228,51.151543749761295],[17.024395242785843,51.15145116146071],[17.02449512377814,51.15140376962453],[17.024495123992864,51.15140376952265],[17.024522376999347,51.15139083878741],[17.024554956397434,51.151375380427666],[17.02455616109031,51.15137484040404],[17.02455616129919,51.1513748403104],[17.02471022115025,51.151305845837484],[17.024791893028237,51.15127174142027],[17.024941698500697,51.15120918640737],[17.024981554432326,51.151193390348354],[17.025080936898732,51.15115400002879],[17.025232963529813,51.151096295088045],[17.0253622983006,51.15105137381054],[17.02540574965189,51.151036281790276],[17.02558291202872,51.15097735198928],[17.025705179985852,51.15093668109228],[17.025850453155527,51.15089349129766],[17.026075306667977,51.15083085417839],[17.02617071356444,51.15080648477777],[17.026260080378844,51.15078365797854],[17.026333863588512,51.15076481144773],[17.026468327577952,51.15073259714923],[17.026695954910874,51.15068138977736],[17.02676358502071,51.15066808962035],[17.026913823614663,51.15063854384335],[17.026939664241155,51.15063346213025],[17.027064606547892,51.1506115150054],[17.027380562994363,51.1505604207364],[17.027434614876082,51.15055354184717],[17.027610442821683,51.15053116503433],[17.02765312054851,51.15052623302939],[17.027918497120176,51.15049556468042],[17.027998705844386,51.150488673682645],[17.028124867512343,51.150477835964246],[17.028168267399185,51.15047410719185],[17.02819671809668,51.150471662872675],[17.028338131341126,51.150460994793875],[17.028352046463507,51.15045994533529],[17.0285821580558,51.150447304298055],[17.028608764263772,51.15044584240926],[17.028669494376675,51.150443626501314],[17.028758672776668,51.15044037206529],[17.0289369293774,51.15043631992405],[17.02913062293659,51.150431915602816],[17.029230078440097,51.150429654975405],[17.02923007873812,51.15042965496863],[17.029291909542426,51.15042824884977],[17.0294202650853,51.15042611642632],[17.029488143262217,51.15042498782367],[17.029652525298122,51.15042225692868],[17.02965252611986,51.15042225691503],[17.029934765286644,51.15041756549831],[17.030010324452405,51.15041630971669],[17.030262002438963,51.15041212637899],[17.030400232290674,51.15040982843172],[17.030585030132382,51.150406755735055],[17.030642014399646,51.15040580855696],[17.030752102392054,51.15040397814933],[17.030861425424302,51.15040216017795],[17.031139111806482,51.15039754229985],[17.031244833080326,51.15039578403126],[17.031738352869105,51.15038757549197],[17.031808770312708,51.150386403636226],[17.03234099815765,51.150377547477774],[17.032402114546574,51.15037653114631],[17.03285398467971,51.15036900984237],[17.032980681351052,51.1503669011475],[17.033194269831974,51.150363344986395],[17.0331942702193,51.150363344979944],[17.033238644109854,51.15027287421397],[17.030825033993644,51.15031437959351],[17.030739786605476,51.15027287821867],[17.036713461430875,51.150156648984684],[17.034765422893777,51.14978622662102],[17.03514072667055,51.149525279685605],[17.035292099158013,51.14941787958774],[17.03561003116288,51.149622948038456],[17.03583910495389,51.14971488576346],[17.036671015528697,51.149209753926726],[17.036024068069622,51.14882046740983],[17.03626476593719,51.14879815196958],[17.03663064887757,51.148769900239564],[17.03651632787709,51.148175849391954],[17.037511041320048,51.14871213537011],[17.03843928482112,51.1492203310865],[17.038761680482036,51.149396903531425],[17.038870790551737,51.14970870662503],[17.03928572706597,51.14975094182054],[17.039385775422303,51.14974489548408],[17.03963731498663,51.149727876125816],[17.039607035289624,51.14971995035364],[17.038865004666707,51.14930950141929],[17.03880114322596,51.14912032917297],[17.038726975819927,51.14912316266656],[17.03872276103226,51.149079744056834],[17.038540911140217,51.149123853748776],[17.037818573617688,51.14872473407641],[17.0372257555154,51.14839491642182],[17.036834245095694,51.14817711292533],[17.038801593473853,51.14730539563108],[17.03872026986491,51.14706490372632],[17.038697527568708,51.146997645131535],[17.038509428397496,51.146428780974524],[17.039320355826906,51.1459119240634],[17.03982188195101,51.145587039680315],[17.039785239665257,51.1455001686446],[17.039739847475175,51.145414843891835],[17.039688134599956,51.14533108535747],[17.039631108777023,51.1452485417223],[17.039565594690604,51.14516871514215],[17.039494181218107,51.145090817796174],[17.039416428511196,51.14501538543944],[17.039332765263147,51.14494242158052],[17.03924347167307,51.14487219819766],[17.03914767360884,51.14480551716428],[17.038992716763527,51.14471093157505],[17.03872323818421,51.144838797124585],[17.038551148970914,51.14469525639202],[17.03877992326595,51.144586744026],[17.03797741181465,51.14411457231393],[17.037080746100486,51.1435870527358],[17.036194582021007,51.143077771798886],[17.036159597547737,51.143126495032696],[17.036086098923136,51.143243132235746],[17.03599527238354,51.143382046738985],[17.035917126338703,51.14349260448695],[17.035816509576346,51.14363219327653],[17.035729146418355,51.143749534008634],[17.035641212735563,51.14386885668129],[17.03555913528889,51.1439780243337],[17.03547686583814,51.1440867858103],[17.03509994416504,51.14388401683322],[17.034872373639917,51.144051054536654],[17.03376061607283,51.14343678211131],[17.033067778714873,51.14306077268071],[17.033238827396335,51.14281724582646],[17.033666599455547,51.14293077832114],[17.034132852884706,51.14223524431664],[17.03372380141399,51.142126767526015],[17.0333628892501,51.14203098501614],[17.032962981395126,51.141924846513014],[17.033177240903974,51.14161702344781],[17.033196445221556,51.14158908056319],[17.033390796050263,51.141307207448826],[17.03299101859588,51.14122453307046],[17.032928021161794,51.14121110303998],[17.03293498738625,51.14114512268569],[17.03293784837036,51.141145667741974],[17.032954269783374,51.140984861848516],[17.032957017732677,51.140957987541555],[17.032959203298173,51.14093614278754],[17.032962396891815,51.140905038040515],[17.032943688122124,51.14073487110668],[17.032943257535347,51.14073154137615],[17.032941583419476,51.140705655323615],[17.032990355607858,51.140508016626306],[17.03308878230182,51.14051985171648],[17.033124295290072,51.14047735458308],[17.033150782036913,51.14044555241962],[17.03320388607539,51.14038185026748],[17.032783774399487,51.14024415220668],[17.032722406582664,51.14028546452424],[17.032787974209256,51.14012181982537],[17.032819538969942,51.140132176240385],[17.0328765080785,51.14015090532784],[17.033190684305477,51.14025312621994],[17.033506630652756,51.139882631178374],[17.033470839493972,51.139840632411165],[17.03309785358165,51.13971077732391],[17.03305387459244,51.139695463933556],[17.03296561816684,51.139664762717935],[17.03309611657305,51.13946079673888],[17.033169012607132,51.13936007702721],[17.033265083618012,51.13924238759298],[17.033573908338926,51.13894227636866],[17.03370467932903,51.13883180432707],[17.033848875273303,51.13872439165004],[17.03427906280097,51.13846084414675],[17.035533029760796,51.13776687972353],[17.035575433902043,51.137786404338975],[17.035906035273314,51.13752627271013],[17.03617676553864,51.13727347673528],[17.036222904385987,51.13728519291989],[17.036310156348268,51.1373139236751],[17.036391850853317,51.13723621604096],[17.03645724809554,51.13717396213683],[17.03637601247626,51.13713903325393],[17.036538686356558,51.13698496938035],[17.03674787241744,51.137346476365614],[17.037187403190547,51.13812098522666],[17.037711689217527,51.13905138699159],[17.03792681108737,51.13942931966841],[17.038568582253763,51.14058718681337],[17.038530341156942,51.14064361508823],[17.038976196265423,51.140624382947955],[17.038826591687965,51.140522541418825],[17.038677298551804,51.14042087305788],[17.03861517075685,51.14030982567982],[17.038553043256847,51.140198778268264],[17.038903288710152,51.14009787155522],[17.038916154728373,51.14009419264317],[17.03879288288712,51.139884592798374],[17.038897888049117,51.13989481398155],[17.03890839232558,51.13984934077278],[17.03892837752152,51.1397643191091],[17.038933706533527,51.13974166404164],[17.038835556281654,51.139732353242195],[17.03886666539972,51.139580279331255],[17.039290997894632,51.13961640717989],[17.039368285565754,51.13962292126125],[17.03941704693415,51.13942717665672],[17.039569924139457,51.139434554149695],[17.039695355927485,51.139452691439566],[17.039700505118983,51.13945314724335],[17.0399403750681,51.13947243961538],[17.040467089510624,51.13951501313824],[17.04052277399031,51.139280795256276],[17.040522237209803,51.13926326104104],[17.040515123377716,51.13924383897965],[17.040845716295845,51.13917635954437],[17.04087426601302,51.13918814537926],[17.041298073436618,51.13928194820862],[17.041587560055085,51.13934597186241],[17.041860702958743,51.139404323279756],[17.042369443699165,51.13951310254416],[17.042482134948564,51.139446737726665],[17.042505116079564,51.13937268039237],[17.04253642173018,51.13927129975311],[17.04260419603736,51.13905172512451],[17.042662063611502,51.13886478268045],[17.042686538024082,51.1387855145439],[17.042698960534032,51.13874659217225],[17.042725957331584,51.138657977461136],[17.042756540308815,51.13855901804304],[17.042787122966633,51.13846006760272],[17.042856026435807,51.13823690618814],[17.042917190563266,51.13803901421788],[17.042952498878414,51.137924334558456],[17.042985374435265,51.137818112217275],[17.043034320728392,51.137659584750395],[17.043091742190217,51.13747400483629],[17.043137822503674,51.137324821082885],[17.043170404024398,51.137218955861684],[17.043211303029935,51.137086756078304],[17.04325236509921,51.136953568750954],[17.043253462016466,51.1369537305486],[17.043500399791775,51.1369838560593],[17.04358683815379,51.136816345774506],[17.043320333681088,51.136783716980304],[17.043052539710235,51.136510829742065],[17.04462521809105,51.136700954492625],[17.044766738215188,51.1362404111195],[17.04503860537042,51.1353555866887],[17.04628426462579,51.13537608070406],[17.047530502426877,51.13527544861827],[17.04754384885861,51.13523095966561],[17.046868161333766,51.13527652499568],[17.046125277356253,51.135348929832446],[17.045489553733894,51.1353133309669],[17.045063296225354,51.13527523204477],[17.04428455259734,51.1352116156237],[17.04347138787195,51.13514879124252],[17.04221629079148,51.13505165204851],[17.04096894411995,51.13495378082348],[17.04060092705714,51.134926328471536],[17.03938639521252,51.13468514475846],[17.03924653545521,51.13466609746843],[17.039259999467742,51.134541962060105],[17.038539397583005,51.13430582396707],[17.038530085964425,51.13432487740051],[17.037968027131246,51.134136479648724],[17.037962571276775,51.13415356006276],[17.037654552850544,51.134042529679256],[17.03738575541999,51.13392470150965],[17.03737743072692,51.13392101015607],[17.037282482073287,51.13387996390315],[17.03715396455806,51.133836465703766],[17.03711084249405,51.13382205983286],[17.037059432575038,51.13380494274542],[17.036923204690073,51.133763960835395],[17.03679981766202,51.133721816983986],[17.03663058176359,51.13368441044065],[17.03615040253458,51.13359376665755],[17.036229444474323,51.133381677815564],[17.036188377577275,51.13337290707442],[17.036198504049775,51.13335386952734],[17.03630758908947,51.13337602003313],[17.0363202767258,51.13337602569723],[17.03662995357311,51.13342828092907],[17.036799914744794,51.13346649353063],[17.037345106778634,51.13356940132241],[17.03780190392776,51.133650156968],[17.038095656002127,51.13369814204009],[17.038757646019665,51.133798929376454],[17.038972368815376,51.13382780687555],[17.03923612334193,51.13385970279043],[17.03951968706413,51.133889270666835],[17.039976657789097,51.13393029393166],[17.040330423094904,51.13396386115928],[17.04089474935467,51.134018347251974],[17.041485023510162,51.134093575660486],[17.041730495910127,51.134128057939975],[17.042007823599203,51.134171205978866],[17.042286359570404,51.13421537009429],[17.042562568787503,51.13425945156809],[17.042841221470656,51.13430216797954],[17.042987244884944,51.134325117969894],[17.043120608126063,51.13434327159305],[17.04339732326526,51.13438437965412],[17.043676745147685,51.13442036711138],[17.04395868612802,51.13444993790182],[17.044238989785285,51.13448062732647],[17.044525100394726,51.134504126851375],[17.044882444447385,51.134532891067494],[17.045095418731854,51.13454851924136],[17.045666486128123,51.134580886805665],[17.04595240081402,51.13459593096343],[17.046240068345302,51.13460912785892],[17.046531956454917,51.134612352975],[17.0467248560848,51.13461481547607],[17.047013823669193,51.134612073424414],[17.047300164400962,51.13461130496199],[17.047633132505517,51.13460476659472],[17.047784090634835,51.134628317117716],[17.04780643223607,51.134638306732384],[17.04787635791369,51.13462866380166],[17.047953546949124,51.13459446629713],[17.048177063581033,51.13458873436156],[17.048438634902848,51.134575122068654],[17.04873748764577,51.13455370378048],[17.049029677670973,51.13452483207008],[17.04919804922345,51.13450547093258],[17.04957769281417,51.13445873621033],[17.050022986885548,51.134391983218464],[17.05014178748101,51.134375598155614],[17.050244229526747,51.1343563472702],[17.05028901398667,51.13435192846898],[17.050706697722408,51.1342741880485],[17.05123759224302,51.134165460370006],[17.051639427583208,51.134073743992246],[17.051982173606785,51.13399209211407],[17.052238711401507,51.13392471737929],[17.05250710414556,51.13384564371148],[17.052795639322742,51.13375274467854],[17.05301234701583,51.13367940913645],[17.053267859314936,51.133583769380586],[17.05351595082327,51.133493229068264],[17.053740990307166,51.133400811658774],[17.053951890727493,51.133320640206975],[17.05418337979771,51.13322366243231],[17.054344047564022,51.13316002050464],[17.05450084089156,51.13310137224629],[17.054936473420863,51.13294487769916],[17.05521736576099,51.13284370339441],[17.05531898951001,51.13281947018738],[17.055353439883056,51.13279834411353],[17.05542270844878,51.132770972774516],[17.05572590138493,51.1326586144542],[17.05596268109631,51.13256458853073],[17.056082734464514,51.13250324133739],[17.056145401526955,51.132464642155256],[17.056344471732334,51.13235181041252],[17.0565194407405,51.132246541962026],[17.05687052639305,51.13204828440257],[17.05644406926701,51.131781249922064],[17.05623515578813,51.13165456090412],[17.056166253138162,51.13169588440225],[17.055254564192975,51.13224261347201],[17.053163734137332,51.13322871446931],[17.053061196523107,51.13327063273381],[17.05293656948429,51.13331834924438],[17.05247326086721,51.13349117106174],[17.052205784857634,51.1335755343983],[17.051919125765078,51.13365482157679],[17.051578404530574,51.13373874429262],[17.051132175348727,51.13383933983517],[17.050729467771966,51.13391943186462],[17.05026039670283,51.13400226840775],[17.049714488885748,51.134098546649895],[17.049385799318507,51.13414977999847],[17.04887052070014,51.13420529698519],[17.04869010857481,51.13422184663034],[17.04818385624047,51.13425662477628],[17.0478628563742,51.13426834219624],[17.047535892680024,51.13427275461749],[17.046841311655523,51.134281321799946],[17.04657909300144,51.13427598494391],[17.045942423386037,51.13426043309744],[17.045103927061447,51.134208562327956],[17.044798708338988,51.134188828533006],[17.04450315658633,51.13416393734894],[17.044088620725308,51.13413429727193],[17.043774489909364,51.13408634045259],[17.0434948148604,51.1340483158933],[17.04303279722134,51.133976623858636],[17.042669453349067,51.13392242796429],[17.042342321040834,51.13386214211957],[17.041776622583722,51.13374480779019],[17.04155770399839,51.133691887892006],[17.041248353504486,51.13361966170936],[17.04097735401428,51.13354518535635],[17.040594474470836,51.13344884739234],[17.038793901052713,51.132996039295506],[17.03665719827777,51.13250391627924],[17.032716556972947,51.13159618248881],[17.028643870426116,51.131420611731876],[17.020680236623143,51.13178905231502],[17.018507246273522,51.13138422540665],[17.01411320067248,51.13172619740933],[17.011888667290147,51.131635837958164],[17.00637044586771,51.13141150011221],[17.006008026015174,51.13152428297229],[17.005617396216596,51.131649163905685],[17.005737495544977,51.13165854544666],[17.00593288408964,51.13166820728061],[17.006218406717334,51.13168546692238],[17.006532462758198,51.13170467630407],[17.007178678973105,51.13174504416842],[17.00781187363617,51.131779724381545],[17.008598818243005,51.13182037930586],[17.009172709371974,51.13185562814555],[17.010242309230666,51.13190756624994],[17.010803216146787,51.13193541555181],[17.011361559328964,51.13195622854155],[17.011987217121927,51.13198282159994],[17.01221569606211,51.13199526959438],[17.012728059326196,51.13203501547339],[17.014612282559575,51.13192891730837],[17.014592800734643,51.13193801251505],[17.014583305030136,51.13194782114178],[17.014582679432454,51.13195707523301],[17.014596702375744,51.131969509244776],[17.014622919260578,51.13197961878924],[17.01465318187913,51.131987604894505],[17.014862468175497,51.132022450079866],[17.015082866866905,51.13203194770653],[17.015373390524047,51.13203601227641],[17.01565597577359,51.132064011729824],[17.01614732618962,51.13214473844088],[17.016813424568845,51.13224527127873],[17.01743248764439,51.13234729296703],[17.017685178316647,51.13237027180614],[17.017974463818273,51.13240587324759],[17.01831129071345,51.13245670601604],[17.0187526728747,51.13249555991074],[17.019039655281667,51.13251181159853],[17.019308579490975,51.13253069794721],[17.019585440750543,51.13254587455599],[17.019878435007627,51.13256163520307],[17.020468834561285,51.132567031304774],[17.020774290861063,51.13256104919249],[17.021089763235526,51.13254085655137],[17.02164353134955,51.132542074532644],[17.02275970654221,51.132487220741766],[17.02384303839648,51.13243136298983],[17.02443463482652,51.13238667662071],[17.02453686361851,51.13240362087046],[17.02471073065711,51.13247213389543],[17.02493756895432,51.132460990406614],[17.02494093757172,51.132484211830985],[17.025307299142334,51.13246272406694],[17.02746186098768,51.1323620877897],[17.027458820887485,51.13232996940511],[17.027733678817437,51.132318141063784],[17.027743920469838,51.13240875213119],[17.02772359870065,51.13240965295062],[17.027732872139985,51.13249398118239],[17.02775245639805,51.13249282251928],[17.027809784923303,51.13248981112256],[17.02793732274716,51.132526299556645],[17.02797519367929,51.13252726159056],[17.028010746104236,51.13272167988879],[17.027996724218948,51.132722624126934],[17.027858574085506,51.132725404292586],[17.02789620623761,51.13285954623468],[17.02803164183784,51.13321338138402],[17.02840166895946,51.13328499334818],[17.028423380063902,51.13329075630272],[17.028447674259073,51.13345257428513],[17.028585852097574,51.13344448974698],[17.028543335652323,51.13349192562468],[17.0286302163082,51.13398313223331],[17.028701373408605,51.13397895872255],[17.028780174931175,51.134433123597226],[17.02878498769517,51.134462523797616],[17.028854312105867,51.134701037826225],[17.029001377812467,51.135009183945776],[17.029148139151065,51.135251541005566],[17.029152898972537,51.135400665027404],[17.02893292242167,51.135022082066854],[17.02878400706548,51.13470881437292],[17.028713983124725,51.13445734938067],[17.02851370084299,51.13444452964324],[17.028523613503562,51.134583592142675],[17.028651887263543,51.13554341384338],[17.029358686766177,51.13580054314502],[17.029376084617642,51.13582194808202],[17.02951461733141,51.13594311868002],[17.029645784549324,51.13602715464772],[17.029905979532888,51.13640238403002],[17.030147832635674,51.13675300882695],[17.03030065756406,51.13664711937616],[17.030510237910928,51.13650574160212],[17.030546358700818,51.13652561151204],[17.030586900566608,51.136547936275115],[17.03066052529631,51.136522997931536],[17.0306237377792,51.13656225649155],[17.03034337735121,51.1368506038577],[17.029910450982513,51.136681298258395],[17.02965586191301,51.13693424972324],[17.02934638696632,51.137195977485966],[17.02934376892134,51.137219976118566],[17.02940920934377,51.13730263075537],[17.029383619507854,51.13739997412639],[17.0293652224053,51.13746980591236],[17.029115065115533,51.137368052157804],[17.029059045173746,51.137715082236774],[17.02882246833368,51.13800191059821],[17.02876068341614,51.13807669486657],[17.028732838512067,51.13806759083181],[17.028691273929052,51.13805380610124],[17.028597328207656,51.13801940451168],[17.028559194752063,51.13800418291897],[17.028213382032526,51.13786640219826],[17.027989209373462,51.13777456179186],[17.027682103014637,51.13764867086493],[17.02731583773901,51.13749639690081],[17.027089047586028,51.13770533589653],[17.02707473967864,51.13772321416176],[17.02706546932821,51.13788212810844],[17.026376885905066,51.1375787141509],[17.026304495001675,51.137546845442024],[17.026163578615346,51.13748481215173],[17.02614388609793,51.13747607203945],[17.026084219109148,51.13752744549907],[17.025990488897115,51.137611967779094],[17.02593867690003,51.13765741048159],[17.025930672376777,51.137665677225826],[17.025933234084725,51.137666849238045],[17.02580745249177,51.137780554533805],[17.025787461595584,51.137771730969696],[17.025759408949714,51.13779697397476],[17.025754849436638,51.137794994226496],[17.02574868784914,51.137800561434],[17.025753259757607,51.137802631182346],[17.02572077522299,51.137831370194135],[17.025716344290217,51.137829391515524],[17.02570919207688,51.13783585842375],[17.025714470764235,51.13783829364788],[17.025705598452543,51.13784637335424],[17.025654522112273,51.1378914624729],[17.025674214901006,51.13790019367937],[17.02583355574119,51.13797014808814],[17.025951052676238,51.13802335664707],[17.02639777249208,51.138225666875265],[17.02678480321698,51.13840104910242],[17.026753671160474,51.13839877634968],[17.02672165190469,51.13840064043674],[17.02669235874738,51.13840673436147],[17.026664046355936,51.13841579403817],[17.026637886232493,51.13842647177961],[17.026612005333966,51.13843814070136],[17.026591695048513,51.13845331700017],[17.02655462242515,51.13848618925318],[17.02654088569664,51.13849795025058],[17.026453313391645,51.13857295016341],[17.026494570177768,51.138591848240914],[17.026403141219994,51.13867151760294],[17.026186631293292,51.13885796739083],[17.026050402207265,51.13897094767493],[17.026143547962057,51.13900436922231],[17.026126374729028,51.139271462180055],[17.026034916063356,51.139243753633295],[17.025892954008526,51.13921488316804],[17.025889513936285,51.13922081465674],[17.025858532330698,51.139286055230905],[17.025842879195377,51.13932774472456],[17.025828505121517,51.13937519824923],[17.025830958110753,51.139444681745466],[17.02583258578963,51.139492951770656],[17.025837816847265,51.13992199963497],[17.025776952145034,51.13992419853195],[17.0257306304825,51.14001620832747],[17.025693391109638,51.14006166443085],[17.025839580356006,51.140056832166245],[17.02584019932225,51.14010618153236],[17.02595472772483,51.14069521159373],[17.02597812022399,51.14079302505531],[17.025990351823186,51.14083177343968],[17.025998589757425,51.140851826044084],[17.02610205775536,51.14099958759929],[17.026115625300342,51.14100949030936],[17.026151031040943,51.14102470795274],[17.026126840342723,51.14104698065097],[17.02610847304252,51.14108588774491],[17.026144285770457,51.14111979826597],[17.026283627422103,51.14117976875848],[17.026283867163755,51.14120709030694],[17.026316819217953,51.14123570003128],[17.026351904391007,51.14127024269526],[17.026447613688426,51.14136506220597],[17.02632319586806,51.141501145617156],[17.026301888394872,51.14150931062165],[17.026168763767757,51.141484577420506],[17.026122641639212,51.141542617117835],[17.026022168172005,51.141634131125755],[17.025985805269123,51.141667090006855],[17.025869898807947,51.14160237904577],[17.025397997686007,51.141410923427536],[17.02520700880004,51.141612938359245]],[[17.02993594619303,51.143890562837505],[17.02987470729894,51.14393150615066],[17.02983021946042,51.14396077599011],[17.02973715228104,51.14390362988106],[17.029779364061856,51.1438745389678],[17.029841883174022,51.14383251857641],[17.029853335223436,51.14382479257874],[17.029517469076175,51.143614579013104],[17.029464796704534,51.14358163537407],[17.029450211396547,51.14359089054199],[17.02938568946921,51.14363164454365],[17.029341270873886,51.14365965622276],[17.028573711493998,51.14317937625065],[17.028210450520692,51.14279538617347],[17.02812581161975,51.1427386054473],[17.02798723813052,51.14280434582842],[17.027783532013036,51.14263238871143],[17.028249043353203,51.14233699202471],[17.028302781619296,51.142370790107556],[17.02835462629059,51.14233822882346],[17.02913067546505,51.14281905727494],[17.029399949003565,51.142647162767695],[17.02970673990938,51.142451127058],[17.029608835636733,51.14238832216305],[17.02940415928088,51.142257658265244],[17.02934734624938,51.142221210193895],[17.02937045494075,51.14220687470631],[17.02941601969599,51.14217865677358],[17.029718134734264,51.14199146399687],[17.03017388140207,51.141709004662005],[17.03001273041936,51.141611991400104],[17.02987427080088,51.14152874050784],[17.029446806775,51.1412714161437],[17.02937767107677,51.14122977767459],[17.029149009576834,51.14109217199123],[17.02906907710418,51.14104410600735],[17.02923939748047,51.14096198801588],[17.029270144718332,51.140947266466696],[17.02956201650287,51.14080796682213],[17.029834587605762,51.140678547787886],[17.02985647268508,51.14066732146187],[17.03011316794424,51.14054597763842],[17.030237584896387,51.140485663973244],[17.02963292779738,51.14021007815851],[17.02944190236212,51.14012193170088],[17.029397351310703,51.14010122738519],[17.029030424617563,51.139931612397945],[17.028969325562674,51.139902077537464],[17.028502323466405,51.13968780537713],[17.0288516039095,51.139308897689375],[17.028786797580135,51.13927765986773],[17.028609566630024,51.139220182406966],[17.028583718795893,51.13921189500687],[17.028658440322108,51.13913086260069],[17.02870655083399,51.139078582798454],[17.028730445116715,51.13905262134608],[17.028844537070018,51.13892991611529],[17.02891209350527,51.13894856425854],[17.02897376643264,51.13897656669131],[17.029055869532442,51.139012946259115],[17.02906731476926,51.139000725451844],[17.029286303158223,51.13908267059597],[17.029406917471665,51.13898214897795],[17.029502596321247,51.13888139582451],[17.02960150688569,51.13877179664935],[17.029700856899325,51.13866166165657],[17.029764268468668,51.13868432442026],[17.03014866319016,51.13836395540587],[17.03006134771158,51.13831906266538],[17.030023936329325,51.13829935271456],[17.029709578483896,51.13829912851012],[17.029727878170853,51.138183994632854],[17.02952745803764,51.13820065380634],[17.029786964645908,51.138179083222724],[17.02965490671954,51.13811678604667],[17.02962960674449,51.1381157850409],[17.02960760261617,51.13812115807291],[17.0296836016916,51.137957880265205],[17.029839069816514,51.13777316508955],[17.030048086633148,51.137526020181994],[17.030209121764187,51.13734212379059],[17.030708935526622,51.137593015376616],[17.030805919649037,51.13752260309444],[17.03096000502393,51.13774834261411],[17.03097909777169,51.137776224906595],[17.030299822227448,51.13831105270292],[17.0307467467552,51.138581049021894],[17.031043236828644,51.13874171474653],[17.031101191314523,51.138775375698046],[17.031462089974085,51.13896529586694],[17.03153654279998,51.13887294143629],[17.03150118683216,51.13882392473675],[17.031514055710918,51.138819437592616],[17.031587226682827,51.13880609156033],[17.031671559885915,51.1387905994792],[17.031699567548287,51.138785140920554],[17.03205774885357,51.138715631338776],[17.032119200638483,51.13870371622204],[17.03216594356524,51.13869476280209],[17.03221615562398,51.13868451462336],[17.032622889719427,51.13860150005664],[17.032884015708987,51.1385482834284],[17.033029454379296,51.13862972765423],[17.033185960646616,51.1386212228364],[17.033114836854505,51.138677521369964],[17.03314381902255,51.138693807500914],[17.0333195455203,51.13879064931299],[17.032640269620458,51.139328807757344],[17.032487901469505,51.13945095729654],[17.03247522202775,51.13959882205908],[17.032384146733634,51.13989710931121],[17.03200555656709,51.139774333159764],[17.03163108959146,51.14009660460696],[17.031769869862185,51.14016447480495],[17.031804461261345,51.14040585460434],[17.031686450992783,51.14081918359493],[17.031663566546072,51.14091849156277],[17.031879813097166,51.14105078453985],[17.031773509441262,51.14138196418541],[17.03193499144336,51.141368324172944],[17.031520560079546,51.1415674028921],[17.031466075257153,51.14159379479169],[17.031374246562685,51.141817640662225],[17.031055517737244,51.14286358895813],[17.031176986632776,51.14294160953145],[17.03140921911147,51.14309026204293],[17.031336079178782,51.14332984166559],[17.031260176345736,51.143343632385395],[17.03116534414156,51.14339534639219],[17.031223003208375,51.143435207648544],[17.031459053023532,51.14359824812483],[17.03144698331697,51.14363823300164],[17.031429437355957,51.14370088037006],[17.03142251618004,51.14373044393387],[17.03141217883107,51.143762082782835],[17.03143403738242,51.14376514948049],[17.031419089637186,51.143813587754714],[17.03139678923257,51.143811146670195],[17.031387163831415,51.14384359149119],[17.031386421803848,51.1438544628165],[17.031340852935397,51.14400984899494],[17.03133294925503,51.14402899440613],[17.031314634672054,51.14404641747451],[17.0313073128858,51.144064390059896],[17.03111603842061,51.144728533800794],[17.031084490407963,51.14478891658899],[17.031032500725303,51.14493620370524],[17.031025586583688,51.144958584573686],[17.03084301603933,51.144853277438756],[17.03103581101728,51.14421979244172],[17.030918728641552,51.144243355122065],[17.030761968165475,51.14424396193882],[17.0305996585268,51.1442318022036],[17.030459528854163,51.144203968376395],[17.0299468170816,51.14388329048242],[17.02993594619303,51.143890562837505]],[[17.032064439262328,51.138289100716705],[17.032144464430697,51.13828276905656],[17.03226665225977,51.13826235783675],[17.032658265881995,51.13818738766069],[17.03278118288789,51.13816077907502],[17.03281777844578,51.13815666780385],[17.033001358721098,51.13816335490583],[17.033179045835414,51.13819700690801],[17.033228631745644,51.13821538045094],[17.03217863272075,51.13859328970789],[17.03199775193798,51.13828989655886],[17.032004435872526,51.138289862642935],[17.032064439262328,51.138289100716705]],[[17.033888331763176,51.14463188332085],[17.033512710635915,51.144885338134735],[17.03461202866808,51.144143548845975],[17.033888331763176,51.14463188332085]],[[17.040251135423443,51.13645263424909],[17.04023231040873,51.13651363659547],[17.04073130883015,51.136594039404905],[17.040701678168293,51.13668993581196],[17.04054754595543,51.13667115059654],[17.040512379281957,51.13678565093716],[17.040666365268653,51.13680461479107],[17.04060923169045,51.13698966553265],[17.040554677227508,51.1371660803675],[17.040497551435294,51.13735140079928],[17.040437544036717,51.13754542650544],[17.040369494854392,51.13776615736598],[17.040314940387645,51.13794248217483],[17.04027302708312,51.138078367374284],[17.040230672924054,51.1382155164789],[17.04019062366143,51.138345555690506],[17.04001979541441,51.13889934528332],[17.039637613463295,51.13877210550729],[17.03958133483274,51.13875310670351],[17.03942080459895,51.13870078104662],[17.039439217587436,51.1386914481998],[17.039213462703923,51.138618801589494],[17.039246319065644,51.1383914981982],[17.03895765123413,51.138355153644206],[17.038990115412204,51.13823823134361],[17.03900205066933,51.138196078064716],[17.03903411952845,51.13805757734216],[17.039039013245006,51.138035916538506],[17.039040162104587,51.13803151206044],[17.03906287494303,51.1379410110975],[17.039064754181183,51.137924827189465],[17.039075257820695,51.13787935394724],[17.039085587690348,51.13785051012829],[17.039098382405058,51.13779379167643],[17.03911058681436,51.13776000096983],[17.039119367010567,51.13771632048224],[17.039148370724043,51.13771993888341],[17.03916101228114,51.137672658298044],[17.03916287615491,51.13766547290138],[17.039195647719566,51.13754333007172],[17.03916721353472,51.13753981524706],[17.039169654071937,51.13753100746112],[17.03917022764939,51.137528845667696],[17.039217643896198,51.137353775216546],[17.039218217469106,51.137351613422815],[17.039265783673564,51.13717618459393],[17.039266358920855,51.137173941906795],[17.039313916247504,51.13699823430205],[17.039314347986725,51.13699670960788],[17.039361035685985,51.136824329996905],[17.03938776749408,51.13672601400245],[17.04002443553121,51.136805676063],[17.040142001389913,51.13643378625971],[17.04013517636138,51.13641148984618],[17.040110487289937,51.136392777516654],[17.040088505544954,51.13638476710919],[17.040325479131802,51.13641412136208],[17.04029719375726,51.136417242393584],[17.040273167994208,51.136426493357504],[17.04025586253477,51.13644104043307],[17.040251135423443,51.13645263424909]],[[17.03850941518042,51.146428773192476],[17.037240377790525,51.145681580605725],[17.03719430850437,51.1456544549067],[17.03850941518042,51.146428773192476]]]}}]}
