{"type":"FeatureCollection","features":[{"type":"Feature","properties":{"name":"Karłowice–Różanka — okręg 3","district":3,"precinct":87,"seats":3,"election_year":2027,"version_label":"2027 - propozycja miasta","proposal_status":"propozycja miasta","source_state_date":"2026-06-30","polling_station":"Szkoła Podstawowa nr 20, ul. Henryka Michała Kamieńskiego 24","reconstruction":true,"method":"City proposal for 2027 (state date 2026-06-30) + current SIP EMUiA address points + current cadastral parcels","crs":"EPSG:4326"},"geometry":{"type":"MultiPolygon","coordinates":[[[[17.03645724809554,51.13717396213683],[17.036391850853317,51.13723621604096],[17.036310156348268,51.1373139236751],[17.036222904385987,51.13728519291989],[17.03617676553864,51.13727347673528],[17.035906035273314,51.13752627271013],[17.035575433902043,51.137786404338975],[17.035533029760796,51.13776687972353],[17.03427906280097,51.13846084414675],[17.033848875273303,51.13872439165004],[17.03370467932903,51.13883180432707],[17.033573908338926,51.13894227636866],[17.033265083618012,51.13924238759298],[17.033169012607132,51.13936007702721],[17.03309611657305,51.13946079673888],[17.03296561816684,51.139664762717935],[17.03305387459244,51.139695463933556],[17.03309785358165,51.13971077732391],[17.033470839493972,51.139840632411165],[17.033506630652756,51.139882631178374],[17.033190684305477,51.14025312621994],[17.0328765080785,51.14015090532784],[17.032819538969942,51.140132176240385],[17.032787974209256,51.14012181982537],[17.032722406582664,51.14028546452424],[17.032783774399487,51.14024415220668],[17.03320388607539,51.14038185026748],[17.033150782036913,51.14044555241962],[17.033124295290072,51.14047735458308],[17.03308878230182,51.14051985171648],[17.032990355607858,51.140508016626306],[17.032941583419476,51.140705655323615],[17.032943257535347,51.14073154137615],[17.032943688122124,51.14073487110668],[17.032962396891815,51.140905038040515],[17.032959203298173,51.14093614278754],[17.032957017732677,51.140957987541555],[17.032954269783374,51.140984861848516],[17.03293784837036,51.141145667741974],[17.03293498738625,51.14114512268569],[17.032928021161794,51.14121110303998],[17.03299101859588,51.14122453307046],[17.033390796050263,51.141307207448826],[17.033196445221556,51.14158908056319],[17.033177240903974,51.14161702344781],[17.032962981395126,51.141924846513014],[17.0333628892501,51.14203098501614],[17.03372380141399,51.142126767526015],[17.034132852884706,51.14223524431664],[17.033666599455547,51.14293077832114],[17.033238827396335,51.14281724582646],[17.033067778714873,51.14306077268071],[17.03376061607283,51.14343678211131],[17.034872373639917,51.144051054536654],[17.03509994416504,51.14388401683322],[17.03547686583814,51.1440867858103],[17.03555913528889,51.1439780243337],[17.035641212735563,51.14386885668129],[17.035729146418355,51.143749534008634],[17.035816509576346,51.14363219327653],[17.035917126338703,51.14349260448695],[17.03599527238354,51.143382046738985],[17.036086098923136,51.143243132235746],[17.036159597547737,51.143126495032696],[17.036194582021007,51.143077771798886],[17.037080746100486,51.1435870527358],[17.03797741181465,51.14411457231393],[17.03877992326595,51.144586744026],[17.038551148970914,51.14469525639202],[17.03872323818421,51.144838797124585],[17.038992716763527,51.14471093157505],[17.03914767360884,51.14480551716428],[17.03924347167307,51.14487219819766],[17.039332765263147,51.14494242158052],[17.039416428511196,51.14501538543944],[17.039494181218107,51.145090817796174],[17.039565594690604,51.14516871514215],[17.039631108777023,51.1452485417223],[17.039688134599956,51.14533108535747],[17.039739847475175,51.145414843891835],[17.039785239665257,51.1455001686446],[17.03982188195101,51.145587039680315],[17.039320355826906,51.1459119240634],[17.038509428397493,51.146428780974524],[17.038697527568708,51.146997645131535],[17.03872026986491,51.147064903726324],[17.038952194176684,51.14775074873373],[17.038801593473853,51.14730539563108],[17.036834243562414,51.14817711360472],[17.037225755515404,51.148394916421815],[17.037818573617688,51.14872473407642],[17.038540911140217,51.149123853748776],[17.03872276103226,51.149079744056834],[17.038726975819927,51.14912316266656],[17.03880114322596,51.14912032917297],[17.038865004666707,51.14930950141929],[17.039607035289624,51.14971995035364],[17.03963731498663,51.149727876125816],[17.039385775422303,51.14974489548408],[17.03928572706597,51.14975094182054],[17.038870790551737,51.14970870662503],[17.038761680482036,51.149396903531425],[17.03843928482112,51.1492203310865],[17.037511041320048,51.14871213537011],[17.03651632787709,51.148175849391954],[17.03663064887757,51.148769900239564],[17.03626476593719,51.14879815196958],[17.036024068069622,51.14882046740983],[17.036671015528697,51.149209753926726],[17.03583910495389,51.14971488576346],[17.03561003116288,51.149622948038456],[17.035292099158013,51.14941787958774],[17.03514072667055,51.149525279685605],[17.034765422893777,51.14978622662102],[17.036713461430875,51.150156648984684],[17.030739786605476,51.15027287821867],[17.030825033993644,51.15031437959351],[17.033238644109854,51.15027287421397],[17.0331942702193,51.150363344979944],[17.03338853421541,51.150360110581715],[17.033461169236052,51.150358901221125],[17.033479265068994,51.150358600376656],[17.03353039985117,51.15035774818725],[17.03380505025585,51.150353175305895],[17.034079193047972,51.150348609274154],[17.034323891461284,51.150344533056995],[17.034463402401027,51.150342125817964],[17.03473796315439,51.15033738729375],[17.034881769298508,51.15033490532932],[17.034887585885556,51.15033480499578],[17.034973419169344,51.150333323338785],[17.03515949850546,51.15033011105346],[17.035289638203,51.150327864648325],[17.03530872227769,51.150327534814366],[17.035488034127486,51.150324439688916],[17.03692158530011,51.15028653166232],[17.036921585445157,51.150286531658885],[17.03718723717117,51.15028024782388],[17.03748098770465,51.150272124305],[17.03778363936261,51.150263754143786],[17.038068468567594,51.150262745664016],[17.03838955740722,51.15026294615376],[17.03878199856495,51.15026318919428],[17.0391104923252,51.15027311241266],[17.039411544277694,51.15028938705093],[17.039594343153265,51.150319345768345],[17.039889903594673,51.150373045559],[17.040137176797018,51.15042024617721],[17.040393276631775,51.150475439451164],[17.040804117771618,51.15059192593094],[17.041465682209907,51.15083818430728],[17.041621940270502,51.15090630085672],[17.04174444086465,51.15095970239019],[17.041765380526048,51.15097110019056],[17.041902789623244,51.1510458940549],[17.041918273567646,51.151054322811184],[17.0419234297057,51.15105712935722],[17.04198868288136,51.15109264788118],[17.041991710412947,51.15109429620554],[17.04205707818572,51.151129876758944],[17.042076777016675,51.15114059910776],[17.042149855705766,51.15117924439701],[17.042281808247125,51.151249022759124],[17.04231628702399,51.15126725556093],[17.042376225127516,51.151295656408344],[17.042512046891634,51.151360013077884],[17.042608592411305,51.151402784938455],[17.04267892384626,51.15143394331799],[17.04275634924814,51.15146531073844],[17.04282590207056,51.15149348888778],[17.042944587744557,51.15153949812329],[17.043010892048255,51.15156248414093],[17.0431451825595,51.15160904066315],[17.04321866107225,51.15163451335061],[17.043353554033484,51.151677876949705],[17.043375210598928,51.15168443221626],[17.043453054143633,51.15170799330288],[17.043497022187644,51.151721301528575],[17.04350472352149,51.15172329810924],[17.04350472378945,51.15172329817871],[17.043646659736034,51.15176009457689],[17.043735152288072,51.15178303596074],[17.04380381718436,51.151800836730594],[17.043856867022825,51.15181458943721],[17.04391552907935,51.1518274198122],[17.044068173507362,51.15186080626409],[17.044070998797498,51.151861387610495],[17.04419684154408,51.15188728942952],[17.044334167320002,51.1519134323659],[17.0443463377353,51.15191574954521],[17.044367829388662,51.151919228827545],[17.04452053899395,51.151943952815955],[17.044547258701346,51.151947669847836],[17.044714776178758,51.15197097102402],[17.044803347550726,51.15198169354097],[17.044858911437736,51.151988419354936],[17.044923421348987,51.151994682410105],[17.045032504240474,51.15200527198524],[17.045160031044674,51.15201590055553],[17.04520828669358,51.152019921794434],[17.04531560581772,51.1520260108844],[17.045425491998426,51.152032244882996],[17.04547793732121,51.15203522054939],[17.045551950921265,51.15203783012019],[17.045613615116256,51.15204000446427],[17.0457140150644,51.15204212714242],[17.045784418331664,51.152043615769685],[17.045785337025336,51.152043634951056],[17.04595784264908,51.152043226247],[17.046037017409493,51.152041000737164],[17.04607938581843,51.15203980995943],[17.0461839295454,51.15203687160894],[17.046335385652192,51.1520299682898],[17.046337079639233,51.15202989040746],[17.046370927622952,51.15202834777892],[17.04637832158735,51.15202801072137],[17.046538134500125,51.152018366914604],[17.04658865573935,51.152015317733195],[17.04660457305569,51.152014357037245],[17.04680555021069,51.15199931391267],[17.046984469411964,51.151985921905485],[17.04715278193106,51.151973323302556],[17.047409641926937,51.151954095729046],[17.047486642326998,51.15194833209199],[17.04750722305578,51.151946844701875],[17.047784611165735,51.151926795513475],[17.04797602449171,51.15191295983336],[17.048172088652713,51.15189878771934],[17.048192719699426,51.15189714509768],[17.048329945437864,51.15188622100029],[17.04852891385257,51.15187038097059],[17.048695329250968,51.15185713184776],[17.048746936823967,51.15185302350197],[17.04893532282889,51.1518313667301],[17.048946677424382,51.151830061169974],[17.049048551658505,51.151815796800015],[17.049093768377116,51.151809466246775],[17.049268217897463,51.151780983085004],[17.049276913334634,51.151779563285025],[17.049363900104925,51.15176448273207],[17.049464686486463,51.151747009751745],[17.049626943088914,51.151715880206716],[17.049698344026567,51.1517021812233],[17.049741502281247,51.151693900926645],[17.049958343852314,51.151646098134776],[17.05000182467353,51.1516365132711],[17.050063600045842,51.15162170028014],[17.05028992743963,51.15156743036789],[17.05042166543415,51.15153584066164],[17.050471653149078,51.15152350818244],[17.05063675826982,51.151482773376685],[17.05078936871155,51.15144512196318],[17.050981707415787,51.15139766769097],[17.051108353183558,51.15136642155064],[17.051243032390378,51.15133319260115],[17.051416016014276,51.151290513221525],[17.051551868487017,51.151256994976976],[17.05156232131885,51.15125441611216],[17.05168471538118,51.1512242172234],[17.05173378874149,51.15121210962384],[17.05175142462555,51.151207758690205],[17.051770433922634,51.15120306829291],[17.05180634928727,51.15119420711931],[17.051881989892244,51.15117554384407],[17.051892194143477,51.151173026761136],[17.05201582468956,51.1511425229128],[17.052017851754933,51.151142022438705],[17.05205710427156,51.15113233781724],[17.0520714890571,51.15112878843086],[17.05207810896513,51.151127154729245],[17.052093707680708,51.15112330593529],[17.052113058805126,51.151118531952314],[17.052146961360307,51.15111016677083],[17.05215796865389,51.15110745120904],[17.052188696288244,51.15109986935284],[17.052210843060593,51.15109440423207],[17.052227286471325,51.15109034741313],[17.05223408019293,51.151088671062],[17.052241029049604,51.15108695731215],[17.052242593524877,51.151086570849856],[17.052294374606358,51.15107379455324],[17.052313047633827,51.15106918674472],[17.05237077477768,51.151054943840116],[17.05238752416233,51.15105081126794],[17.052419123737803,51.151043014371886],[17.052438053876376,51.15103834390118],[17.052466708411725,51.15103127286802],[17.052551703630474,51.151010301793825],[17.05257964125222,51.151003408314104],[17.05260248467571,51.15099777166673],[17.05270773584192,51.15097180270798],[17.0527195102247,51.1509688973324],[17.052732024460166,51.150965809165506],[17.052771536710374,51.15095605988515],[17.052782401713763,51.150953379070934],[17.052937323611513,51.150913101530016],[17.05294772246771,51.15091021915434],[17.05297656725273,51.150902225403804],[17.053026738722973,51.15088832013891],[17.05307846696968,51.15087398336866],[17.05312502453395,51.15086107901471],[17.05314721223456,51.15085492993811],[17.053258948748418,51.15082185364958],[17.053448733875758,51.15076119047977],[17.053486668536838,51.15074791235002],[17.05361792087678,51.150701969482185],[17.053714829654595,51.15066563540496],[17.053756488349173,51.1506488948486],[17.0537564889294,51.150648894615436],[17.053678214727796,51.15057805892296],[17.053230442883663,51.14978693524741],[17.052875008207565,51.14935098242944],[17.052476992518592,51.14892246854989],[17.052106889432384,51.14857459168992],[17.05170577081672,51.14822283035071],[17.051453485495443,51.14784040649124],[17.051333950087667,51.14695403948201],[17.051363788016026,51.146874768222126],[17.0514294795835,51.14670023696672],[17.05151525754006,51.14647169705285],[17.051611175828167,51.146238573676946],[17.051876149207782,51.14559194931208],[17.051909723063517,51.14548858900443],[17.05210411322608,51.14461674995885],[17.05242194963938,51.14416476468493],[17.052732346846,51.14372751521539],[17.05274217792312,51.14374433353697],[17.05289361999073,51.1437751448793],[17.052865109110076,51.143829606926836],[17.053024966096675,51.143861960542196],[17.05311405749258,51.143699924551065],[17.053277086003078,51.14339420338717],[17.053302431040173,51.14335124931181],[17.053328929500733,51.14330919454058],[17.05335684653732,51.14326695347314],[17.05339321142157,51.14321483823803],[17.05341998271663,51.14317969868237],[17.053452041661558,51.143134776244416],[17.053535481374542,51.14303791397606],[17.053573685238728,51.14299928003765],[17.053617604627433,51.14295579298479],[17.05369099950143,51.142892362680065],[17.053801002607603,51.14280261019528],[17.053889959385117,51.142736402011344],[17.054030396947425,51.1426440637694],[17.054136216070727,51.14258415867281],[17.054332110451696,51.14248716244152],[17.05444648607049,51.1424357944851],[17.054503525529526,51.14241317023628],[17.05467697965267,51.14232677957624],[17.054802459356083,51.14230895145318],[17.05528795448813,51.14216005925547],[17.05555897569477,51.14210203554772],[17.05610764936593,51.14198446658371],[17.055895470637402,51.14185933530874],[17.05582068516656,51.14177751024243],[17.055729775869278,51.14168048831955],[17.05566040417814,51.1416142139766],[17.055590024135373,51.14155324432318],[17.055477083911622,51.14147912968],[17.05531784656286,51.14140903691083],[17.054395153959913,51.141078178237],[17.054157070465862,51.140997350996976],[17.054188198174437,51.14101327166743],[17.054192880548165,51.14104078186348],[17.054151812084992,51.141209203196084],[17.05381834508105,51.141180552796094],[17.053789626268173,51.14129774308699],[17.05350031128743,51.14127073449808],[17.05323943629798,51.1412464365598],[17.05298496717791,51.14122266635963],[17.05272994090879,51.14119890008192],[17.052476043847623,51.141175133406],[17.05222257219806,51.14115154042857],[17.052010822389697,51.1411317460995],[17.051798929887337,51.14111195022953],[17.05183843984356,51.140947472502354],[17.051516768041992,51.14107071917374],[17.05142742646857,51.14109224394908],[17.051168266348622,51.141154480560544],[17.050673519613362,51.141272859656475],[17.050597387276053,51.14129201886761],[17.050488902037813,51.14132089387187],[17.050363773139132,51.1413544071338],[17.050309148223466,51.14127464800476],[17.05018908745825,51.141306314409796],[17.05012460997016,51.141217836135255],[17.049963391820565,51.1412488533953],[17.049860371086982,51.140936354706994],[17.049828208265986,51.14084006608431],[17.049797321732875,51.14074774326154],[17.049744245469245,51.140589157297015],[17.04969558773399,51.140442976950524],[17.04969073682035,51.14042867996542],[17.049668260765497,51.140363142650386],[17.049648620008234,51.14030219510668],[17.049631404415624,51.14025049962652],[17.049604228404277,51.14016958777804],[17.04956665594416,51.14005703779599],[17.049527668366025,51.139940341063884],[17.049490811244716,51.13982985549342],[17.04945224480579,51.13971424091027],[17.04938450330618,51.13951142338314],[17.049375686244716,51.139484994086914],[17.049345937387976,51.139395808761535],[17.049331569003066,51.13935301813721],[17.04930367770143,51.139269412486435],[17.049275784837054,51.139185887721624],[17.049242346121282,51.139085740963885],[17.0492257604655,51.138990900248],[17.049214563015184,51.13892662316923],[17.04899141382976,51.13890511252357],[17.04893526659679,51.138899693662516],[17.04883655023744,51.13889010797407],[17.048709393974,51.13887790862072],[17.04858225391424,51.138865619364246],[17.048539825669508,51.13886155248784],[17.048370386258558,51.13884518816785],[17.048391947731925,51.138756303213086],[17.048363652788222,51.13875359184068],[17.048232482640753,51.13874092991514],[17.048125617494915,51.13853960606651],[17.04811262300631,51.13853835056784],[17.048031127285444,51.13857597413062],[17.048070210978576,51.138416087813404],[17.04809213908268,51.138326119973186],[17.04807021097858,51.138416087813404],[17.048076733349166,51.13842168255195],[17.048378254752144,51.13833825567056],[17.048405812871557,51.13822507414684],[17.048124386472367,51.13819354962706],[17.048405812871557,51.13822507414683],[17.048506400817725,51.13823043231902],[17.0485612457637,51.138240074916915],[17.048716535703402,51.138255083306966],[17.048928543693876,51.138275515026734],[17.048945187663808,51.13822212603751],[17.048945619098188,51.13822060130647],[17.04898091672646,51.13810780761077],[17.04899856962976,51.13805120852459],[17.04857794333738,51.13799987261792],[17.048663779656774,51.13772386961969],[17.04868678660126,51.13765011693772],[17.04874978427785,51.13744727460097],[17.04870964222777,51.13744257912235],[17.04831893898659,51.13739562988098],[17.048167083105408,51.1373756776271],[17.048095536779325,51.137670297284544],[17.04780324247407,51.13764280976828],[17.047758090452234,51.137637839442284],[17.04773424905077,51.13773680110633],[17.047709381391446,51.13783979974806],[17.047684814337423,51.13794207266955],[17.047660385323844,51.13804318704434],[17.047996675429502,51.1380757256428],[17.047970570619274,51.138149965379576],[17.047936362961355,51.13828953881037],[17.047714083621702,51.13826829349528],[17.04768533495748,51.138385581025815],[17.047664358771907,51.13847096466391],[17.047630164228845,51.13861053810773],[17.047852455758683,51.13863196346865],[17.047841763883405,51.13871339451182],[17.047504051453842,51.13868031351136],[17.047477373980538,51.13879135207156],[17.047470501227494,51.13881979326685],[17.047427703323144,51.13881564206898],[17.047239839371123,51.138797471946376],[17.047104255569526,51.13878444705975],[17.046917974248295,51.138766460117296],[17.04672724415012,51.138748014102745],[17.046761311083483,51.13860852977445],[17.046598874582777,51.138592885194264],[17.046564807172683,51.13873236947306],[17.046375375836444,51.138714014378415],[17.04618908080989,51.13869602616126],[17.04605337069914,51.13868291811735],[17.045864209568855,51.13866464530415],[17.04582235324944,51.13866058210633],[17.045855994222663,51.138521094556914],[17.0455735520714,51.13849378074631],[17.04549297630872,51.13848600335528],[17.045317400052667,51.13847215555614],[17.04536581045928,51.138486835267315],[17.045386064919455,51.13850940279081],[17.04532842583501,51.13875441254395],[17.045320371044138,51.1387888310715],[17.04510890871718,51.13878762612016],[17.045013465875726,51.138787035594575],[17.044827269312226,51.138799601815684],[17.044800687398855,51.13880182989689],[17.04456805226117,51.13881563454973],[17.04442758273653,51.13882957153906],[17.04432253985926,51.13883715450591],[17.044286676548374,51.13883973813009],[17.044246563972116,51.138842574686386],[17.0442419846183,51.13884289684897],[17.04421309034119,51.13884499802389],[17.044165360588153,51.13884856339007],[17.043988142300492,51.138877499881424],[17.043966402938274,51.1388811877218],[17.043948837326738,51.13888412757816],[17.043937660958896,51.13880465764309],[17.043888315712884,51.13845476377766],[17.04375156871106,51.1384628601466],[17.043716411605914,51.13846931491745],[17.043674805947088,51.13848771812564],[17.04364947396644,51.13851314046356],[17.043542488311342,51.13820538599744],[17.04355659647903,51.13822660906681],[17.043585307848673,51.13823265117911],[17.043813434896595,51.138269549195556],[17.043858844102417,51.138090523057535],[17.043993393607586,51.13810713013132],[17.044026739295308,51.13798357032122],[17.044110021011743,51.137994499240286],[17.044135158720643,51.137997833094374],[17.04415611526055,51.13793169673817],[17.044296258978438,51.13795002126048],[17.044315930369734,51.13788244502001],[17.044177351362826,51.13786447491521],[17.04417535397857,51.13786293934062],[17.044223713206573,51.13771673139694],[17.044232196847652,51.13768302662383],[17.043691911225675,51.13761691402591],[17.04369708004003,51.13759912083006],[17.044211220418173,51.137662250923874],[17.044265330930862,51.137485929694044],[17.04428499471915,51.13742355839781],[17.044313002302818,51.13742698758431],[17.04433237766447,51.137365431980776],[17.044136230287553,51.137341858297994],[17.04418720465915,51.13716516985615],[17.0440654971435,51.13715026812107],[17.044098210736127,51.13704620165386],[17.044126770369004,51.13695507328732],[17.04414887996519,51.13688497292184],[17.043994304613495,51.136866098737734],[17.043741595584642,51.136835292806104],[17.04358683815379,51.136816345774506],[17.043500399934498,51.136983855782724],[17.043253462016466,51.136953730548605],[17.04325236509921,51.136953568750954],[17.043211303029935,51.137086756078304],[17.043170404024398,51.137218955861684],[17.043137822503674,51.137324821082885],[17.043091742190217,51.13747400483629],[17.043034320728392,51.137659584750395],[17.042985374435265,51.137818112217275],[17.042952498878414,51.137924334558456],[17.042917190563266,51.13803901421788],[17.042856026435807,51.13823690618814],[17.042787122966633,51.13846006760272],[17.042756540308815,51.13855901804304],[17.042725957331584,51.138657977461136],[17.042698960534032,51.13874659217225],[17.042686538024082,51.1387855145439],[17.042662063611502,51.13886478268045],[17.04260419603736,51.13905172512451],[17.04253642173018,51.13927129975311],[17.042505116079564,51.13937268039237],[17.042482134948564,51.139446737726665],[17.042369443699165,51.13951310254416],[17.041860702958743,51.139404323279756],[17.041587560055085,51.13934597186241],[17.041298073436618,51.13928194820862],[17.04087426601302,51.13918814537926],[17.040845716295845,51.13917635954437],[17.040515123377716,51.13924383897965],[17.040522237209803,51.13926326104104],[17.04052277399031,51.139280795256276],[17.040467089510624,51.13951501313824],[17.0399403750681,51.13947243961538],[17.039700505118983,51.13945314724335],[17.039695355927485,51.139452691439566],[17.039569924139457,51.139434554149695],[17.03941704693415,51.13942717665672],[17.039368285565754,51.13962292126125],[17.039290997894632,51.13961640717989],[17.03886666539972,51.139580279331255],[17.038835556281654,51.139732353242195],[17.038933706533527,51.13974166404164],[17.03892837752152,51.1397643191091],[17.03890839232558,51.13984934077278],[17.038897888049117,51.13989481398155],[17.03879288288712,51.139884592798374],[17.038916154728373,51.14009419264317],[17.038903288710152,51.14009787155522],[17.038553043256847,51.140198778268264],[17.03861517075685,51.14030982567982],[17.038677298551804,51.14042087305788],[17.038826591687965,51.140522541418825],[17.038976196265423,51.140624382947955],[17.038530341156942,51.14064361508823],[17.038568582253763,51.14058718681337],[17.03792681108737,51.13942931966841],[17.037711689217527,51.13905138699159],[17.037187403190547,51.13812098522666],[17.03674787241744,51.137346476365614],[17.036538686356558,51.13698496938035],[17.03637601247626,51.13713903325393],[17.03645724809554,51.13717396213683]],[[17.038823544483602,51.14905544630127],[17.039474772785923,51.148893499132036],[17.039474772785926,51.14889349913204],[17.038823544483602,51.14905544630128],[17.03872276103226,51.149079744056834],[17.038823544483602,51.14905544630127]],[[17.052705396079382,51.14368201614674],[17.05223002707387,51.14364231426844],[17.051338429224067,51.143571924572385],[17.05128569551667,51.1436799477765],[17.050986961912262,51.14363071514749],[17.051051887132605,51.14349618167494],[17.051198757169313,51.143192256037686],[17.051733613309143,51.14320062114687],[17.051763629174744,51.14320108924779],[17.051760941902064,51.143173217571814],[17.05183625449506,51.143176758773684],[17.051908128322648,51.14318003832072],[17.051905665103106,51.14320331049654],[17.052119719139743,51.14320665464665],[17.052195167067197,51.14320777850224],[17.052319487678606,51.143209729828975],[17.052429664181357,51.14321148552361],[17.052441700249286,51.14318551309806],[17.052461256032213,51.14314335732384],[17.05250432002344,51.143050267942726],[17.05251274704809,51.14305189141874],[17.052552716566876,51.14305968559887],[17.05251994062815,51.143123534154945],[17.053014233890462,51.14322220727783],[17.05294234352395,51.143343335822365],[17.052847514562906,51.143520373874594],[17.052793214620838,51.14362479820166],[17.052760543652486,51.14368770375796],[17.052732346846,51.14372751521539],[17.052705396079382,51.14368201614674]],[[17.047461475557807,51.14081164468668],[17.04792057922324,51.140853248907305],[17.04791473694518,51.140720171233646],[17.047490667203625,51.14068196414582],[17.047476071380714,51.140746804416246],[17.047490667203625,51.14068196414581],[17.048054701633554,51.14073278117467],[17.048069939336617,51.14066726284476],[17.048085176810474,51.14060175350005],[17.047961714517264,51.14059050337739],[17.04798909617183,51.140460768915624],[17.04755476422653,51.14042060891795],[17.04807992980051,51.140469167529034],[17.048109973771577,51.140341723199974],[17.048047740108256,51.14033583776956],[17.048067366257843,51.1402035622402],[17.047616145936136,51.14016061593897],[17.048098592626815,51.140206534240036],[17.048124613826612,51.140096802712605],[17.048151058319746,51.139984548533505],[17.04817721759338,51.13987364946131],[17.048735384013245,51.139927247220065],[17.04874034996072,51.13995331262317],[17.048910270222763,51.139930485466685],[17.048967152446902,51.13992314502142],[17.049022236592453,51.13986978094391],[17.049080997790828,51.14004571854632],[17.049013176931908,51.14001791050218],[17.04899646954787,51.14001106837586],[17.048830693497482,51.14003318322218],[17.048876924069717,51.140174238092705],[17.04888660336536,51.14020390171701],[17.048829588499547,51.140211420837836],[17.048832671431708,51.140248456262356],[17.04883436339226,51.14026903832098],[17.048878905860892,51.14040254613662],[17.04882630505521,51.140409435919835],[17.04885099345374,51.14054040900528],[17.0488477039353,51.1405544510399],[17.048823404483347,51.14065835345234],[17.048820945353135,51.14066884234191],[17.04879463337497,51.14078235628353],[17.048790617241643,51.14079907131915],[17.048773941578986,51.140871329263014],[17.04876043201887,51.140929292458715],[17.048730098014683,51.141059791056826],[17.04844107998473,51.14103384211996],[17.048253923903726,51.14101692897926],[17.04815105153967,51.14100770445157],[17.047870260271065,51.14098245076201],[17.047912621387045,51.14085252777987],[17.047461475557807,51.14081164468668]],[[17.04742799744821,51.14094267471025],[17.04742799744821,51.140942674710246],[17.047428003145654,51.14094267522267],[17.04742799744821,51.14094267471025]],[[17.047520428393977,51.14055029253337],[17.04752042839398,51.14055029253336],[17.04752044133872,51.14055029371292],[17.047520428393977,51.14055029253337]],[[17.05357772386532,51.14264106679947],[17.053347825071,51.14252168471134],[17.053326504212176,51.1423239199571],[17.05331604682695,51.14223223092772],[17.053369501713984,51.14222138160676],[17.053498992192257,51.1421940223722],[17.05360426505113,51.14233762069502],[17.05365765017002,51.14237072100348],[17.05381698007383,51.14248036217195],[17.05357772386532,51.14264106679947]],[[17.053029565349,51.14319650419523],[17.053047472936324,51.14316433145265],[17.053048318838794,51.14316280107417],[17.05314673783913,51.143190899410854],[17.05312469325427,51.143219919272504],[17.053029565349,51.14319650419523]]],[[[17.039265783673564,51.13717618459393],[17.039218217469106,51.137351613422815],[17.039217643896198,51.137353775216546],[17.03917022764939,51.137528845667696],[17.039169654071937,51.13753100746112],[17.03916721353472,51.13753981524706],[17.039195647719566,51.13754333007172],[17.03916287615491,51.13766547290138],[17.03916101228114,51.137672658298044],[17.039148370724043,51.13771993888341],[17.039119367010567,51.13771632048224],[17.03911058681436,51.13776000096983],[17.039098382405058,51.13779379167643],[17.039085587690348,51.13785051012829],[17.039075257820695,51.13787935394724],[17.039064754181183,51.137924827189465],[17.03906287494303,51.1379410110975],[17.039040162104587,51.13803151206044],[17.039039013245006,51.138035916538506],[17.03903411952845,51.13805757734216],[17.03900205066933,51.138196078064716],[17.038990115412204,51.13823823134361],[17.03895765123413,51.138355153644206],[17.03952580536216,51.13842668602514],[17.039246319065644,51.1383914981982],[17.03921346264293,51.13861880201146],[17.03943921758743,51.13869144819981],[17.03942080459895,51.13870078104662],[17.03958133483274,51.13875310670351],[17.039637613463295,51.13877210550729],[17.04001979541441,51.13889934528332],[17.04019062366143,51.138345555690506],[17.040230672924054,51.1382155164789],[17.04027302708312,51.138078367374284],[17.040314940387645,51.13794248217483],[17.040369494854392,51.13776615736598],[17.040437544036717,51.13754542650544],[17.040497551435294,51.13735140079928],[17.040554677227508,51.1371660803675],[17.04060923169045,51.13698966553265],[17.040666365268653,51.13680461479107],[17.040512379281957,51.13678565093716],[17.040161692275703,51.13674247269652],[17.040161692275706,51.13674247269651],[17.040512379281957,51.13678565093715],[17.04054754595543,51.136671150596534],[17.040701678168293,51.13668993581196],[17.04073130891183,51.136594039418064],[17.04023231040873,51.13651363659547],[17.04016169383175,51.13674246765418],[17.040251135423443,51.136452634249096],[17.04025586253477,51.13644104043308],[17.040273167994208,51.13642649335751],[17.04029719375726,51.136417242393584],[17.040325479131834,51.13641412136209],[17.040088505544954,51.13638476710919],[17.040110487289937,51.136392777516654],[17.04013517636138,51.13641148984618],[17.040142001389913,51.13643378625971],[17.04002443553121,51.136805676063],[17.03938776749408,51.13672601400245],[17.039361035685985,51.136824329996905],[17.039314347986725,51.13699670960788],[17.039313916247504,51.13699823430205],[17.039266358920855,51.137173941906795],[17.039265783673564,51.13717618459393]],[[17.03945946793982,51.13864040049255],[17.03944510925723,51.1386884850573],[17.039442163422333,51.13868996662855],[17.03944510925723,51.138688485057294],[17.03945946793982,51.13864040049255]]]]}}]}
