{"type": "FeatureCollection", "features": [{"type": "Feature", "properties": {"district": 3, "variant": "wariant-spojny-propozycja", "crs": "EPSG:4326"}, "geometry": {"type": "MultiPolygon", "coordinates": [[[[17.036538686356558, 51.13698496938035], [17.03637601247626, 51.13713903325393], [17.03645724809554, 51.13717396213683], [17.036391850853317, 51.13723621604096], [17.036310156348268, 51.1373139236751], [17.036222904385987, 51.13728519291989], [17.03617676553864, 51.13727347673528], [17.035906035273314, 51.13752627271013], [17.035575433902043, 51.137786404338975], [17.035533029760796, 51.13776687972353], [17.03427906280097, 51.13846084414675], [17.033848875273303, 51.13872439165004], [17.03370467932903, 51.13883180432707], [17.033573908338926, 51.13894227636866], [17.033265083618012, 51.13924238759298], [17.033169012607132, 51.13936007702721], [17.03309611657305, 51.13946079673888], [17.03296561816684, 51.139664762717935], [17.03305387459244, 51.139695463933556], [17.03309785358165, 51.13971077732391], [17.033470839493972, 51.139840632411165], [17.033506630652756, 51.139882631178374], [17.033190684305477, 51.14025312621994], [17.0328765080785, 51.14015090532784], [17.032819538969942, 51.140132176240385], [17.032787974209256, 51.14012181982537], [17.032722406582664, 51.14028546452424], [17.032783774399487, 51.14024415220668], [17.03320388607539, 51.14038185026748], [17.033150782036913, 51.14044555241962], [17.033124295290072, 51.14047735458308], [17.03308878230182, 51.14051985171648], [17.032990355607858, 51.140508016626306], [17.032941583419476, 51.140705655323615], [17.032943257535347, 51.14073154137615], [17.032943688122124, 51.14073487110668], [17.032962396891815, 51.140905038040515], [17.032959203298173, 51.14093614278754], [17.032957017732677, 51.140957987541555], [17.032954269783374, 51.140984861848516], [17.03293784837036, 51.141145667741974], [17.03293498738625, 51.14114512268569], [17.032928021161794, 51.14121110303998], [17.03299101859588, 51.14122453307046], [17.033390796050263, 51.141307207448826], [17.033196445221556, 51.14158908056319], [17.033177240903974, 51.14161702344781], [17.032962981395126, 51.141924846513014], [17.0333628892501, 51.14203098501614], [17.03372380141399, 51.142126767526015], [17.034132852884706, 51.14223524431664], [17.033666599455547, 51.14293077832114], [17.033238827396335, 51.14281724582646], [17.033067778714873, 51.14306077268071], [17.03376061607283, 51.14343678211131], [17.034872373639917, 51.144051054536654], [17.03509994416504, 51.14388401683322], [17.03547686583814, 51.1440867858103], [17.03555913528889, 51.1439780243337], [17.035641212735563, 51.14386885668129], [17.035729146418355, 51.143749534008634], [17.035816509576346, 51.14363219327653], [17.035917126338703, 51.14349260448695], [17.03599527238354, 51.143382046738985], [17.036086098923136, 51.143243132235746], [17.036159597547737, 51.143126495032696], [17.036194582021007, 51.143077771798886], [17.037080746100486, 51.1435870527358], [17.03797741181465, 51.14411457231393], [17.03877992326595, 51.144586744026], [17.038551148970914, 51.14469525639202], [17.03872323818421, 51.144838797124585], [17.038992716763527, 51.14471093157505], [17.03914767360884, 51.14480551716428], [17.03924347167307, 51.14487219819766], [17.039332765263147, 51.14494242158052], [17.039416428511196, 51.14501538543944], [17.039494181218107, 51.145090817796174], [17.039565594690604, 51.14516871514215], [17.039631108777023, 51.1452485417223], [17.039688134599956, 51.14533108535747], [17.039739847475175, 51.145414843891835], [17.039785239665257, 51.1455001686446], [17.03982188195101, 51.145587039680315], [17.03989779310556, 51.14553777036283], [17.03992927029405, 51.14551746945028], [17.03994251536156, 51.14598123670729], [17.04004541346009, 51.14598003166393], [17.040299472260934, 51.14676946491794], [17.040388500497837, 51.1471973199432], [17.040490797491103, 51.147471291280155], [17.04049478805877, 51.14748217450655], [17.04050802095699, 51.14751741455616], [17.04051156419341, 51.14752712545966], [17.040909397256748, 51.14859222595031], [17.041012293722144, 51.14859344722756], [17.041110175960437, 51.14885455353679], [17.04130117080066, 51.14882625566243], [17.04145770082195, 51.14880301487139], [17.04148786452969, 51.14879858746145], [17.042004060028678, 51.14889119366904], [17.04216565542185, 51.148920142272445], [17.042186366516518, 51.14892976897238], [17.042174608152898, 51.148950258937134], [17.042110344003092, 51.14901602218811], [17.042213072134896, 51.1493002256254], [17.0422167572181, 51.149318297991236], [17.042212515282568, 51.149340935103645], [17.04216120940926, 51.14943041126301], [17.042122350279307, 51.14949859401315], [17.042185152199576, 51.14960637259291], [17.04226026192458, 51.14960292433638], [17.042246620858542, 51.1495928341466], [17.04224358915519, 51.14958669637253], [17.042207874701916, 51.1495126350077], [17.042207608297716, 51.149499957447], [17.042237458186108, 51.149427161132174], [17.042242274704154, 51.14941543314629], [17.04229276731035, 51.14933002259519], [17.042251655455505, 51.14921566147757], [17.042257417455495, 51.14918725647764], [17.042274727784662, 51.14917405760954], [17.04231804932281, 51.149165090086264], [17.042407876265575, 51.14919911415695], [17.042580001284353, 51.149166857087145], [17.04276184142595, 51.14913271054616], [17.042778282250147, 51.14912975266688], [17.042839739690667, 51.14913122650173], [17.042899610709405, 51.14913269631221], [17.042718013618792, 51.14865563169823], [17.0425929344132, 51.148315959484336], [17.042524497233487, 51.14816144281561], [17.04245307830481, 51.148007378140825], [17.042296282221137, 51.14766866848435], [17.042217095635877, 51.14749774740888], [17.042181919033958, 51.147421946421005], [17.04216183736074, 51.147373660455536], [17.04204907484628, 51.14720640174166], [17.04198199663167, 51.1471099778751], [17.041962961751253, 51.147078798730846], [17.04189724495419, 51.14697600332355], [17.04182740288592, 51.14687159190556], [17.04175883868512, 51.14676691223388], [17.04168698514277, 51.14666304160407], [17.04107604736825, 51.14580819901159], [17.040892834670146, 51.14589879556965], [17.040163297897692, 51.14536725862408], [17.040460698313616, 51.145185096692735], [17.040421483767773, 51.14512987524526], [17.040391695265477, 51.14508806275579], [17.04037117080229, 51.145046793730295], [17.040298382135855, 51.144900771102684], [17.040292864430132, 51.144871194864066], [17.04028294251815, 51.14481761610886], [17.040247808364693, 51.14462838357456], [17.04010978479002, 51.14434227930866], [17.040063611495224, 51.14426638737453], [17.040040078483454, 51.144234460795055], [17.040191347383633, 51.144092074804384], [17.040218720655197, 51.14404633541104], [17.040352975858653, 51.14390492430528], [17.04036098264088, 51.143896476812515], [17.04044593916818, 51.14385536303875], [17.041032264297343, 51.14383889349667], [17.041136579014655, 51.143835991090235], [17.04136694397385, 51.14382956407668], [17.041377224888496, 51.14382929774737], [17.04132779348043, 51.1442858988709], [17.040917404494117, 51.1442802778904], [17.040612332765843, 51.14427308322957], [17.040685470380474, 51.14438090257298], [17.040703432729263, 51.14440788397602], [17.041111620112204, 51.14517710348897], [17.04156234121848, 51.14580615298933], [17.041575314472336, 51.14582427453156], [17.041702065044664, 51.14600113243291], [17.04172887371709, 51.14603854220999], [17.041752392047886, 51.146071277380976], [17.041888698445618, 51.146261580947645], [17.04200090736108, 51.14641816461919], [17.04223492289092, 51.146369936990546], [17.042059536200078, 51.14604314774653], [17.042945386120643, 51.1458568619869], [17.043004711161593, 51.1460289595605], [17.043062752199557, 51.1461968214638], [17.04324886617932, 51.14615791767519], [17.043492741000808, 51.1461069004921], [17.04380679205232, 51.14604119214483], [17.043956367004796, 51.146532538752695], [17.043958189532034, 51.146550164343445], [17.043960866004305, 51.14657488074596], [17.043973736366013, 51.146658220969734], [17.043921702782853, 51.14666978780809], [17.04365653300713, 51.14672205212984], [17.043440681894296, 51.146766161084855], [17.043226108108396, 51.14680999242303], [17.04301125588578, 51.146854827929175], [17.042796682380143, 51.14689929674743], [17.042818008339296, 51.146941344993735], [17.04288706215229, 51.14707154062141], [17.04290662492529, 51.14710694007154], [17.0429200064168, 51.14713024282781], [17.042954979144646, 51.14719521840737], [17.042736399066097, 51.14724121852896], [17.042890705081703, 51.14753111150903], [17.043114847672083, 51.14749402038465], [17.04332898636122, 51.14745134535007], [17.04354428372467, 51.147404454271864], [17.043714110281247, 51.14728318837114], [17.043889637203566, 51.147163371205416], [17.0440959542411, 51.14700869191788], [17.043944504818008, 51.14671376270605], [17.044654412477815, 51.14655783100338], [17.044802793048085, 51.14652527784317], [17.045103843419756, 51.146459369942086], [17.04548257375943, 51.145967869741014], [17.047127166393658, 51.146022191723134], [17.04712083116147, 51.14624239510626], [17.047204004741015, 51.146722993213906], [17.04728378493798, 51.14718453252824], [17.047278884378983, 51.147212216632695], [17.04726998663711, 51.147238286001745], [17.04725165040343, 51.14726254348643], [17.047227749417413, 51.14728635110378], [17.04720313764192, 51.14730719533727], [17.04717467996818, 51.14732740592948], [17.04696497326532, 51.14746320274895], [17.046909885231063, 51.1475057872229], [17.046857096485958, 51.14754845333582], [17.046831475991276, 51.14757037701608], [17.046809431369432, 51.14759355242277], [17.046793541370302, 51.147619070340305], [17.046776636915457, 51.14764387879669], [17.046753836430057, 51.14769680371055], [17.046737096836917, 51.14780448891016], [17.04674712998866, 51.1478856661402], [17.046854485355993, 51.14833921388217], [17.04698946229071, 51.14868005882989], [17.047566524633222, 51.14996837932755], [17.047667373241104, 51.15020465680212], [17.047906984266227, 51.150743656757555], [17.047926237955547, 51.15077836061376], [17.04838057739027, 51.15180078024743], [17.04783411081694, 51.151841973252395], [17.047646574580817, 51.15185599848537], [17.046587706049365, 51.151937385230305], [17.04598428094782, 51.15197277445261], [17.04520870217483, 51.1519506151757], [17.04481330642053, 51.15191957295461], [17.044560383707697, 51.15188680762271], [17.04454187088272, 51.151740889613734], [17.043831406386037, 51.15159898086445], [17.043808984958567, 51.15174050105147], [17.04374955158832, 51.15172599134706], [17.04373515180492, 51.151783035835486], [17.043735152288072, 51.15178303596074], [17.04380381718436, 51.151800836730594], [17.043856867022825, 51.15181458943721], [17.04391552907935, 51.1518274198122], [17.044068173507362, 51.15186080626409], [17.044070998797498, 51.151861387610495], [17.04419684154408, 51.15188728942952], [17.044334167320002, 51.1519134323659], [17.0443463377353, 51.15191574954521], [17.044367829388662, 51.151919228827545], [17.04452053899395, 51.151943952815955], [17.044547258701346, 51.151947669847836], [17.044714776178758, 51.15197097102402], [17.044803347550726, 51.15198169354097], [17.044858911437736, 51.151988419354936], [17.044923421348987, 51.151994682410105], [17.045032504240474, 51.15200527198524], [17.045160031044674, 51.15201590055553], [17.04520828669358, 51.152019921794434], [17.04531560581772, 51.1520260108844], [17.045425491998426, 51.152032244882996], [17.04547793732121, 51.15203522054939], [17.045551950921265, 51.15203783012019], [17.045613615116256, 51.15204000446427], [17.0457140150644, 51.15204212714242], [17.045784418331664, 51.152043615769685], [17.045785337025336, 51.152043634951056], [17.04595784264908, 51.152043226247], [17.046037017409493, 51.152041000737164], [17.04607938581843, 51.15203980995943], [17.0461839295454, 51.15203687160894], [17.046335385652192, 51.1520299682898], [17.046337079639233, 51.15202989040746], [17.046370927622952, 51.15202834777892], [17.04637832158735, 51.15202801072137], [17.046538134500125, 51.152018366914604], [17.04658865573935, 51.152015317733195], [17.04660457305569, 51.152014357037245], [17.04680555021069, 51.15199931391267], [17.046984469411964, 51.151985921905485], [17.04715278193106, 51.151973323302556], [17.047409641926937, 51.151954095729046], [17.047486642326998, 51.15194833209199], [17.04750722305578, 51.151946844701875], [17.047784611165735, 51.151926795513475], [17.04797602449171, 51.15191295983336], [17.048172088652713, 51.15189878771934], [17.048192719699426, 51.15189714509768], [17.048329945437864, 51.15188622100029], [17.04852891385257, 51.15187038097059], [17.048695329250968, 51.15185713184776], [17.048746936823967, 51.15185302350197], [17.04893532282889, 51.1518313667301], [17.048946677424382, 51.151830061169974], [17.049048551658505, 51.151815796800015], [17.049093768377116, 51.151809466246775], [17.049268217897463, 51.151780983085004], [17.049276913334634, 51.151779563285025], [17.049363900104925, 51.15176448273207], [17.049464686486463, 51.151747009751745], [17.049626943088914, 51.151715880206716], [17.049698344026567, 51.1517021812233], [17.049741502281247, 51.151693900926645], [17.049958343852314, 51.151646098134776], [17.05000182467353, 51.1516365132711], [17.050063600045842, 51.15162170028014], [17.05028992743963, 51.15156743036789], [17.05042166543415, 51.15153584066164], [17.050471653149078, 51.15152350818244], [17.05063675826982, 51.151482773376685], [17.05078936871155, 51.15144512196318], [17.050981707415787, 51.15139766769097], [17.051108353183558, 51.15136642155064], [17.051243032390378, 51.15133319260115], [17.051416016014276, 51.151290513221525], [17.051551868487017, 51.151256994976976], [17.05156232131885, 51.15125441611216], [17.05168471538118, 51.1512242172234], [17.05173378874149, 51.15121210962384], [17.05175142462555, 51.151207758690205], [17.051770433922634, 51.15120306829291], [17.05180634928727, 51.15119420711931], [17.051881989892244, 51.15117554384407], [17.051892194143477, 51.151173026761136], [17.05201582468956, 51.1511425229128], [17.052017851754933, 51.151142022438705], [17.05205710427156, 51.15113233781724], [17.0520714890571, 51.15112878843086], [17.05207810896513, 51.151127154729245], [17.052093707680708, 51.15112330593529], [17.052113058805126, 51.151118531952314], [17.052146961360307, 51.15111016677083], [17.05215796865389, 51.15110745120904], [17.052188696288244, 51.15109986935284], [17.052210843060593, 51.15109440423207], [17.052227286471325, 51.15109034741313], [17.05223408019293, 51.151088671062], [17.052241029049604, 51.15108695731215], [17.052242593524877, 51.151086570849856], [17.052294374606358, 51.15107379455324], [17.052313047633827, 51.15106918674472], [17.05237077477768, 51.151054943840116], [17.05238752416233, 51.15105081126794], [17.052419123737803, 51.151043014371886], [17.052438053876376, 51.15103834390118], [17.052466708411725, 51.15103127286802], [17.052551703630474, 51.151010301793825], [17.05257964125222, 51.151003408314104], [17.05260248467571, 51.15099777166673], [17.05270773584192, 51.15097180270798], [17.0527195102247, 51.1509688973324], [17.052732024460166, 51.150965809165506], [17.052771536710374, 51.15095605988515], [17.052782401713763, 51.150953379070934], [17.052937323611513, 51.150913101530016], [17.05294772246771, 51.15091021915434], [17.05297656725273, 51.150902225403804], [17.053026738722973, 51.15088832013891], [17.05307846696968, 51.15087398336866], [17.05312502453395, 51.15086107901471], [17.05314721223456, 51.15085492993811], [17.053258948748418, 51.15082185364958], [17.053448733875758, 51.15076119047977], [17.053486668536838, 51.15074791235002], [17.05361792087678, 51.150701969482185], [17.053714829654595, 51.15066563540496], [17.053756488349173, 51.1506488948486], [17.0537564889294, 51.150648894615436], [17.053678214727796, 51.15057805892296], [17.053230442883663, 51.14978693524741], [17.052875008207565, 51.14935098242944], [17.052476992518592, 51.14892246854989], [17.052106889432384, 51.14857459168992], [17.05170577081672, 51.14822283035071], [17.051453485495443, 51.14784040649124], [17.051333950087667, 51.14695403948201], [17.051363788016026, 51.146874768222126], [17.0514294795835, 51.14670023696672], [17.05151525754006, 51.14647169705285], [17.051611175828167, 51.146238573676946], [17.051876149207782, 51.14559194931208], [17.051909723063517, 51.14548858900443], [17.05210411322608, 51.14461674995885], [17.05242194963938, 51.14416476468493], [17.052732346846, 51.14372751521539], [17.052705396079382, 51.14368201614674], [17.05223002707387, 51.14364231426844], [17.051338429224067, 51.143571924572385], [17.05128569551667, 51.1436799477765], [17.051062005525655, 51.14414572888734], [17.050750794953778, 51.144127049085675], [17.049568705357554, 51.14405316417002], [17.048938999057334, 51.14402272148826], [17.04892428160992, 51.1440219006181], [17.048273982393145, 51.144007441268165], [17.04764805187229, 51.1440310950151], [17.047077042350995, 51.14403600002824], [17.04703417588518, 51.14403633397342], [17.046848407087026, 51.14403892844943], [17.046519882692305, 51.14404359518936], [17.046415139983594, 51.14404506955633], [17.046190930998915, 51.14404125459492], [17.046189147537866, 51.1440951958491], [17.04561356700894, 51.14408677874779], [17.044909554973657, 51.144058072269395], [17.04429143265479, 51.14403291313893], [17.043850228175327, 51.14399158651249], [17.043184574916985, 51.14392631671941], [17.0426537870754, 51.143884675177915], [17.04251089545305, 51.143882975069985], [17.042291066345072, 51.14382640132426], [17.042655445859957, 51.14383074193311], [17.042741027834783, 51.14383735761002], [17.04279115090514, 51.143766012544525], [17.04290737828451, 51.14363348556531], [17.04291911836517, 51.14362001627194], [17.042937442098076, 51.14359916642037], [17.04309618554927, 51.14341821836279], [17.043303778339798, 51.14343963990745], [17.043312777412996, 51.14344054056556], [17.04336965131996, 51.143445608466415], [17.043513380879318, 51.143459252622236], [17.04365367534539, 51.14347038737237], [17.043725114513286, 51.14347671588233], [17.043937009767852, 51.14349328111587], [17.044157755699104, 51.14350410200231], [17.04427135582203, 51.1435096420412], [17.044379082016263, 51.14351312029656], [17.04443595150449, 51.14351495137228], [17.04460470413393, 51.14352034836672], [17.044676728225593, 51.1435211973935], [17.0449339349886, 51.14352421496257], [17.044991091390166, 51.14352460976904], [17.045147842839548, 51.14352569184314], [17.04517670700276, 51.14352588254251], [17.0452367196728, 51.143526372464244], [17.045362333531962, 51.14352454811551], [17.045405203235525, 51.14352403501814], [17.045579824265648, 51.14352207104091], [17.04558309975653, 51.14343254299868], [17.04533102856837, 51.14343553789534], [17.04528530064938, 51.14343605460271], [17.04523528370795, 51.14343665314457], [17.045182123241215, 51.14343653379969], [17.045159547275713, 51.14343634050096], [17.04498808191859, 51.143434985472126], [17.044938199689778, 51.14343459612673], [17.044625706547368, 51.1434299313437], [17.044611411910825, 51.143430102243904], [17.04439736964315, 51.1434226991107], [17.044281065804704, 51.143418683317876], [17.044197612800293, 51.14341557414432], [17.04414788427565, 51.14341258771226], [17.044096596433906, 51.14340967841091], [17.04395429341665, 51.143401692126105], [17.043742970840594, 51.1433864800506], [17.043603952913678, 51.14337651550895], [17.043532366170982, 51.14337180385254], [17.043325776344748, 51.14335164946633], [17.04312118249113, 51.143331043583366], [17.042945744186156, 51.143310361287604], [17.042550648413826, 51.14377270996932], [17.041738000257208, 51.14376820305757], [17.041453904527962, 51.143775134363466], [17.040922741309203, 51.14378830969204], [17.042152461875183, 51.142285646532024], [17.04215348810203, 51.14228439638683], [17.04206455170097, 51.14214172153772], [17.041914589574386, 51.142075228362145], [17.041798036080678, 51.142086894968735], [17.041939986760756, 51.141928060218795], [17.042015824624453, 51.14186950261918], [17.042138104334896, 51.1417095625872], [17.0422921801201, 51.14150470984417], [17.042339583148944, 51.141439033119816], [17.04238469604811, 51.14137352640706], [17.042490239396884, 51.14121978666209], [17.042562124500094, 51.141112508438816], [17.042651443253185, 51.141012151068324], [17.042661741426997, 51.14100065670476], [17.042703908054097, 51.14089308118824], [17.042730309779962, 51.14072689898994], [17.042763383649298, 51.14058219371241], [17.042806539419033, 51.14038806496781], [17.042840330562754, 51.14023698288476], [17.04284837893655, 51.14020228579893], [17.04285643141175, 51.14016669877113], [17.04288203144941, 51.140054438837346], [17.042909347150392, 51.1399428222115], [17.042939237013478, 51.13982212013247], [17.04296927087008, 51.1397020484973], [17.04297846015219, 51.139674363669414], [17.042993510938228, 51.13963203772455], [17.043022198224225, 51.13956256675602], [17.043061909964155, 51.13947547638409], [17.04311836055092, 51.1393742923437], [17.043186981646404, 51.13925602863235], [17.043205177935555, 51.13922673640914], [17.043228814391398, 51.139189353058995], [17.04327321756666, 51.13911791600612], [17.043343975470925, 51.13900477579861], [17.043365258312075, 51.138969944206615], [17.043442809775286, 51.13884266485584], [17.043528303212064, 51.13870652368565], [17.043597920829104, 51.13859041640107], [17.04364947396644, 51.13851314046356], [17.04334596787083, 51.13852950051681], [17.043322251429814, 51.13862954107447], [17.043298375865998, 51.13872967022074], [17.043280001778566, 51.13878486017623], [17.04326195570473, 51.13881864846449], [17.04322064147747, 51.13889620576638], [17.043216820449516, 51.138903393192514], [17.04320005507184, 51.13893259823906], [17.043095050783162, 51.13911178376985], [17.042968975740642, 51.13933276044751], [17.042915938671943, 51.13944438236111], [17.04289987949114, 51.13947880713651], [17.04283606633113, 51.139631944901836], [17.04282986872865, 51.1396621443352], [17.042760153550795, 51.13995415073274], [17.04272119676259, 51.1401138565359], [17.04271142393438, 51.140153852378575], [17.042675489089895, 51.14030492586993], [17.04266887155699, 51.14033054612571], [17.042658531050115, 51.14037449275943], [17.04261997782184, 51.14054436012058], [17.042579708500387, 51.14071772836727], [17.042559823408723, 51.140742260131574], [17.042526782901568, 51.14075752374656], [17.042484113917947, 51.14082167511169], [17.04243314615464, 51.14107557483278], [17.04240879140986, 51.141117896437464], [17.042277918999243, 51.14130371050677], [17.042254719901436, 51.141337132805816], [17.042162913771072, 51.141469220919106], [17.04203317962475, 51.141641370785166], [17.04198363920215, 51.14170740744186], [17.041962744896082, 51.141730950964885], [17.041896607780874, 51.14180551764669], [17.041135940520537, 51.141494759587886], [17.04121111193167, 51.14140285445404], [17.04137633273496, 51.141456258842055], [17.041405404455237, 51.14141600777267], [17.041499776799117, 51.14128500205635], [17.041358815856107, 51.14124222467939], [17.041252697763777, 51.14121933018747], [17.040866081851153, 51.14110843732369], [17.040925786325115, 51.14104891631717], [17.040796529779065, 51.141048247239134], [17.040741829705382, 51.14116552733559], [17.040707119348575, 51.1412399375884], [17.04070711934857, 51.1412399375884], [17.04074182970538, 51.141165527335595], [17.040811729088077, 51.14101565893465], [17.040445475079455, 51.14093255684026], [17.04034794640565, 51.141032350745], [17.04028681312202, 51.14101163139891], [17.040396842939117, 51.14092369857133], [17.04065840495117, 51.1407145158151], [17.04067177816124, 51.14065672320936], [17.040357308840598, 51.140623542568434], [17.040131844756203, 51.14059975761802], [17.040145434294335, 51.14054594221696], [17.039811235641494, 51.1404692535423], [17.039760500168292, 51.14066442831861], [17.03969681255148, 51.14090942159816], [17.039760500168292, 51.1406644283186], [17.03981353392029, 51.14046041222987], [17.039475349547146, 51.140426315336924], [17.039466712768903, 51.14046307498266], [17.03937498917102, 51.140454563563836], [17.039284689424044, 51.14044561428687], [17.039131215794384, 51.14035598526032], [17.039001614809173, 51.140267370248914], [17.038951168620983, 51.140182129423174], [17.038903288710152, 51.14009787155522], [17.038553043256847, 51.140198778268264], [17.03861517075685, 51.14030982567982], [17.038677298551804, 51.14042087305788], [17.038826591687965, 51.140522541418825], [17.038976196265423, 51.140624382947955], [17.038530341156942, 51.14064361508823], [17.038568582253763, 51.14058718681337], [17.03792681108737, 51.13942931966841], [17.037711689217527, 51.13905138699159], [17.037187403190547, 51.13812098522666], [17.03674787241744, 51.137346476365614], [17.036538686356558, 51.13698496938035]], [[17.04007663022408, 51.140825609770275], [17.04002988925799, 51.141016327993334], [17.039863350904735, 51.14096287479575], [17.04002988925799, 51.14101632799333], [17.04007663022408, 51.14082560977027], [17.040131844756203, 51.14059975761802], [17.04007663022408, 51.140825609770275]], [[17.038810803709097, 51.14302911998786], [17.03892512409604, 51.142935892956416], [17.03901394774944, 51.14296867089624], [17.03927258207856, 51.14306384749776], [17.039040563836704, 51.14331179947926], [17.03898651003582, 51.14333199555733], [17.038932951209784, 51.14332216128492], [17.038651848052393, 51.143158999372865], [17.038810803709097, 51.14302911998786]], [[17.038773403798878, 51.14372613013453], [17.038759069623186, 51.14375228005774], [17.03871121345914, 51.143839409875525], [17.038664621491268, 51.14393309452274], [17.03902436225281, 51.14414915030984], [17.039319943513643, 51.14396289500824], [17.03973117655232, 51.14421420640845], [17.038929391299448, 51.14459462467171], [17.03792668345362, 51.1440043016255], [17.03861645628726, 51.14353289330991], [17.038817834073594, 51.143655998516124], [17.038773403798878, 51.14372613013453]], [[17.039987511797605, 51.144312454944334], [17.039924780139504, 51.14434722434776], [17.03991768110539, 51.144338086537275], [17.039933303380067, 51.1443290453442], [17.039985287401205, 51.144310144327875], [17.039987511797605, 51.144312454944334]]], [[[17.03561003116288, 51.149622948038456], [17.035292099158013, 51.14941787958774], [17.03514072667055, 51.149525279685605], [17.034765422893777, 51.14978622662102], [17.036713461430875, 51.150156648984684], [17.030739786605476, 51.15027287821867], [17.030825033993644, 51.15031437959351], [17.033238644109854, 51.15027287421397], [17.0331942702193, 51.150363344979944], [17.03338853421541, 51.150360110581715], [17.033461169236052, 51.150358901221125], [17.033479265068994, 51.150358600376656], [17.03353039985117, 51.15035774818725], [17.03380505025585, 51.150353175305895], [17.034079193047972, 51.150348609274154], [17.034323891461284, 51.150344533056995], [17.034463402401027, 51.150342125817964], [17.03473796315439, 51.15033738729375], [17.034881769298508, 51.15033490532932], [17.034887585885556, 51.15033480499578], [17.034973419169344, 51.150333323338785], [17.03515949850546, 51.15033011105346], [17.035289638203, 51.150327864648325], [17.03530872227769, 51.150327534814366], [17.035488034127486, 51.150324439688916], [17.03692158530011, 51.15028653166232], [17.036921585445157, 51.150286531658885], [17.03718723717117, 51.15028024782388], [17.03748098770465, 51.150272124305], [17.03778363936261, 51.150263754143786], [17.038068468567594, 51.150262745664016], [17.03838955740722, 51.15026294615376], [17.03878199856495, 51.15026318919428], [17.0391104923252, 51.15027311241266], [17.039411544277694, 51.15028938705093], [17.039594343153265, 51.150319345768345], [17.039889903594673, 51.150373045559], [17.040137176797018, 51.15042024617721], [17.040393276631775, 51.150475439451164], [17.040804117771618, 51.15059192593094], [17.041465682209907, 51.15083818430728], [17.041621940270502, 51.15090630085672], [17.04174444086465, 51.15095970239019], [17.041765380526048, 51.15097110019056], [17.041902789623244, 51.1510458940549], [17.041918273567646, 51.151054322811184], [17.0419234297057, 51.15105712935722], [17.04198868288136, 51.15109264788118], [17.041991710412947, 51.15109429620554], [17.04205707818572, 51.151129876758944], [17.042076777016675, 51.15114059910776], [17.042149855705766, 51.15117924439701], [17.042281808247125, 51.151249022759124], [17.04231628702399, 51.15126725556093], [17.042376225127516, 51.151295656408344], [17.042512046891634, 51.151360013077884], [17.042608592411305, 51.151402784938455], [17.04267892384626, 51.15143394331799], [17.04275634924814, 51.15146531073844], [17.04282590207056, 51.15149348888778], [17.042944587744557, 51.15153949812329], [17.043010892048255, 51.15156248414093], [17.0431451825595, 51.15160904066315], [17.04321866107225, 51.15163451335061], [17.043353554033484, 51.151677876949705], [17.043375210598928, 51.15168443221626], [17.043453054143633, 51.15170799330288], [17.043497022187644, 51.151721301528575], [17.04350472352149, 51.15172329810924], [17.043521110086687, 51.15165754630715], [17.042770568139225, 51.151396244731764], [17.042227844002475, 51.151138573002214], [17.042066892748423, 51.15105811922308], [17.04025259478609, 51.15007897335084], [17.04020667884142, 51.1498146969652], [17.040203729910136, 51.14979769135277], [17.039811922998247, 51.14982754837307], [17.03957454043984, 51.14984559231051], [17.039488645470286, 51.14984940874546], [17.039467201753265, 51.149850293421295], [17.039094986317934, 51.149901650317624], [17.038669307692203, 51.14987900446384], [17.037944753617374, 51.15016465269601], [17.03794312060098, 51.1501978199955], [17.037458964955565, 51.15020065978343], [17.037488838306526, 51.1501978851051], [17.037747137058535, 51.15014672886667], [17.037841095268423, 51.15010642819502], [17.03790816549867, 51.150080676245985], [17.03810992103237, 51.15000331677387], [17.038313140383586, 51.14991257443853], [17.038492900260476, 51.149832327573755], [17.038752085871987, 51.149763098262035], [17.038870790551737, 51.14970870662503], [17.038761680482036, 51.149396903531425], [17.03843928482112, 51.1492203310865], [17.037511041320048, 51.14871213537011], [17.03651632787709, 51.148175849391954], [17.03663064887757, 51.148769900239564], [17.03626476593719, 51.14879815196958], [17.036024068069622, 51.14882046740983], [17.036671015528697, 51.149209753926726], [17.03583910495389, 51.14971488576346], [17.03561003116288, 51.149622948038456]]], [[[17.038801593473853, 51.14730539563108], [17.036834243562414, 51.14817711360472], [17.037225755515404, 51.148394916421815], [17.037818573617688, 51.14872473407642], [17.038540911140217, 51.149123853748776], [17.03872276103226, 51.149079744056834], [17.038823544483602, 51.14905544630127], [17.039474772785926, 51.148893499132036], [17.039152840138797, 51.1483443390887], [17.038952194646434, 51.14775075012286], [17.038801593473853, 51.14730539563108]]], [[[17.038944250144386, 51.1432673633786], [17.039086282583515, 51.143172691831666], [17.038906206597524, 51.14306577267698], [17.03876417412406, 51.143160444006725], [17.038944250144386, 51.1432673633786]]], [[[17.038823544483602, 51.14905544630128], [17.03872276103226, 51.149079744056834], [17.038726975819927, 51.14912316266656], [17.03880114322596, 51.14912032917297], [17.038865004666707, 51.14930950141929], [17.039607035289624, 51.14971995035364], [17.03963731498663, 51.149727876125816], [17.039738233932948, 51.149721198372546], [17.039966640004792, 51.149706586381555], [17.039474772785926, 51.14889349913204], [17.038823544483602, 51.14905544630128]]], [[[17.04191158784172, 51.150642910725445], [17.042120358498405, 51.15075602912664], [17.042374121479494, 51.15089352682638], [17.042606642866925, 51.1510042318102], [17.042744903972654, 51.15105877982067], [17.04279748196535, 51.15107020443344], [17.0428979277706, 51.15109204416505], [17.043065135612608, 51.15109743964455], [17.043079309170523, 51.15106522890289], [17.042963515545225, 51.15093474095821], [17.043039803988673, 51.15070855683386], [17.042834670590093, 51.150682066936234], [17.042885656204085, 51.15052516566438], [17.043092787804444, 51.1505517617193], [17.04311562948539, 51.150483986999056], [17.043135468446152, 51.150464641807396], [17.043143830930486, 51.15045008409404], [17.043168297641234, 51.15043227802357], [17.043296978422884, 51.15030585770825], [17.043106795338257, 51.14989867189402], [17.043036038178734, 51.14974348934354], [17.042915785282922, 51.14969054533473], [17.042287009152478, 51.1497193792718], [17.04193048464114, 51.149735877030444], [17.041744210231467, 51.149744509341836], [17.041827384604577, 51.15019090559881], [17.041861140637604, 51.150371954589495], [17.04191158784172, 51.150642910725445]]]]}}]}