{"type": "FeatureCollection", "features": [{"type": "Feature", "properties": {"district": 5, "variant": "wariant-spojny-propozycja", "crs": "EPSG:4326"}, "geometry": {"type": "MultiPolygon", "coordinates": [[[[17.00220623999224, 51.131496662863874], [17.002207661401748, 51.13150250569823], [17.002208716731822, 51.13150684060558], [17.002210190688462, 51.131512895076725], [17.0022165956843, 51.13153921757057], [17.00224286822596, 51.131647180346576], [17.00226047164078, 51.13171952126113], [17.002299141846645, 51.1318784272954], [17.002303261244112, 51.13189535498173], [17.002306293176527, 51.131907814474], [17.0023208705178, 51.13196796292711], [17.00245712952379, 51.13253592995148], [17.002486976593232, 51.13266033559773], [17.002516882965654, 51.132785046489204], [17.002725772700508, 51.13365612712235], [17.00276384943286, 51.13381490475792], [17.002828394202194, 51.134084047778025], [17.0029886749009, 51.134752489602896], [17.003023084587355, 51.134895984873914], [17.003076004489277, 51.13511668123036], [17.003080823297413, 51.13513376673073], [17.00366346102658, 51.13804045148142], [17.003782984098496, 51.138599337075185], [17.003930140056948, 51.13916887912511], [17.00426207997736, 51.13909315447527], [17.004218772650187, 51.138975353713874], [17.00418953847482, 51.13888821965552], [17.004083044943343, 51.13860360790082], [17.00402538847159, 51.13845209046988], [17.003914221739404, 51.13778777801994], [17.003888709691747, 51.13733983020048], [17.00385553409494, 51.137112558439114], [17.003837871208642, 51.13691011342182], [17.003810502725756, 51.1367596179406], [17.00377173297698, 51.136542672560644], [17.003730172593446, 51.13629274724771], [17.003693745569173, 51.13611105230679], [17.003662127953163, 51.13594491449693], [17.00378590294567, 51.13592741423799], [17.00379631272074, 51.13587726862019], [17.003922178982187, 51.13551156205627], [17.004078458896522, 51.13552331205416], [17.003955848016822, 51.13578161092816], [17.003795023839377, 51.13612041030705], [17.003912248185888, 51.13675198034489], [17.003937438304817, 51.13691739808194], [17.004185554470542, 51.138637688626076], [17.0042582590528, 51.13883236763526], [17.00443539882764, 51.13939885832235], [17.00444566298218, 51.13947042253967], [17.005749970885937, 51.13932628460948], [17.00564588662065, 51.13891440112597], [17.005551067307312, 51.13851366257835], [17.00556379731772, 51.13814728003158], [17.00552653274674, 51.1379569485399], [17.00549196360691, 51.13777552174341], [17.005410343743343, 51.137365815671394], [17.005340308810446, 51.13713455410749], [17.00530744512379, 51.13695295294937], [17.005272464493153, 51.136760824844906], [17.005228728353554, 51.13652797994646], [17.00518590327441, 51.13633055308676], [17.005127501852126, 51.13613453992228], [17.00506725251846, 51.13592945840016], [17.005015513604135, 51.13575125644708], [17.005004738125425, 51.13571610504817], [17.00496900743693, 51.13559885439832], [17.004917403374094, 51.13542371901557], [17.00505471236123, 51.135364791295565], [17.005072838812985, 51.13543752812413], [17.005075105156855, 51.13544642920144], [17.005108805675604, 51.135575708711805], [17.00513106131009, 51.13565311932638], [17.00516835775471, 51.13577000567725], [17.005190745615423, 51.13584858605953], [17.005202038009003, 51.13590756446783], [17.00526498329076, 51.1361820421461], [17.005275986265296, 51.13624119787518], [17.00530661974287, 51.13639888555099], [17.005351538206117, 51.13661528938247], [17.005390940695868, 51.13681244434055], [17.00543218783082, 51.137008886801866], [17.005544113690984, 51.137536372535465], [17.00557616558969, 51.13769263381541], [17.005745692375662, 51.138512314783064], [17.005795264129727, 51.138766397652404], [17.005836062279432, 51.13898190316392], [17.00596361298621, 51.13962663848326], [17.006029430953454, 51.139958754733634], [17.006041578151926, 51.14001728180622], [17.00605459691758, 51.14007581628409], [17.006068597110207, 51.140133900627625], [17.0060930999133, 51.14023127815328], [17.006110250609296, 51.140289721881665], [17.00612330394129, 51.140328020906985], [17.006156953915333, 51.14042467606831], [17.00619201907041, 51.140519985804126], [17.00622184891319, 51.14059623790188], [17.006255967859815, 51.14067240057973], [17.006314956288666, 51.14080494197139], [17.0064032484669, 51.14099368395426], [17.00644889813003, 51.14108792385632], [17.006492449684192, 51.14116274622186], [17.006560915150885, 51.141271931928706], [17.00664563955597, 51.141399279963856], [17.00671983478075, 51.14150720174626], [17.00678544101647, 51.14161781935438], [17.006893780547795, 51.14173890417657], [17.00702933664558, 51.141894982995304], [17.007171629405924, 51.14204683975893], [17.007238649861247, 51.142113599554726], [17.007504714318838, 51.142380171737955], [17.007808304259328, 51.142678327687825], [17.008207033200154, 51.143055841294576], [17.00847696920245, 51.143322318166874], [17.008675090763138, 51.14355430369165], [17.008813037686146, 51.14373006100902], [17.008867195160907, 51.14380175402405], [17.00892207238912, 51.1438725451563], [17.00907544942737, 51.14406595374405], [17.009185372869002, 51.144185692340514], [17.009270522923014, 51.14426837237479], [17.009287781340394, 51.14428465500248], [17.00934242149944, 51.144332529284476], [17.009398480599454, 51.144380217785965], [17.00941745780535, 51.144396326168945], [17.00959122914093, 51.144535807029825], [17.00978994005282, 51.14471269797546], [17.009828750897967, 51.14474365431696], [17.01014273282884, 51.14501440161123], [17.01018783660256, 51.14504382891064], [17.01062701683167, 51.14463548603756], [17.010752308863378, 51.14451990506782], [17.01080542628605, 51.1444719540275], [17.010857690348526, 51.14442246750434], [17.010908822333178, 51.14437244998382], [17.010957226768873, 51.14432232846853], [17.011189541084534, 51.14408855704812], [17.011924670474464, 51.14335509197954], [17.011941423737916, 51.14333883638021], [17.011956620411258, 51.143321857445486], [17.01197094250667, 51.1433043407307], [17.0119792663073, 51.143285299038084], [17.011985463902594, 51.143265439303704], [17.011988209711838, 51.14324593696448], [17.01199334422096, 51.14318751160951], [17.012015039797546, 51.142931714392525], [17.012168427122795, 51.141911928698306], [17.012321988418996, 51.1408930340948], [17.01234022115596, 51.14085494605404], [17.013111209016834, 51.140589103667466], [17.014208374358383, 51.14069232564849], [17.015230494042484, 51.14039045168945], [17.01545110703423, 51.140477737817804], [17.016660959496726, 51.14094253246547], [17.01676791898142, 51.14098307611452], [17.01816371334777, 51.1415181171116], [17.01814582160153, 51.14153428313424], [17.01820350356569, 51.141557610087006], [17.019361847665163, 51.140297988818155], [17.019880010448833, 51.1397918097548], [17.019686017300995, 51.139686856711926], [17.018895076442824, 51.139259013800945], [17.018904371205565, 51.13925264618809], [17.019787054733314, 51.138648058534486], [17.019832975628066, 51.138616628998996], [17.01973051647061, 51.138553993308214], [17.019791456115897, 51.1385137719299], [17.01989892011542, 51.138437900875616], [17.02013760983703, 51.138622346085526], [17.02077916357697, 51.138946960243224], [17.021107483337666, 51.13912878274009], [17.022565015902295, 51.13993598249548], [17.02397668382541, 51.14057040446034], [17.024604580854056, 51.14085257808751], [17.024559923368404, 51.140893270372786], [17.024577906115123, 51.14090046824256], [17.02464858372389, 51.14092838623426], [17.02473425832545, 51.14096414236445], [17.024780649543306, 51.14098358727081], [17.024800353110045, 51.14099321767177], [17.025249401240824, 51.14117701486829], [17.025321792894488, 51.14120772453767], [17.026071356495816, 51.14153565458003], [17.026122641639212, 51.141542617117835], [17.026168763767757, 51.141484577420506], [17.026301888394872, 51.14150931062165], [17.02632319586806, 51.141501145617156], [17.026447613688426, 51.14136506220597], [17.026351904391007, 51.14127024269526], [17.026316819217953, 51.14123570003128], [17.026283867163755, 51.14120709030694], [17.026283627422103, 51.14117976875848], [17.026144285770457, 51.14111979826597], [17.02610847304252, 51.14108588774491], [17.026126840342723, 51.14104698065097], [17.026151031040943, 51.14102470795274], [17.026115625300342, 51.14100949030936], [17.02610205775536, 51.14099958759929], [17.025998589757425, 51.140851826044084], [17.025994470790305, 51.14084179974188], [17.025998589757425, 51.14085182604408], [17.026030039063148, 51.14084385343015], [17.026233864814504, 51.140574072149846], [17.026358926960185, 51.140393666203536], [17.026384425717804, 51.140356742221144], [17.02642770288786, 51.14028917666732], [17.026442567027264, 51.14026603936432], [17.026443747327185, 51.14026420212556], [17.02644877776463, 51.140265543498934], [17.026515818772683, 51.14028342005211], [17.026474836358474, 51.14026346297651], [17.026315303554142, 51.140081113973274], [17.02627580844384, 51.139964221390954], [17.026382751502975, 51.13987251469422], [17.02645530688709, 51.13973884825019], [17.0264947964402, 51.13970882792203], [17.026495813016776, 51.13969590508229], [17.027280717526573, 51.13994956148637], [17.027446650491093, 51.140009553999626], [17.027538188478303, 51.13990365293554], [17.027593868109143, 51.139846249498646], [17.027710238457036, 51.1397255240645], [17.02790777518214, 51.13952314593582], [17.028134077673265, 51.13929004614833], [17.028220818453804, 51.13920354031314], [17.02822223605253, 51.139204082481776], [17.02834005164294, 51.139080383861014], [17.02838956765424, 51.13902855635804], [17.028415346223124, 51.13900133409268], [17.02846573778213, 51.138941144462876], [17.028468446270804, 51.13894213784516], [17.028574828566235, 51.138812320940026], [17.028678639039594, 51.138686545901116], [17.02870097328623, 51.138659330924725], [17.029094695861275, 51.13818587878599], [17.029307972555582, 51.13795392712465], [17.02960760261617, 51.13812115807291], [17.02952745803764, 51.13820065380634], [17.029448298017492, 51.13828429289631], [17.02944673756176, 51.13828374955686], [17.029425270827883, 51.1382989257379], [17.029413952192275, 51.13831806966555], [17.029415527124282, 51.138318604135904], [17.029332654770126, 51.13840412713476], [17.029330939038715, 51.138403492608504], [17.029297453430203, 51.13843780687254], [17.029121375993725, 51.138628616022764], [17.02887861521998, 51.13889191215418], [17.028844537070018, 51.13892991611529], [17.028792844292994, 51.13891593944574], [17.028625747181692, 51.13911511088142], [17.028658440322108, 51.13913086260069], [17.028583718795893, 51.13921189500687], [17.02854086228235, 51.13919834221811], [17.028530455134234, 51.13919513636143], [17.028361991050563, 51.13936742598787], [17.028213411646004, 51.13952228784634], [17.028147303200733, 51.13957212552564], [17.02793397333428, 51.139818898542], [17.027904198277668, 51.13985402534527], [17.02793084475958, 51.13986444109016], [17.02818634470799, 51.13996407519228], [17.02869880973588, 51.14016382133706], [17.0289461388212, 51.13992426925648], [17.028967322825277, 51.139905584853004], [17.028969325562674, 51.139902077537464], [17.029030424617563, 51.139931612397945], [17.029397351310703, 51.14010122738519], [17.02944190236212, 51.14012193170088], [17.02963292779738, 51.14021007815851], [17.030237584896387, 51.140485663973244], [17.030307019637426, 51.14048777692509], [17.030374176610493, 51.14049015862029], [17.03051063888712, 51.14048036747976], [17.030755471423348, 51.140361710705434], [17.030814964583648, 51.140332897474], [17.030850798122835, 51.14034820713481], [17.030874327519236, 51.1403724044787], [17.03086734847983, 51.140113327837135], [17.030849997840143, 51.140065673753995], [17.030820188287496, 51.140032938129956], [17.030788218259506, 51.140011250854506], [17.030701249638067, 51.13997846401237], [17.030670406449016, 51.13996711515284], [17.029915155330436, 51.139689985853266], [17.029992197861798, 51.1395935905626], [17.03077600592603, 51.139875864384905], [17.030917872064595, 51.13971981996825], [17.030903486400526, 51.13969572536571], [17.0308573164576, 51.1396185621676], [17.030943083732325, 51.13960154526207], [17.031011258504684, 51.13958801435548], [17.0310370324712, 51.13963945093277], [17.031065476593508, 51.13971965853121], [17.031081120229647, 51.139763531778954], [17.031103273343223, 51.139840495920794], [17.03163108959146, 51.14009660460696], [17.03200555656709, 51.139774333159764], [17.032384146733634, 51.13989710931121], [17.03247522202775, 51.13959882205908], [17.032487901469505, 51.13945095729654], [17.032640269620458, 51.139328807757344], [17.0333195455203, 51.13879064931299], [17.03314381902255, 51.138693807500914], [17.033114836854505, 51.138677521369964], [17.033185960646616, 51.1386212228364], [17.033029454379296, 51.13862972765423], [17.032884015708987, 51.1385482834284], [17.032622889719427, 51.138601500056645], [17.03216594356524, 51.13869476280209], [17.032119200638483, 51.13870371622205], [17.032057748853568, 51.13871563133878], [17.031699567548284, 51.138785140920554], [17.031671559885915, 51.1387905994792], [17.031587226682827, 51.13880609156033], [17.031514055710918, 51.138819437592616], [17.031542559899258, 51.138859911318335], [17.03153654279998, 51.13887294143629], [17.031462089974085, 51.13896529586694], [17.031101191314523, 51.138775375698046], [17.031402294227462, 51.13839615117078], [17.030979097771695, 51.137776224906595], [17.03096000502393, 51.13774834261411], [17.031201713262572, 51.13768604212232], [17.031297011453667, 51.13776853848148], [17.031734657401188, 51.13820751361798], [17.03181725171258, 51.13829081231663], [17.032004435872526, 51.138289862642935], [17.03199775193798, 51.13828989655886], [17.03217863272075, 51.13859328970789], [17.033228631745644, 51.13821538045094], [17.033179045835414, 51.13819700690801], [17.033001358721098, 51.13816335490582], [17.03281777844578, 51.13815666780385], [17.03278118288789, 51.13816077907501], [17.032758790141152, 51.137871576531], [17.032650237657784, 51.137848132651754], [17.03242041111113, 51.137719423388134], [17.0322663493525, 51.137567401171474], [17.032392235800074, 51.13746771369989], [17.03250277075039, 51.13714057770427], [17.032692795415816, 51.13714160119556], [17.03287429930243, 51.137112061007926], [17.033104366634344, 51.13708345243928], [17.033311566634037, 51.13707010762037], [17.033483056841828, 51.137036968763375], [17.03361460617887, 51.13697862525016], [17.033750526617027, 51.13685735416503], [17.03380783501528, 51.136754914071695], [17.03382656858867, 51.136654249863206], [17.033808159364963, 51.1365490626506], [17.0337497659196, 51.136430366253364], [17.03355871477571, 51.136171350861765], [17.033467415989495, 51.13608409789268], [17.03328341552388, 51.13598023883319], [17.03325829067788, 51.13596611515902], [17.033356176794637, 51.13595548044218], [17.033533781243314, 51.13594616070353], [17.033649721776417, 51.13581742500746], [17.03330397474514, 51.135811349304554], [17.033090776766443, 51.13583233066308], [17.032762064879602, 51.13589791590506], [17.032666867824442, 51.13583456951535], [17.03289067973152, 51.13570087449176], [17.032977620235467, 51.135651934547916], [17.03313382063782, 51.13571505687811], [17.03317610285532, 51.13571975742736], [17.033653312370916, 51.13572071698798], [17.034134182279374, 51.1357304607564], [17.03447561899221, 51.13575477439042], [17.034729477614583, 51.135764825792094], [17.035031078347217, 51.13576717988973], [17.03512352574264, 51.13576310621622], [17.03534543535988, 51.13573816564736], [17.035601918596882, 51.135719631721635], [17.035881812115953, 51.135711808123986], [17.035880030905307, 51.13558671138092], [17.035877647346886, 51.1354130115931], [17.03586521028218, 51.13453103280061], [17.03613845962075, 51.13457776599541], [17.036226135988123, 51.13451517441974], [17.036345580141088, 51.13460540800728], [17.03635612551843, 51.1345291906978], [17.03613703460282, 51.1342001437211], [17.036011746458243, 51.134010490067745], [17.035715497850504, 51.133973985939335], [17.035676587838655, 51.133821865743926], [17.03571566922679, 51.1337778060523], [17.035739868487532, 51.133734136052546], [17.035737374408246, 51.13368375542448], [17.03615040253458, 51.13359376665755], [17.036229444474323, 51.133381677815564], [17.036188377577275, 51.13337290707442], [17.036198504049775, 51.13335386952734], [17.03630758908947, 51.13337602003313], [17.0363202767258, 51.13337602569723], [17.03662995357311, 51.13342828092907], [17.036799914744794, 51.13346649353063], [17.037345106778634, 51.13356940132241], [17.03780190392776, 51.133650156968], [17.038095656002127, 51.13369814204009], [17.038757646019665, 51.133798929376454], [17.038972368815376, 51.13382780687555], [17.03923612334193, 51.13385970279043], [17.03951968706413, 51.133889270666835], [17.039976657789097, 51.13393029393166], [17.039324141664828, 51.133481538823624], [17.039327105099296, 51.133476439062896], [17.03918022254758, 51.13341455221483], [17.03795895324436, 51.13313680910573], [17.03725904252165, 51.132980247835924], [17.036971539446466, 51.13291097964035], [17.036725005524797, 51.13286000953662], [17.036518467707552, 51.13282464186103], [17.036315986958936, 51.132780398499186], [17.035970615938407, 51.1326928424507], [17.035847750927626, 51.132629926776495], [17.035797172157164, 51.13261346323334], [17.035815825392124, 51.132582908346954], [17.035748124861676, 51.13256257290942], [17.035737547400128, 51.1325765095645], [17.035612840344314, 51.13255884138915], [17.035466330881828, 51.13252262738912], [17.035258978456657, 51.13248190191346], [17.03505192488003, 51.13243028306642], [17.03381588558619, 51.132034978634465], [17.033476623412792, 51.131964635903095], [17.033082492554268, 51.131902765273196], [17.032503769259403, 51.13180595174472], [17.032135759742346, 51.131765212959515], [17.031315013638814, 51.131692810881866], [17.031130062605488, 51.13168254079749], [17.030264719295626, 51.131648084789596], [17.02951056829842, 51.13164537972005], [17.029053696352353, 51.13165360659852], [17.02867330140681, 51.13167154648081], [17.028075029761116, 51.131715650415416], [17.027830899785044, 51.13172718662529], [17.02724831619495, 51.13175759963152], [17.025994768666784, 51.131850798813865], [17.024372102315176, 51.13195252939802], [17.02414850368873, 51.13197141195167], [17.023146945100617, 51.13202619361383], [17.02237120516385, 51.1320638145724], [17.02191433643922, 51.132084473278034], [17.02128660256222, 51.132106433224266], [17.02101789942077, 51.13210555058584], [17.020696937745516, 51.13210845487406], [17.020142774586308, 51.13208024209774], [17.01985351029381, 51.13205243124911], [17.019498026484744, 51.13199478514829], [17.01917454340365, 51.13193666920549], [17.01888883379931, 51.131880748110966], [17.018416765323074, 51.13180898666459], [17.0181955904133, 51.131785581783205], [17.01795651097493, 51.13177845925028], [17.017764575116708, 51.13177967007997], [17.017550853242398, 51.13178951644171], [17.016726696890256, 51.13186121354329], [17.016652105845576, 51.13186168310159], [17.016527031418143, 51.13187585983887], [17.016257315876164, 51.13189377312536], [17.0159527058161, 51.13190851547826], [17.014872993252972, 51.13190853171677], [17.01482753511557, 51.131914342661915], [17.014678345006352, 51.131915647817564], [17.014646141993392, 51.13191961961316], [17.014612282559575, 51.13192891730837], [17.012728059326196, 51.13203501547339], [17.013304556357948, 51.13214937513751], [17.01362298355819, 51.132158174315514], [17.014348372439493, 51.132265334256935], [17.014880256125636, 51.13234811594557], [17.01507559447914, 51.132380505933234], [17.014293180897063, 51.132374632971796], [17.014081361421123, 51.13236475670567], [17.013794239405613, 51.13236188627509], [17.01227444063313, 51.13237593905919], [17.012160618672976, 51.13237353931624], [17.012013669522684, 51.13237688268231], [17.0118764419291, 51.13237994841854], [17.0118864675151, 51.132171292907685], [17.011929946341024, 51.13201523994174], [17.0119468229924, 51.131994346693716], [17.011966008145354, 51.131985788800336], [17.011987217121927, 51.13198282159994], [17.011361559328964, 51.13195622854155], [17.010803216146787, 51.13193541555181], [17.010242309230666, 51.13190756624994], [17.009172709371974, 51.13185562814555], [17.008598818243005, 51.13182037930586], [17.00781187363617, 51.131779724381545], [17.007178678973105, 51.13174504416842], [17.006532462758198, 51.13170467630407], [17.006218406717334, 51.13168546692238], [17.00593288408964, 51.13166820728061], [17.005737495544977, 51.13165854544666], [17.005617396216596, 51.131649163905685], [17.006008026015174, 51.13152428297229], [17.006370445867702, 51.13141150011221], [17.006150968674245, 51.13140257748351], [17.003920874870648, 51.13123530386688], [17.003915453196466, 51.1312308365631], [17.003768121268187, 51.1312517078602], [17.00365345404356, 51.13126795160506], [17.003480894867312, 51.13129239585811], [17.00340411171707, 51.13130327260498], [17.00333796938546, 51.131312641623225], [17.003319744508573, 51.1313152236579], [17.003077828061294, 51.1313494925309], [17.002843658696225, 51.13138266279813], [17.002760882894826, 51.13140210553291], [17.002732187131183, 51.131408845809865], [17.002559354684045, 51.1314494417293], [17.002386260577836, 51.131490098988515], [17.00236693875292, 51.13149080346176], [17.002316936208135, 51.13149262700687], [17.002275056757863, 51.131494153953646], [17.00220623999224, 51.131496662863874]], [[17.018527541315112, 51.13961888748201], [17.01859523671053, 51.13956546367473], [17.01863919789414, 51.13951803454951], [17.018708614351926, 51.13946497571477], [17.018777875585428, 51.13941181665031], [17.01886367539555, 51.13938671817193], [17.018934360495305, 51.13933311248739], [17.01980158970663, 51.13977683200099], [17.019732598858226, 51.13983142328861], [17.019679227137978, 51.139873182372476], [17.01960938425438, 51.139926157296706], [17.019539398335368, 51.139979130980116], [17.01953084423667, 51.14004294876432], [17.019461573577008, 51.1400965486836], [17.019392161594684, 51.14015006647001], [17.019359464955706, 51.14020406287871], [17.019287912023323, 51.14025677156159], [17.01835488839717, 51.139778649993616], [17.01842572137352, 51.139724866064604], [17.018459702698195, 51.139672319037736], [17.018527541315112, 51.13961888748201]], [[17.016813303794684, 51.1365674035466], [17.016860114252836, 51.13660105882613], [17.016548825237553, 51.13678210040143], [17.016667139925115, 51.13685671162667], [17.016366119774684, 51.137047287193305], [17.016196751645968, 51.13692553591299], [17.016813303794684, 51.1365674035466]], [[17.017816588169882, 51.13727605660623], [17.01780686199006, 51.137283238570106], [17.017777758643994, 51.137262183076864], [17.01778748291661, 51.137255090995986], [17.017816588169882, 51.13727605660623]], [[17.01829936050823, 51.1376380334646], [17.018157675940706, 51.13753590813522], [17.01816713351938, 51.13752926326721], [17.01830809308292, 51.13763121169596], [17.01829936050823, 51.1376380334646]], [[17.017575528207793, 51.13692801074671], [17.017528998814118, 51.136894537912326], [17.01762401784064, 51.136894706829594], [17.017621452493906, 51.136896411296156], [17.017575528207793, 51.13692801074671]], [[17.020054932724946, 51.13793376458212], [17.020120090415737, 51.13793048992066], [17.020192592179153, 51.13797315098786], [17.01994105464922, 51.13815336265835], [17.019794336587598, 51.138070731686966], [17.02001710951417, 51.13791279840168], [17.020054932724946, 51.13793376458212]], [[17.02101959809205, 51.13683654686066], [17.020896833885832, 51.13692400438611], [17.0207853884377, 51.137002575882484], [17.020782245054708, 51.13700391599173], [17.02019679952876, 51.13667539378733], [17.02043243074961, 51.13650703153911], [17.02054503417023, 51.13657021906772], [17.02101959809205, 51.13683654686066]], [[17.019406196845274, 51.13839087196384], [17.0192405082418, 51.13829178298378], [17.019251657782817, 51.13828486454862], [17.019423646937398, 51.138380635217345], [17.019406196845274, 51.13839087196384]], [[17.022037355797128, 51.134096535456344], [17.021856969538348, 51.133994288668774], [17.022086564434066, 51.13383409812569], [17.022266964681315, 51.13393635366875], [17.022037355797128, 51.134096535456344]], [[17.02298238062908, 51.13591496145098], [17.023090381915257, 51.135838822262436], [17.023334232715673, 51.13601904304156], [17.023226231213286, 51.13609519144096], [17.02298238062908, 51.13591496145098]], [[17.023206033912352, 51.13347558766643], [17.02330704972183, 51.133473590616184], [17.0233453833089, 51.133759458476064], [17.023196209646247, 51.133767166304914], [17.023172601580733, 51.13347753785741], [17.023206033912352, 51.13347558766643]], [[17.026666562159587, 51.13932491516384], [17.0267654542399, 51.13920030217846], [17.026765454239904, 51.13920030217846], [17.026666562159587, 51.13932491516384]], [[17.027197445526582, 51.13496800551529], [17.026977683316186, 51.13499203154784], [17.026890374902337, 51.134672145160096], [17.027030553190876, 51.134659485378556], [17.027131278539247, 51.13465442611658], [17.027197445526582, 51.13496800551529]], [[17.027883499283124, 51.13505281025599], [17.02777418905556, 51.13505839211743], [17.027749926396396, 51.13487473841054], [17.027796500088233, 51.13487233879591], [17.027883499283124, 51.13505281025599]], [[17.025837816847265, 51.13992199963496], [17.025838105516623, 51.139944070415766], [17.025839580356006, 51.14005683216624], [17.02584019932225, 51.14010618153236], [17.025839580356006, 51.140056832166245], [17.025837816847265, 51.13992199963497], [17.02583258586591, 51.139492958027134], [17.02583303955971, 51.13953016964832], [17.025834498349102, 51.139649818501546], [17.025837816847265, 51.13992199963496]], [[17.024730888100297, 51.13531607428225], [17.024759785420688, 51.13529613347072], [17.024791482248055, 51.13531422428623], [17.024730888100297, 51.13531607428225]], [[17.026391759563666, 51.13353313119974], [17.026397410047625, 51.133574935227486], [17.026302935934016, 51.13358043245471], [17.026297145320303, 51.133543256932185], [17.026135500943763, 51.13355224908404], [17.02614066977454, 51.13358977003401], [17.025827052681606, 51.133607798289596], [17.02582212729044, 51.133564831616795], [17.025792103403326, 51.13334099059155], [17.026103557429177, 51.133323142193476], [17.026108768346656, 51.13336952730547], [17.026124579323362, 51.13347236588072], [17.02638231934362, 51.133458878894125], [17.026391759563666, 51.13353313119974]], [[17.023909725807474, 51.13521623443668], [17.024231856189996, 51.13499417204261], [17.02440212872274, 51.13508994809339], [17.024078555581017, 51.13531199891293], [17.023973081534653, 51.13525214651617], [17.023909725807474, 51.13521623443668]], [[17.024284154282398, 51.13368230630452], [17.023761620375453, 51.13379967458211], [17.023722832920466, 51.133454579166006], [17.024247467529467, 51.13342988506938], [17.024284154282398, 51.13368230630452]], [[17.02765267957669, 51.133759077031335], [17.027935656770133, 51.13403055298217], [17.02791782082023, 51.13402190949892], [17.02785568386228, 51.134015666579245], [17.027682518716986, 51.13402480782531], [17.02765267957669, 51.133759077031335]], [[17.026518636861546, 51.139129135529885], [17.026523513326318, 51.1391228474031], [17.02651863686155, 51.1391291355299], [17.026471526926336, 51.13918807511245], [17.026518636861546, 51.139129135529885]], [[17.02595472772483, 51.14069521159373], [17.02597812022399, 51.1407930250553], [17.025984236023586, 51.140812399247494], [17.02597812022399, 51.14079302505531], [17.02595472772483, 51.14069521159373]], [[17.030794975571432, 51.13598770840615], [17.030765483462716, 51.1362941191727], [17.03071991224285, 51.13637346176443], [17.030637972277102, 51.136336275622256], [17.030539179209622, 51.13628371225028], [17.02979228662999, 51.135817922219225], [17.02971493360739, 51.1357671721219], [17.02964558992949, 51.13570788532493], [17.029562145754173, 51.135625315131634], [17.02950465657441, 51.13556765485776], [17.02946003757081, 51.13550541775033], [17.029438893507777, 51.135418033597354], [17.02942612874875, 51.13536579662962], [17.02942400489415, 51.13527150444888], [17.029436268807604, 51.13519565259768], [17.029449635734206, 51.13514828913893], [17.029489952613407, 51.13504836204795], [17.02951630988296, 51.134998849976974], [17.029558547921052, 51.13494494788086], [17.02961578782307, 51.13489177255574], [17.029857567393414, 51.1346958980896], [17.03035586878703, 51.13429309574096], [17.030855016445376, 51.1338958628796], [17.030916102891155, 51.133847186654144], [17.03100089359865, 51.133801223911554], [17.03105865383625, 51.133774922285426], [17.031130281094224, 51.13374620942036], [17.03150982034604, 51.13361217093414], [17.031536177230652, 51.13365200663663], [17.03168293137979, 51.13371548422843], [17.031838341547402, 51.13373059700572], [17.032049167641794, 51.13376111805936], [17.032236703453353, 51.13378758044935], [17.03214402368074, 51.13393484619786], [17.032085819067706, 51.13406101080812], [17.03208164059357, 51.134082497469805], [17.032066796919118, 51.134158265319925], [17.032071965168317, 51.134234315664465], [17.032082888780366, 51.13428043312879], [17.032062679250277, 51.134325816466344], [17.03205789892419, 51.13444715527688], [17.032084924962682, 51.13451926926082], [17.032149300654787, 51.134558592421186], [17.032170588956706, 51.134647505518565], [17.03209095237184, 51.134681339763844], [17.031942641195304, 51.13451449570933], [17.031850329701356, 51.1344383892193], [17.03173326219552, 51.13439003553115], [17.031635556992804, 51.13437235295522], [17.03152211526367, 51.13438018747831], [17.03116390870207, 51.13448933956363], [17.031025231465417, 51.13454300058979], [17.030931120343645, 51.1346054900176], [17.03085637288056, 51.13470809887177], [17.0308265125187, 51.134796705208245], [17.030837787767528, 51.13488876285905], [17.0308795475425, 51.13494703827942], [17.031101187780806, 51.13509190919513], [17.031156431383906, 51.13512107084384], [17.031209552959915, 51.135140344242714], [17.031364784767486, 51.135179908025215], [17.031533461041388, 51.135215438703995], [17.031552750663504, 51.135216803055854], [17.031492712457055, 51.13532049600395], [17.03155984650756, 51.13533591185582], [17.03158250359198, 51.1353655046446], [17.031892320909122, 51.13577012316259], [17.031253164700853, 51.135998453694455], [17.03094401323302, 51.13597585449998], [17.030873300452335, 51.13597095351044], [17.030778859457794, 51.13597124962722], [17.030794975571432, 51.13598770840615]], [[17.032725176647613, 51.133860536360274], [17.033222159343513, 51.13389691872123], [17.033344001175617, 51.13390823703154], [17.034098410063223, 51.13403799721121], [17.034122593600543, 51.13410336297934], [17.032725176647613, 51.133860536360274]]], [[[17.031763690957185, 51.13404120100632], [17.031624666591128, 51.134310324026565], [17.03197590585202, 51.134356589018594], [17.03208164059357, 51.134082497469805], [17.031763690957185, 51.13404120100632]]]]}}]}