{"type": "FeatureCollection", "features": [{"type": "Feature", "properties": {"district": 1, "variant": "wariant-spojny-propozycja", "crs": "EPSG:4326"}, "geometry": {"type": "MultiPolygon", "coordinates": [[[[17.059005192104717, 51.129993266445865], [17.058827757449404, 51.13009968064983], [17.058185192166757, 51.13048505110029], [17.056983975453416, 51.13120546572341], [17.056261176530377, 51.131638955291066], [17.05623515578813, 51.13165456090412], [17.05644406926701, 51.131781249922064], [17.05687052639305, 51.13204828440257], [17.05692718973308, 51.13208341443141], [17.05675450166519, 51.13218129441727], [17.05671917348529, 51.13220698955383], [17.056788710178047, 51.13225052991819], [17.056686048391498, 51.132315290351215], [17.05683864367097, 51.132416135403574], [17.056916008114477, 51.13246750587491], [17.056997643500914, 51.13242143597896], [17.057667312869306, 51.13284096002649], [17.05778908984175, 51.13291598893304], [17.05795968724983, 51.13302269495151], [17.05814727457916, 51.13313849123641], [17.05833771630908, 51.133259407328495], [17.05852986588743, 51.13337789167025], [17.058696768995457, 51.1334823464127], [17.058716178656525, 51.1334946746176], [17.058903913995227, 51.1336118103173], [17.059020271641245, 51.13368513122623], [17.0591389009862, 51.1337598816678], [17.059412016297788, 51.133929456783044], [17.059632523066494, 51.13412371632014], [17.059655792805252, 51.13414439981497], [17.05984247726527, 51.13431211924643], [17.059641778110173, 51.13440596667115], [17.05942539185166, 51.13422754409869], [17.059225977361155, 51.13432705563059], [17.058846744361116, 51.134517892988114], [17.05887357283476, 51.134510011364924], [17.05887185943641, 51.13451051472445], [17.058822665896926, 51.13477128475178], [17.058740140940095, 51.13480943219753], [17.058926282462796, 51.13495603203301], [17.05875432455037, 51.135035950522024], [17.05858236586293, 51.135115877742145], [17.058757373843914, 51.13525491782073], [17.058801623205156, 51.13529017173674], [17.058934524354004, 51.13539404678875], [17.059109681139937, 51.13553289874255], [17.05916007146364, 51.13557606786208], [17.059283832681995, 51.13568119045564], [17.05933021809051, 51.13572246642945], [17.059502219556517, 51.13586905046217], [17.05951119336326, 51.13587676382329], [17.059233658566928, 51.13598032172152], [17.059259329921854, 51.13602770586162], [17.059292829912536, 51.13609064211866], [17.05930451862614, 51.1361131203448], [17.059338748709894, 51.1361774019165], [17.059389229024607, 51.13626892693322], [17.0593926462927, 51.13627584947228], [17.059375214365982, 51.13628285603454], [17.059418271457265, 51.13636701275396], [17.05946632694969, 51.13645342110543], [17.059510096191534, 51.13653559680435], [17.059554159946007, 51.13661805353249], [17.059598074188845, 51.13670014046497], [17.05964170696213, 51.136780615970586], [17.05968447980727, 51.13685911581325], [17.059729249016886, 51.13693923184522], [17.059747833071818, 51.13693249519272], [17.05978960949266, 51.13701152636147], [17.059810710273734, 51.137049020979674], [17.059834379346427, 51.13709092318424], [17.05981364756651, 51.13709927869905], [17.059861550402484, 51.13718694419561], [17.059911172975557, 51.137279999298755], [17.059954511015682, 51.13736307930297], [17.05999985188332, 51.137445348340556], [17.06005872900035, 51.13755485688036], [17.06010906876851, 51.137643593639496], [17.06012745796266, 51.137678836972846], [17.05983257869823, 51.13779234327385], [17.05985255283193, 51.13781356656554], [17.059947886436966, 51.13791302113893], [17.060131930317915, 51.13789700648896], [17.060348697770408, 51.137878126077666], [17.060533171817745, 51.13786202435667], [17.06055434587715, 51.13796072986573], [17.06056414472987, 51.13801512396858], [17.060600098818494, 51.13819105230942], [17.060606485562214, 51.138226289050685], [17.060619216087787, 51.13834746374066], [17.06063577876541, 51.138626940754385], [17.06063346899822, 51.13864006505133], [17.06062718104793, 51.138649948094894], [17.060614586014445, 51.13866009511595], [17.060604509923703, 51.138667934052606], [17.060598862416057, 51.1386723115915], [17.060577273544546, 51.13868273696273], [17.060548977715936, 51.13869341410264], [17.06083157102317, 51.138722212175935], [17.060837258017756, 51.13873983258361], [17.060843826569123, 51.13875485307547], [17.060863241318305, 51.138770588018396], [17.060875521935944, 51.1387780491439], [17.06085401302883, 51.13884087579879], [17.06086041403435, 51.13887683180698], [17.060548339626713, 51.13888748624193], [17.060601037739247, 51.13890872054803], [17.060649601859886, 51.138931575719674], [17.06067016404728, 51.138945692786045], [17.060702560566323, 51.13897447709605], [17.060710273988363, 51.13898166782693], [17.060698977214937, 51.13898769005084], [17.06042240662909, 51.13907745042408], [17.060325205608457, 51.139109229953334], [17.06039712030787, 51.13920031539548], [17.06043579211574, 51.13924941283318], [17.060363178548137, 51.13927158222604], [17.060355180515618, 51.13927418788915], [17.060074881120944, 51.13936449282092], [17.059953677278756, 51.13940587783838], [17.059948525106485, 51.13940767031197], [17.059825226050524, 51.13927009065839], [17.05954421203638, 51.13936668132173], [17.059596014136886, 51.13942639350632], [17.059728156640876, 51.13957953364035], [17.05975084626362, 51.1396056961035], [17.05975963345382, 51.139672577720866], [17.059836816138493, 51.13978218854173], [17.059885330248296, 51.13985115146395], [17.059891035429537, 51.13985942284036], [17.05984243504535, 51.13987279529804], [17.059920737501788, 51.14001243145162], [17.06045085244991, 51.139867896915284], [17.060086904497243, 51.13996712678759], [17.060321511791038, 51.14047196913653], [17.0604383936063, 51.140441162687424], [17.060450102057814, 51.14043811037556], [17.060652369257546, 51.140386507485076], [17.06072481470378, 51.14049522563386], [17.06073238671304, 51.14050798879811], [17.060802549653456, 51.14048977291421], [17.060856713319435, 51.14047831457493], [17.06098935675312, 51.14044863507776], [17.060856713319435, 51.140478314574935], [17.060896645102492, 51.14055201760102], [17.061081632970478, 51.140513921484775], [17.061240607954804, 51.14048238547569], [17.061235278158456, 51.14047038648201], [17.061290252207673, 51.1404584220379], [17.06126581405703, 51.14041624429813], [17.061558357913235, 51.140351619264095], [17.061610609139407, 51.140438698584425], [17.061853412891086, 51.14067278577929], [17.062005874059306, 51.1408040077219], [17.062080105996117, 51.140867773198245], [17.061622619805583, 51.14109455272497], [17.061525411568404, 51.14114484284619], [17.061479248741904, 51.14115776808234], [17.06123383147898, 51.14122651988265], [17.061123382282005, 51.14122081484243], [17.061089758856546, 51.14121907443859], [17.060858011417064, 51.14120707854355], [17.060848352087984, 51.141206578539595], [17.060831805422666, 51.14117762490548], [17.060805428762396, 51.141131682830974], [17.060797160773784, 51.14111729595019], [17.060518291356416, 51.14118944538089], [17.060518291356395, 51.14118944538089], [17.06038877223641, 51.14100457589239], [17.060432439021756, 51.140922437825374], [17.060379413319446, 51.140935532235176], [17.060391958245646, 51.1409644897444], [17.06036580408304, 51.140971669099265], [17.06033614933574, 51.14097895972621], [17.060299767490243, 51.14098790419839], [17.060318183880646, 51.141000763509254], [17.06044640185138, 51.141207476422075], [17.06042239082673, 51.14121537419783], [17.060428809745257, 51.141225808791205], [17.06042880974525, 51.141225808791205], [17.06042239082673, 51.141215374197834], [17.060322040747334, 51.14124859373734], [17.060254005710945, 51.141271033580566], [17.060253976675707, 51.14127104107151], [17.06021054950913, 51.14128224506576], [17.059909096958172, 51.141360135747135], [17.059796215474847, 51.141118908478404], [17.05966904989178, 51.141149963790674], [17.05982388337265, 51.141392350237304], [17.05984472425131, 51.14155316987119], [17.059720384893755, 51.14176873917226], [17.059717601405072, 51.141770702533904], [17.05955240143268, 51.14164805573057], [17.059326869153104, 51.14143707120716], [17.059201612936405, 51.14126343577015], [17.05910756865738, 51.14128658266681], [17.059142349341435, 51.141361206738424], [17.059273359750907, 51.141502040400034], [17.059469767129766, 51.141683529556936], [17.059659220270913, 51.141824742845365], [17.059806000567786, 51.14191892962555], [17.059991806416786, 51.141998480126546], [17.060115955535977, 51.14201858085178], [17.060087011085034, 51.14256420766425], [17.060018853818484, 51.14256301264875], [17.059810540810094, 51.142553652110685], [17.059615511961983, 51.14253827607403], [17.059397199610203, 51.142516060132586], [17.05918762737719, 51.14247164677204], [17.058992518657455, 51.14240610690563], [17.058817151107615, 51.1423213439295], [17.058666236065402, 51.142219697197106], [17.058543907725312, 51.14210377111616], [17.058753477004696, 51.14251009023171], [17.058801239889807, 51.14260269924433], [17.058782887654665, 51.142659051390275], [17.05915005344096, 51.14270660317651], [17.05980711798579, 51.14279177790441], [17.059917266696328, 51.14280612079629], [17.06014057259425, 51.14283445287972], [17.06041287386982, 51.14286883263499], [17.06043473946718, 51.14287162427576], [17.060665160190933, 51.14280081193986], [17.06087971926404, 51.142734834064534], [17.061094565323458, 51.14266876820412], [17.06116674259512, 51.14264651394687], [17.061168455197322, 51.1426522630785], [17.061310575948742, 51.14282285835319], [17.06149478151084, 51.14304857396305], [17.06151590716276, 51.14307447180144], [17.06153559737632, 51.143098569181525], [17.061555287610283, 51.143122666558355], [17.061575116923994, 51.14314695382985], [17.061595237390414, 51.143171683925736], [17.061615068750616, 51.14319587232064], [17.061634908952723, 51.143220330471834], [17.061654879596517, 51.14324469976974], [17.06167413775586, 51.143268263270954], [17.061694119084734, 51.14329281244015], [17.061714241499725, 51.14331745263395], [17.0617337908536, 51.143341458952804], [17.06175348293288, 51.14336547540284], [17.061773030504927, 51.14338957159682], [17.061792999471443, 51.14341403075287], [17.061812272059505, 51.14343759434602], [17.06183182333647, 51.143461510766855], [17.061851219096734, 51.143485345030165], [17.061871204256224, 51.14350971440585], [17.061892035727904, 51.1435353401246], [17.0622758833863, 51.14400565424205], [17.062424706857506, 51.14418793441867], [17.06256869426788, 51.144364197533534], [17.06258195580234, 51.14438046717501], [17.06266246726441, 51.144455564537274], [17.062759533226128, 51.14454595101331], [17.06285645667431, 51.14463633626445], [17.06295353768075, 51.14472672269514], [17.063050604775984, 51.14481710893135], [17.063147529356808, 51.14490749394302], [17.063244597207607, 51.144997880019424], [17.063341536832734, 51.14508826498596], [17.063438605439124, 51.145178650902515], [17.063526402510707, 51.14526039538762], [17.062934753372748, 51.14555132541334], [17.063014828828987, 51.145629026009], [17.06282895954601, 51.14572100195309], [17.063088228762187, 51.145940448262465], [17.063141621385654, 51.14598712757331], [17.063164314630477, 51.14600700561348], [17.063935285842938, 51.14564125975546], [17.06400771271769, 51.14566547311297], [17.063729183723098, 51.14580091988839], [17.06170276765404, 51.14678097380609], [17.059436226549177, 51.1478769069024], [17.05882521265852, 51.148173962175434], [17.057354504609577, 51.14888901927704], [17.05594184759706, 51.14957066258721], [17.055538997340324, 51.14976542473011], [17.054569310881643, 51.15023490362188], [17.054543204523352, 51.150193277405414], [17.053678214727796, 51.15057805892296], [17.0537564889294, 51.150648894615436], [17.053813668482505, 51.150625916985746], [17.053949625984277, 51.150571282885885], [17.0542782264355, 51.15042456872005], [17.054280771421624, 51.15042334153822], [17.054305604899593, 51.15041136588566], [17.054392319191493, 51.15036954695738], [17.05447976232648, 51.15032737606988], [17.054604656661095, 51.15026714473346], [17.05494663298065, 51.15010222225028], [17.054978169898387, 51.150087013113385], [17.05529943764359, 51.14993207516063], [17.055716588689258, 51.14973089204423], [17.056098120623837, 51.14954688413848], [17.05659558758553, 51.149306959791126], [17.056774003637507, 51.14922090903103], [17.056861762859764, 51.14917858339522], [17.057097107009618, 51.149065075699525], [17.05721482920026, 51.149008296008546], [17.05742396411949, 51.148907428855445], [17.057701487571467, 51.1487735747316], [17.05774342277034, 51.14875334791143], [17.057921047867946, 51.14866767558724], [17.05833460798592, 51.1484682045102], [17.058456524610754, 51.14840940051599], [17.05887632725693, 51.14820691321749], [17.0590754189188, 51.1481108832248], [17.05931416445189, 51.147995724573185], [17.059636104699194, 51.1478404367399], [17.059742104647256, 51.147789306430965], [17.059870559147857, 51.14772734512763], [17.06010365998274, 51.147614906502014], [17.060169498323486, 51.147583148427756], [17.060486412831327, 51.147430278334916], [17.060716758197294, 51.147319165698605], [17.06101741691949, 51.14717413472188], [17.061234290425705, 51.14706951848845], [17.06145004002691, 51.14696544389891], [17.061787715613455, 51.146802551639745], [17.06179930266662, 51.14679696224507], [17.0619318853548, 51.146733004636914], [17.062012636503923, 51.1466940502763], [17.06219898512583, 51.146604155176696], [17.062295631050603, 51.146557533163566], [17.062538437928726, 51.14644040121328], [17.06271999707373, 51.14635281498625], [17.062884843596365, 51.146273290413056], [17.06302190037815, 51.14620717215341], [17.063191661708622, 51.14612527550455], [17.06320123214964, 51.14612065867751], [17.06335411364045, 51.146046905136366], [17.063440683142662, 51.14600514218116], [17.063517768723344, 51.14596795355823], [17.063704511294794, 51.145877863245566], [17.06402466136871, 51.14572341203164], [17.064088540165383, 51.1456925943686], [17.06408854019815, 51.14569259435279], [17.06418754637123, 51.145644829121984], [17.06421134857269, 51.14563334653832], [17.064621334404393, 51.14543569722106], [17.064795154421486, 51.145351899737705], [17.064885008376002, 51.14530858160225], [17.065152179740334, 51.145181523909606], [17.06529925858834, 51.14511157710081], [17.0653357017493, 51.14509553688762], [17.06558474122611, 51.14498591791293], [17.065726606563622, 51.1449274437257], [17.06584152503418, 51.14488007567597], [17.06587200759542, 51.14486767882792], [17.06621900680906, 51.14472655551525], [17.066383636450066, 51.144659600774766], [17.066712898649296, 51.14452568792664], [17.06692279164624, 51.14444032327038], [17.066959386170304, 51.14442543982575], [17.06726876378523, 51.144300274603374], [17.06740689551918, 51.14424438998217], [17.067867485945257, 51.14405804351627], [17.068087206685522, 51.143969148462766], [17.068478472160812, 51.143810845891764], [17.068480642091114, 51.14380996780776], [17.06864722625743, 51.1437425696816], [17.06873753150501, 51.143706032161894], [17.06885837965561, 51.14365713698286], [17.069027551252933, 51.14358737396829], [17.069042774692864, 51.14358109632982], [17.06914515238855, 51.14353887785683], [17.06919384603992, 51.143519646438584], [17.06936515363377, 51.14345199092292], [17.069401859077445, 51.14343691432153], [17.069478301773913, 51.143405515870654], [17.069494575565447, 51.1433988078365], [17.069638575317676, 51.14333944963111], [17.069761985778474, 51.14328712098811], [17.069779384774947, 51.143279744046204], [17.069837759561526, 51.143254991519775], [17.06987430591787, 51.14323949548768], [17.06989475342979, 51.14323082489359], [17.06998765629252, 51.14318838110777], [17.070057471442922, 51.14315648459207], [17.07012356669218, 51.1431262880633], [17.07018439840804, 51.14309673556033], [17.07025644210929, 51.14306173724339], [17.070301828737513, 51.14303968779732], [17.070450995218607, 51.14296183755265], [17.070487800056355, 51.142942628870586], [17.07056327848304, 51.142903235665834], [17.070660211573365, 51.14284968792594], [17.07071411169311, 51.14281991196326], [17.07082743638842, 51.14275730872528], [17.070899583751405, 51.142717451944115], [17.07094211918691, 51.142693954744665], [17.070986596831215, 51.142669383414635], [17.070994559379898, 51.14266498511177], [17.07103121984282, 51.142645470363945], [17.071062797032962, 51.142628660661984], [17.071117654017257, 51.142599459358976], [17.071122399256577, 51.14259693320502], [17.071287177278798, 51.142504970811295], [17.071321989395482, 51.14248554197917], [17.071461559846302, 51.14240764751306], [17.07147852720235, 51.14239817770315], [17.071715770112604, 51.14226819842346], [17.071792897207647, 51.14222594262989], [17.071880382985135, 51.142178011133474], [17.07206835451841, 51.142073508676646], [17.072097324486272, 51.14205740347284], [17.07212632479998, 51.14204128052339], [17.072229018712218, 51.1419841876314], [17.072978404023974, 51.14159478499339], [17.07361944834054, 51.14127827485046], [17.07516131335046, 51.140659727611414], [17.075207438373855, 51.14064432813496], [17.075210107061658, 51.140643437183805], [17.076536303874995, 51.14020066878905], [17.07691895297, 51.14022055406751], [17.076968676910045, 51.140219400294846], [17.07700869653899, 51.140213297539134], [17.07712560498004, 51.14018600167352], [17.07776729669635, 51.14003632500553], [17.07816379522139, 51.13994196738732], [17.078920634484525, 51.139761836129665], [17.078955352077916, 51.1397535694009], [17.07918381589073, 51.139791111139104], [17.079610433986986, 51.13986124418785], [17.080395659589655, 51.139990417041744], [17.081093604166824, 51.14010384125846], [17.081667242647093, 51.14019710145188], [17.08185395458148, 51.14022746901072], [17.081763234615725, 51.14070246963588], [17.081641310630832, 51.14135566912905], [17.081597983293648, 51.14158749486449], [17.081559782840838, 51.141838194092315], [17.08165479914148, 51.141843755318945], [17.081654799203896, 51.1418437550449], [17.08165942648372, 51.141823446068955], [17.081672078316302, 51.14176789875941], [17.081696836877306, 51.1416592081744], [17.081702818004768, 51.141628498946204], [17.081703000956644, 51.14162756096729], [17.081711321033787, 51.141584843788145], [17.081716592658204, 51.141557769784704], [17.081728268397608, 51.141497824272214], [17.081751640586518, 51.141377821034524], [17.081755212531327, 51.14135732667221], [17.08176134177135, 51.14132217323476], [17.081792336946894, 51.14114436723675], [17.081818800782212, 51.14097597913815], [17.081829167965704, 51.140910018269956], [17.081839192071435, 51.140854218373526], [17.081844846629732, 51.14082274425078], [17.081877106423942, 51.140643034254474], [17.08188755361891, 51.14060897907486], [17.081926669913386, 51.14048147887602], [17.081997606767327, 51.14025025355634], [17.08200522738858, 51.140225411217614], [17.082027720900545, 51.140105833406885], [17.08204310422038, 51.140024050591734], [17.082050597454796, 51.139942726345495], [17.082053833142485, 51.13990761489991], [17.082056905046656, 51.139874276720214], [17.082061171645528, 51.139827966001846], [17.082060921400366, 51.13982523658598], [17.082045654426732, 51.13965877456185], [17.081922514372085, 51.13935388699266], [17.081862997744473, 51.13920652730558], [17.0816597858937, 51.13869429415985], [17.08132108994096, 51.13786902673071], [17.08100515036092, 51.13684458209498], [17.08059880736018, 51.135763203677904], [17.08016987872043, 51.13466759067284], [17.079786129329623, 51.13367157869821], [17.07931203551619, 51.132547495171174], [17.07892830129305, 51.1315799349479], [17.078680021758647, 51.13093963761621], [17.07858181787457, 51.13072638120982], [17.07855509262936, 51.13058774188211], [17.078523646421424, 51.130306353019414], [17.078492444440037, 51.12974452433924], [17.0784892769463, 51.1295836603247], [17.07833506895002, 51.127607545611795], [17.07795406713656, 51.12762349416798], [17.077950063491542, 51.127623665537556], [17.07345055775739, 51.12781625963134], [17.070638186114337, 51.12796013661428], [17.067768297181384, 51.12811349585027], [17.067761419605436, 51.12811386336965], [17.066039578602798, 51.12819263626878], [17.0643454464776, 51.128380535817314], [17.06178157258628, 51.12884727484869], [17.060456964541984, 51.12936631663698], [17.05940847297705, 51.129777163407255], [17.059284564352367, 51.12982571645237], [17.059005192104717, 51.129993266445865]], [[17.061250452246156, 51.14039157929527], [17.061542591097236, 51.14032648358903], [17.061250452246156, 51.140391579295276], [17.06098935675312, 51.14044863507776], [17.061250452246156, 51.14039157929527]], [[17.06435327656699, 51.140732851425376], [17.064235058185282, 51.140520568354546], [17.063978945740818, 51.1405772751284], [17.063957982844148, 51.14053483810431], [17.06395342213642, 51.1405257580328], [17.06382765654264, 51.14054754011695], [17.063799555034915, 51.14051256125456], [17.063637446407874, 51.14031411186088], [17.06355239992567, 51.14033771192674], [17.063465224631102, 51.14035987452206], [17.06340662809942, 51.140375047245236], [17.063376893657633, 51.14038123670967], [17.063286574544076, 51.14039844767626], [17.063134936211277, 51.14042625160803], [17.062937691446432, 51.140486834720754], [17.062873375803104, 51.140504963891885], [17.062730232636632, 51.14034822426715], [17.06253697375636, 51.14042013861683], [17.062341714451467, 51.14048989707729], [17.062144595980126, 51.14055758167801], [17.062040541690067, 51.14059178881291], [17.06194563611004, 51.140623021749015], [17.06190411827637, 51.14055909607569], [17.062068770302755, 51.14051818334217], [17.061895697562857, 51.14042039040744], [17.061852458653018, 51.140373000823296], [17.061724318450214, 51.14021159781299], [17.061604182700947, 51.14004731927006], [17.061494908655675, 51.139881608509604], [17.061414169270847, 51.13974917253943], [17.061430610708694, 51.13974243640436], [17.06149892780206, 51.139722155654454], [17.061507278191016, 51.13972049665239], [17.061944261355563, 51.13963605680243], [17.062027006812116, 51.139621617867284], [17.062044838946854, 51.13964356074407], [17.062129354622986, 51.13962003842339], [17.06224422114937, 51.13958809339671], [17.06228624297033, 51.13957633926942], [17.06237485485716, 51.13955093482222], [17.06255663965004, 51.13951550759189], [17.06284676282334, 51.139458555069936], [17.062858912235146, 51.13945487677658], [17.063073870425118, 51.139384493168045], [17.06353268138133, 51.13923582950696], [17.06353896229056, 51.13923403692416], [17.063536973372525, 51.13923134208757], [17.063872894599104, 51.139076065523085], [17.063961655203975, 51.13903403024324], [17.064318302723194, 51.13886769922017], [17.064532437191573, 51.138767829335826], [17.064880209133218, 51.13860562376923], [17.06510934190217, 51.13849884285766], [17.06518067495388, 51.13846561202832], [17.065342053409655, 51.138391694554755], [17.065524581772127, 51.13830564803283], [17.065571179255144, 51.13828373504289], [17.065583051930393, 51.13827816643288], [17.06559319526101, 51.13827332115491], [17.065663091462447, 51.13824044712711], [17.06579917657439, 51.13817641332231], [17.065884661859116, 51.13813293905066], [17.0659196870662, 51.13811514963088], [17.065930280468727, 51.13810711659806], [17.06571609846242, 51.13795761618504], [17.06580808264454, 51.13786045384684], [17.065861552124947, 51.137866184823444], [17.065905465605955, 51.137871030385234], [17.066005647991357, 51.13788450588214], [17.06607520933076, 51.137892972265426], [17.066218207358332, 51.137916138697626], [17.065956656701815, 51.138088808607975], [17.065985732313017, 51.13811376231291], [17.066066212300235, 51.138183076839184], [17.066150627296516, 51.1382556769768], [17.06622393172446, 51.13831945940827], [17.066294861917985, 51.13838052594732], [17.066509162801292, 51.138233817787814], [17.066603773994284, 51.13816930817202], [17.066772578916737, 51.13805361024208], [17.06698168131982, 51.13812707880646], [17.067044917159414, 51.13815377007363], [17.067129077699185, 51.13818943805513], [17.06713404235914, 51.138218199536], [17.067158776357072, 51.138201945792815], [17.067310178712873, 51.13810239749931], [17.06733491258701, 51.13808614371793], [17.067280333402174, 51.138090077412556], [17.067061094819913, 51.13799982578541], [17.06677057328505, 51.13790290099556], [17.06698842045892, 51.13764670852366], [17.06678903502885, 51.13757687739128], [17.0666969015308, 51.13755471988086], [17.066585918814873, 51.13751422582792], [17.066379402184996, 51.13743953661128], [17.066171729461313, 51.1373626892731], [17.065963641074315, 51.13728664731076], [17.06575668584622, 51.13721042524488], [17.065484321984993, 51.137109821677214], [17.06544689263409, 51.13709667639674], [17.06544076137257, 51.137094613723406], [17.06541705345273, 51.13708552453086], [17.065194385821012, 51.13700911297264], [17.065106257488726, 51.136979057355546], [17.06493529830477, 51.13692127164373], [17.064763909190876, 51.1368628619572], [17.064670356393417, 51.136829031931285], [17.064545395833967, 51.136766947892966], [17.064284778696297, 51.136641803859455], [17.064495453909768, 51.13641563790229], [17.064601415466573, 51.136465389084506], [17.064712240704768, 51.136514882407866], [17.06491160722476, 51.13660224675725], [17.065098124869625, 51.13667423465692], [17.065667532451524, 51.13690193484471], [17.06566854109797, 51.13690081020864], [17.06578793705797, 51.13694913040469], [17.06586263245048, 51.136984220285704], [17.06636625517808, 51.13714486826531], [17.066479956596297, 51.13718087143604], [17.0664925182553, 51.13718717455257], [17.066454614179847, 51.137231559475644], [17.066617568721398, 51.13729742368044], [17.066698978462274, 51.13732981577988], [17.066781249366628, 51.13736131573033], [17.06708575232746, 51.137473346752486], [17.067113604309277, 51.137483871043614], [17.067829917961713, 51.13770770713696], [17.067863922524406, 51.137708616430416], [17.06792226531457, 51.13767528938661], [17.068207640692307, 51.13749481313129], [17.06835179133648, 51.1373464009874], [17.068273224083406, 51.137352337520554], [17.068588978122918, 51.137013336409716], [17.068594459374385, 51.13701646350749], [17.068610693674348, 51.13707957417875], [17.068791619390836, 51.13688440260727], [17.068702337455335, 51.136833457597746], [17.06799919438294, 51.136432141489934], [17.067727721656404, 51.13627805291023], [17.06870549038502, 51.1355993135487], [17.068837010388247, 51.13550803721911], [17.069053030072137, 51.1356932804148], [17.069268064409865, 51.135875737561584], [17.06944547734527, 51.13610016423005], [17.069643652081236, 51.13641709731433], [17.069755744208752, 51.13648842275573], [17.069751310699285, 51.13649075176496], [17.069785602657305, 51.13651998013856], [17.069936483949284, 51.13664849134118], [17.06980327311977, 51.136707950116985], [17.069501367697207, 51.13701041393822], [17.06949435010836, 51.13701760374947], [17.069642767894685, 51.13705828497049], [17.069527167735036, 51.13722112947329], [17.06926148121451, 51.137134827432284], [17.069233019543983, 51.137170955003086], [17.069169162049032, 51.13714746926622], [17.069121805385937, 51.13721153902866], [17.069061864166663, 51.137293865432135], [17.069004205743624, 51.13737564362961], [17.068663173817725, 51.137267255192434], [17.068574732376145, 51.13735204228572], [17.068639683609753, 51.13737656187487], [17.06891694305628, 51.137481413178755], [17.069043325367108, 51.137569816492146], [17.069123424642704, 51.13763124197129], [17.069054470227176, 51.13772758338195], [17.07138759767656, 51.13844722432269], [17.071939702902938, 51.13861755535238], [17.07315419492174, 51.138994107164606], [17.07317290225252, 51.13901469783457], [17.073142163813905, 51.139024037180896], [17.072781003643748, 51.139126128347264], [17.071920102066002, 51.13947680844657], [17.07177354085145, 51.1394185971376], [17.07061399655651, 51.13887960253237], [17.070333564103578, 51.13874928044195], [17.07028756711194, 51.13872787007317], [17.070199574331532, 51.13869287510173], [17.069469497096843, 51.13844866351604], [17.06910295481002, 51.13830803437984], [17.06816513943274, 51.13801535187838], [17.067836263890268, 51.138108533579675], [17.06774210691222, 51.13810517607444], [17.067516558018234, 51.13819192584186], [17.067520683018774, 51.1382219481492], [17.06836798392216, 51.13874913754329], [17.068140143151165, 51.138828966215094], [17.067621478745128, 51.1385448323495], [17.067612701757348, 51.138540024840076], [17.067404701082943, 51.13866067036324], [17.06714165431648, 51.13881328409017], [17.067334662382393, 51.13900842416117], [17.06737225298258, 51.1389952304898], [17.067444338771168, 51.13907282847722], [17.06753081711783, 51.139042485790256], [17.06784672055813, 51.13937879808985], [17.06783200428458, 51.139384362243355], [17.067759528255554, 51.139411931094436], [17.068025041821762, 51.13969752624549], [17.06817475184474, 51.13988661142657], [17.06679569341118, 51.14021984668264], [17.06464075758521, 51.14074043684504], [17.064391216722562, 51.140800738993335], [17.06435327656699, 51.140732851425376]], [[17.0603326921397, 51.13376384323583], [17.060255795562753, 51.133802456162755], [17.060219471876785, 51.13382302924086], [17.060195733382855, 51.133845842979014], [17.06017809892153, 51.13390229107648], [17.060100011120486, 51.133972816554454], [17.059747212577186, 51.133769961038], [17.05977594686203, 51.13375514339009], [17.060235807755113, 51.13351803399924], [17.060238234554458, 51.13351884458908], [17.06029727062331, 51.133489383454226], [17.060295418901152, 51.13348839769362], [17.060669008230963, 51.133299658840414], [17.061393616242764, 51.1329335031597], [17.061650050151894, 51.132805426883365], [17.061483891032896, 51.13271026946791], [17.06158679680602, 51.13262895870076], [17.06159004788895, 51.13262361562839], [17.061606269456533, 51.132559931392954], [17.061590754178347, 51.13246986736748], [17.061588034387388, 51.13246080088409], [17.06160069400828, 51.1324171926967], [17.061606670790994, 51.1323687984605], [17.061646565129468, 51.132350505451726], [17.06172154195194, 51.13230417574856], [17.06179137650702, 51.13225162180775], [17.061861124601524, 51.132181577366644], [17.061905750395173, 51.13212106535832], [17.061931307303176, 51.13207967796455], [17.061936107215764, 51.13207101111728], [17.061923425620094, 51.13206610913889], [17.062385115183645, 51.13224457033012], [17.062545902513307, 51.13230765414289], [17.063056496542792, 51.13205016528046], [17.063098399653214, 51.131870950798486], [17.062266785531623, 51.13160826934912], [17.06237149259391, 51.13148085360699], [17.063094009986358, 51.131700966377934], [17.063373484340634, 51.13179080013279], [17.063964732949298, 51.131992038604636], [17.063926321097203, 51.13198177961526], [17.063893454492888, 51.13198203793701], [17.063861453802403, 51.13198822735708], [17.06383543636866, 51.13199881565302], [17.06375854363457, 51.13203752979526], [17.063285554897323, 51.13227543783209], [17.063352055219706, 51.13234225111412], [17.063374477547328, 51.13235754228873], [17.063405466675064, 51.13236888369699], [17.063421308024672, 51.132383897416126], [17.063469550379168, 51.132427335166135], [17.063453813564127, 51.13243964182087], [17.063452505335324, 51.13246193465239], [17.063466062262574, 51.13247757732515], [17.063581536815974, 51.13257640822528], [17.06361966997126, 51.13259764144991], [17.063807610107432, 51.13266692802409], [17.063686371498576, 51.13275416380467], [17.06360600290516, 51.13269057483644], [17.062942039160145, 51.133022880687534], [17.06268745799118, 51.132876080306986], [17.06266715254362, 51.13289243153766], [17.062591351652266, 51.132834056515456], [17.062528409498295, 51.1327855832342], [17.062482588064803, 51.13275032710193], [17.06242820027675, 51.13270841286526], [17.06192032665901, 51.132960149455506], [17.061698187232825, 51.13307394724534], [17.060881876897128, 51.133488101313475], [17.060371074999576, 51.13374459016562], [17.0603326921397, 51.13376384323583]], [[17.06163796348636, 51.13195595222206], [17.061676153765433, 51.1319108519449], [17.061637963486362, 51.13195595222206], [17.06163796348636, 51.13195595222206]], [[17.060748858223167, 51.132289324635785], [17.06074885951001, 51.13228932537275], [17.06074885822316, 51.13228932463579], [17.060748858223167, 51.132289324635785]], [[17.05925547647021, 51.1314346674972], [17.059101572886398, 51.131346778135196], [17.059100599726282, 51.13132717287158], [17.0593506230599, 51.131171325957], [17.059464977187634, 51.13124032431173], [17.059404502000078, 51.13128236795372], [17.059399779361673, 51.13129189495555], [17.05944031285886, 51.13131860557862], [17.05925547647021, 51.1314346674972]], [[17.061340543288964, 51.13187402050185], [17.061366210989746, 51.13185110964457], [17.06150208723805, 51.131903530933315], [17.061366210989746, 51.13185110964458], [17.061340543288964, 51.13187402050185]], [[17.061109276162124, 51.132040041191615], [17.061009251231873, 51.13210959605648], [17.06095282554271, 51.1321488329545], [17.061109276162124, 51.132040041191615]], [[17.060105299220343, 51.134878475732556], [17.06064747777976, 51.13462623147837], [17.060827654481013, 51.13473749601943], [17.06067784829405, 51.1348068256261], [17.060103360821596, 51.13507317581273], [17.059956782733302, 51.134947545093894], [17.05999018628496, 51.13493220756818], [17.060105299220343, 51.134878475732556]], [[17.059956464774885, 51.13420115942545], [17.060192886874667, 51.13434641741291], [17.060132429097443, 51.134373358957916], [17.059949675855655, 51.13426317834582], [17.059895073494378, 51.13428814416519], [17.059956464774885, 51.13420115942545]], [[17.059099898413063, 51.134643133065616], [17.05909991755707, 51.13464312421622], [17.05909991755708, 51.134643124216225], [17.059099898413063, 51.134643133065616]], [[17.060708925968825, 51.139797865232815], [17.060713556275786, 51.1397965956678], [17.06107858883368, 51.13969680221137], [17.06071355627579, 51.1397965956678], [17.060708925968825, 51.139797865232815]], [[17.06057576424027, 51.13957451471882], [17.06053539165383, 51.13951696240149], [17.060522974151567, 51.13949934185383], [17.060698779734842, 51.139451598624774], [17.06088114019586, 51.13940404261147], [17.06095732968315, 51.13938240502902], [17.060978585362573, 51.13941729366536], [17.061015387089487, 51.139476902755426], [17.061004101105212, 51.13946971033122], [17.06098837939006, 51.13946844242004], [17.06095150084265, 51.13947601224988], [17.061002566188947, 51.13955804814319], [17.06069120161566, 51.139641938239336], [17.06066107858678, 51.13959827636499], [17.060634006940948, 51.13955916976733], [17.06057576424027, 51.13957451471882]], [[17.061431045900466, 51.141569367119594], [17.061416526247854, 51.141653950910005], [17.061416508087706, 51.14165395677996], [17.061416526247854, 51.14165395091], [17.061431045900466, 51.141569367119594]], [[17.060598690765556, 51.14184765583635], [17.06024219448491, 51.14195265846949], [17.060598690765556, 51.141847655836344], [17.060639496081436, 51.14190511269307], [17.060598690765556, 51.14184765583635]], [[17.06014088678146, 51.141957651704615], [17.060048024862102, 51.1419464594747], [17.05987734928535, 51.14187482469565], [17.059735713706697, 51.14178414936361], [17.05987734928535, 51.141874824695634], [17.060048024862102, 51.14194645947469], [17.060140886781465, 51.14195765170461], [17.06024219448491, 51.14195265846949], [17.06014088678146, 51.141957651704615]], [[17.06135443919705, 51.141592339715764], [17.06126079365789, 51.1414417643834], [17.06112338331665, 51.14122081650608], [17.06135443919705, 51.141592339715764]], [[17.063867547584127, 51.14563961187926], [17.063824658763437, 51.14565794004255], [17.063771117213985, 51.145612248708446], [17.06380771730797, 51.14559464333483], [17.063867547584127, 51.14563961187926]], [[17.06660287219744, 51.13459290875731], [17.066638707769382, 51.13461485979467], [17.06674090447672, 51.13457202168267], [17.066798727632516, 51.134607551683075], [17.065863497181894, 51.13521366409434], [17.065580053293136, 51.13505165385081], [17.066316000754277, 51.134578231099105], [17.06647836071187, 51.134677361462956], [17.06660287219744, 51.13459290875731]], [[17.069548561442897, 51.135502085849744], [17.06950545101365, 51.13546377962071], [17.069572910496642, 51.13543377853565], [17.069615877910305, 51.13547209259183], [17.069548561442897, 51.135502085849744]], [[17.070036647879643, 51.13890747467886], [17.070077359058928, 51.13891459455136], [17.07015250251025, 51.13893196666232], [17.07045671155664, 51.13908729853034], [17.070469078842386, 51.13916523803715], [17.070160061383188, 51.13927839723943], [17.07011779328955, 51.13924917749554], [17.069429271458354, 51.13949919542201], [17.069322048867875, 51.13940495794496], [17.06906135582907, 51.13915290847001], [17.069959087341118, 51.138868166550594], [17.070036647879643, 51.13890747467886]], [[17.074603674190268, 51.13717926092935], [17.074617999997255, 51.137182430758], [17.074642658861546, 51.137138324965136], [17.074811097466597, 51.1371755891374], [17.07478642409583, 51.137219712829626], [17.07477290902595, 51.1372167292282], [17.07474471942737, 51.13726662340609], [17.074713721903024, 51.13725968988185], [17.074716730307617, 51.13725430192536], [17.07460901661566, 51.13723009461928], [17.074606009997073, 51.1372353926909], [17.074576303818343, 51.13722890983992], [17.074603674190268, 51.13717926092935]], [[17.079484201384734, 51.133505427626346], [17.079460335066067, 51.13351360012929], [17.0794116203, 51.133507481282834], [17.07916421769794, 51.132867727918054], [17.07923497437862, 51.132858935806254], [17.079236319827157, 51.132862407409], [17.079256434159454, 51.13291068729135], [17.079484201384734, 51.133505427626346]], [[17.078604447121965, 51.13391669746609], [17.078848731396903, 51.13393680786261], [17.078828696429078, 51.133985068223815], [17.078573272446246, 51.13396540939646], [17.078604447121965, 51.13391669746609]], [[17.078625355924878, 51.13821082235644], [17.078640250512915, 51.13816678264611], [17.078833086644774, 51.137597388357555], [17.079243455057284, 51.137577543502466], [17.079419780365434, 51.13756482683938], [17.07964183112892, 51.137545646629306], [17.07965998923349, 51.1375451063118], [17.07960071522014, 51.1377241537309], [17.079541160537744, 51.13790292022845], [17.079504224480683, 51.138010603940124], [17.079426215658604, 51.13799997548704], [17.079335508848814, 51.13818449274306], [17.07926465334746, 51.13817557458612], [17.07910172296115, 51.138664073625705], [17.079061637780892, 51.13878343688577], [17.078468457619287, 51.13865366478688], [17.078512543492145, 51.1385322386625], [17.078527718769042, 51.13849061938966], [17.078562506273116, 51.13839481233717], [17.078568956746594, 51.13837728843657], [17.078625355924878, 51.13821082235644]], [[17.081287157384434, 51.13974703543493], [17.081340086560274, 51.13964987781913], [17.08191562374019, 51.139882014444616], [17.08188493694779, 51.14005378100437], [17.081190449016088, 51.13992525913202], [17.081287157384434, 51.13974703543493]]], [[[17.05907569657125, 51.141596122224676], [17.058991789938318, 51.141603787286975], [17.059004006150477, 51.141630268182915], [17.05907569657125, 51.141596122224676]]], [[[17.06921420928895, 51.13920356804213], [17.070005337213495, 51.13891681764189], [17.069959087341118, 51.138868166550594], [17.06916738157886, 51.13915312310311], [17.06921420928895, 51.13920356804213]]], [[[17.07012737037483, 51.139235517485545], [17.070207702789737, 51.13920587908764], [17.070279885734127, 51.13917929525273], [17.070079604931745, 51.13896924239774], [17.070006425513984, 51.13899564738257], [17.06992666860991, 51.13902439125625], [17.07012737037483, 51.139235517485545]]], [[[17.069846084608795, 51.139340320237984], [17.069921547902787, 51.13931193781787], [17.069997023405573, 51.13928365433218], [17.069797883339074, 51.13907234252908], [17.069722545337065, 51.139100905658914], [17.06964750926672, 51.139129372256185], [17.069846084608795, 51.139340320237984]]], [[[17.06956250232122, 51.13944414215486], [17.069636684983728, 51.13941692737152], [17.069713720341504, 51.13938854860126], [17.06951486343341, 51.139176699192014], [17.069437534981876, 51.139206163244964], [17.06936449754228, 51.13923399831015], [17.06956250232122, 51.13944414215486]]]]}}]}