{"type": "FeatureCollection", "features": [{"type": "Feature", "properties": {"district": 2, "variant": "wariant-spojny-propozycja", "crs": "EPSG:4326"}, "geometry": {"type": "MultiPolygon", "coordinates": [[[[17.011361559328964, 51.13195622854155], [17.011987217121927, 51.13198282159994], [17.01221569606211, 51.13199526959438], [17.012728059326196, 51.13203501547339], [17.014612282559575, 51.13192891730837], [17.014646141993392, 51.13191961961316], [17.014678345006352, 51.131915647817564], [17.01482753511557, 51.131914342661915], [17.014872993252972, 51.13190853171677], [17.0159527058161, 51.13190851547826], [17.016257315876164, 51.13189377312536], [17.016527031418143, 51.13187585983887], [17.016652105845576, 51.13186168310159], [17.016726696890256, 51.13186121354329], [17.017550853242398, 51.13178951644171], [17.017764575116708, 51.13177967007997], [17.01795651097493, 51.13177845925028], [17.0181955904133, 51.131785581783205], [17.018416765323074, 51.13180898666459], [17.01888883379931, 51.131880748110966], [17.01917454340365, 51.13193666920549], [17.019498026484744, 51.13199478514829], [17.01985351029381, 51.13205243124911], [17.020142774586308, 51.13208024209774], [17.020696937745516, 51.13210845487406], [17.02101789942077, 51.13210555058584], [17.02128660256222, 51.132106433224266], [17.02191433643922, 51.132084473278034], [17.02237120516385, 51.1320638145724], [17.023146945100617, 51.13202619361383], [17.02414850368873, 51.13197141195167], [17.024372102315176, 51.13195252939802], [17.025994768666784, 51.131850798813865], [17.02724831619495, 51.13175759963152], [17.027830899785044, 51.13172718662529], [17.028075029761116, 51.131715650415416], [17.02867330140681, 51.13167154648081], [17.029053696352353, 51.13165360659852], [17.02951056829842, 51.13164537972005], [17.030264719295626, 51.131648084789596], [17.031130062605488, 51.13168254079749], [17.031315013638814, 51.131692810881866], [17.032135759742346, 51.131765212959515], [17.032503769259403, 51.13180595174472], [17.033082492554268, 51.131902765273196], [17.033476623412792, 51.131964635903095], [17.03381588558619, 51.132034978634465], [17.03505192488003, 51.13243028306642], [17.035258978456657, 51.13248190191346], [17.035466330881828, 51.13252262738912], [17.035612840344314, 51.13255884138915], [17.035737547400128, 51.1325765095645], [17.035748124861676, 51.13256257290942], [17.035815825392124, 51.132582908346954], [17.035797172157164, 51.13261346323334], [17.035847750927626, 51.132629926776495], [17.035970615938407, 51.1326928424507], [17.036315986958936, 51.132780398499186], [17.036518467707552, 51.13282464186103], [17.036725005524797, 51.13286000953662], [17.036971539446466, 51.13291097964035], [17.03725904252165, 51.132980247835924], [17.03795895324436, 51.13313680910573], [17.03918022254758, 51.13341455221483], [17.039327105099296, 51.133476439062896], [17.039324141664828, 51.133481538823624], [17.039976657789097, 51.13393029393166], [17.03951968706413, 51.133889270666835], [17.03923612334193, 51.13385970279043], [17.038972368815376, 51.13382780687555], [17.038757646019665, 51.133798929376454], [17.038095656002127, 51.13369814204009], [17.03780190392776, 51.133650156968], [17.037345106778634, 51.13356940132241], [17.036799914744794, 51.13346649353063], [17.03662995357311, 51.13342828092907], [17.0363202767258, 51.13337602569723], [17.03630758908947, 51.13337602003313], [17.036198504049775, 51.13335386952734], [17.036188377577275, 51.13337290707442], [17.036229444474323, 51.133381677815564], [17.03615040253458, 51.13359376665755], [17.035737374408246, 51.13368375542448], [17.035739868487532, 51.133734136052546], [17.03571566922679, 51.1337778060523], [17.035676587838655, 51.133821865743926], [17.035715497850504, 51.133973985939335], [17.036011746458243, 51.134010490067745], [17.03613703460282, 51.1342001437211], [17.03635612551843, 51.1345291906978], [17.036345580141088, 51.13460540800728], [17.036226135988123, 51.13451517441974], [17.03613845962075, 51.13457776599541], [17.03586521028218, 51.13453103280061], [17.035877647346886, 51.1354130115931], [17.035880030905307, 51.13558671138092], [17.035881812115953, 51.135711808123986], [17.035601918596882, 51.135719631721635], [17.03534543535988, 51.13573816564736], [17.03512352574264, 51.13576310621622], [17.035031078347217, 51.13576717988973], [17.034729477614583, 51.135764825792094], [17.03447561899221, 51.13575477439042], [17.034134182279374, 51.1357304607564], [17.033653312370916, 51.13572071698798], [17.03317610285532, 51.13571975742736], [17.03313382063782, 51.13571505687811], [17.032977620235467, 51.135651934547916], [17.03289067973152, 51.13570087449176], [17.032666867824442, 51.13583456951535], [17.032762064879602, 51.13589791590506], [17.033090776766443, 51.13583233066308], [17.03330397474514, 51.135811349304554], [17.033649721776417, 51.13581742500746], [17.033533781243314, 51.13594616070353], [17.033356176794637, 51.13595548044218], [17.03325829067788, 51.13596611515902], [17.03328341552388, 51.13598023883319], [17.033467415989495, 51.13608409789268], [17.03355871477571, 51.136171350861765], [17.0337497659196, 51.136430366253364], [17.033808159364963, 51.1365490626506], [17.03382656858867, 51.136654249863206], [17.03380783501528, 51.136754914071695], [17.033750526617027, 51.13685735416503], [17.03361460617887, 51.13697862525016], [17.033483056841828, 51.137036968763375], [17.033311566634037, 51.13707010762037], [17.033104366634344, 51.13708345243928], [17.03287429930243, 51.137112061007926], [17.032692795415816, 51.13714160119556], [17.03250277075039, 51.13714057770427], [17.032392235800074, 51.13746771369989], [17.0322663493525, 51.137567401171474], [17.03242041111113, 51.137719423388134], [17.032650237657784, 51.137848132651754], [17.032758790141152, 51.137871576531], [17.03278118288789, 51.13816077907502], [17.03281777844578, 51.13815666780385], [17.033001358721098, 51.13816335490583], [17.033179045835414, 51.13819700690801], [17.033337243842162, 51.13825562540917], [17.033228631745644, 51.13821538045094], [17.03217863272075, 51.13859328970789], [17.03199775193798, 51.13828989655886], [17.03181725171258, 51.13829081231663], [17.03173465740119, 51.138207513617964], [17.031297011453667, 51.137768538481474], [17.031201713262572, 51.13768604212232], [17.03096000502393, 51.137748342614096], [17.030979097771695, 51.1377762249066], [17.031402294227462, 51.13839615117078], [17.03164005703858, 51.13874455434021], [17.031671559885915, 51.1387905994792], [17.031699567548287, 51.138785140920554], [17.03205774885357, 51.138715631338776], [17.032119200638483, 51.13870371622204], [17.03216594356524, 51.13869476280209], [17.03221615562398, 51.13868451462336], [17.032622889719427, 51.13860150005664], [17.032884015708987, 51.1385482834284], [17.033029454379296, 51.13862972765423], [17.033185960646616, 51.1386212228364], [17.033114836854505, 51.138677521369964], [17.03314381902255, 51.138693807500914], [17.0333195455203, 51.13879064931299], [17.032640269620458, 51.139328807757344], [17.032487901469505, 51.13945095729654], [17.03247522202775, 51.13959882205908], [17.032384146733634, 51.13989710931121], [17.03200555656709, 51.139774333159764], [17.03163108959146, 51.14009660460696], [17.031769869862185, 51.14016447480495], [17.031804461261345, 51.14040585460434], [17.031686450992783, 51.14081918359493], [17.031663566546072, 51.14091849156277], [17.031879813097166, 51.14105078453985], [17.031773509441262, 51.14138196418541], [17.03193499144336, 51.141368324172944], [17.031520560079546, 51.1415674028921], [17.031466075257153, 51.14159379479169], [17.031374246562685, 51.141817640662225], [17.031055517737244, 51.14286358895813], [17.031176986632776, 51.14294160953145], [17.03140921911147, 51.14309026204293], [17.031336079178782, 51.14332984166559], [17.031260176345736, 51.143343632385395], [17.03116534414156, 51.14339534639219], [17.031223003208375, 51.143435207648544], [17.031459053023532, 51.14359824812483], [17.03144698331697, 51.14363823300164], [17.031429437355957, 51.14370088037006], [17.03142251618004, 51.14373044393387], [17.03141217883107, 51.143762082782835], [17.03143403738242, 51.14376514948049], [17.031419089637186, 51.143813587754714], [17.03139678923257, 51.143811146670195], [17.031387163831415, 51.14384359149119], [17.031386421803848, 51.1438544628165], [17.031340852935397, 51.14400984899494], [17.03133294925503, 51.14402899440613], [17.031314634672054, 51.14404641747451], [17.0313073128858, 51.144064390059896], [17.03111603842061, 51.144728533800794], [17.031084490407963, 51.14478891658899], [17.031032500725303, 51.14493620370524], [17.031025586583688, 51.144958584573686], [17.03084301603933, 51.144853277438756], [17.03103581101728, 51.14421979244172], [17.030918728641552, 51.144243355122065], [17.030761968165475, 51.14424396193882], [17.0305996585268, 51.1442318022036], [17.030459528854163, 51.144203968376395], [17.0299468170816, 51.14388329048242], [17.02993594619303, 51.143890562837505], [17.02987470729894, 51.14393150615066], [17.02983021946042, 51.14396077599011], [17.02973715228104, 51.14390362988106], [17.029779364061856, 51.1438745389678], [17.029841883174022, 51.14383251857641], [17.029853335223436, 51.14382479257874], [17.029517469076175, 51.143614579013104], [17.029464796704534, 51.14358163537407], [17.029450211396547, 51.14359089054199], [17.02938568946921, 51.14363164454365], [17.029341270873886, 51.14365965622276], [17.028573711493998, 51.14317937625065], [17.028210450520692, 51.14279538617347], [17.02812581161975, 51.1427386054473], [17.02798723813052, 51.14280434582842], [17.027783532013036, 51.14263238871143], [17.026981241187006, 51.141954756254655], [17.026755292101928, 51.14181337483059], [17.02686484333288, 51.14168563552105], [17.026633898998583, 51.141469283543564], [17.026533112462932, 51.14157437874583], [17.02636058600038, 51.141756268560194], [17.026234317848143, 51.14188785962166], [17.026514284110835, 51.142178047885885], [17.026599969413116, 51.14212786166232], [17.026824885907303, 51.142281020215144], [17.026652649947906, 51.14238039686356], [17.026670988254097, 51.1424346042458], [17.026588105198442, 51.14251256489237], [17.026406097829355, 51.1424113097496], [17.026066935160998, 51.14222247205457], [17.02600597702681, 51.142344403456086], [17.026908718653047, 51.142849072516015], [17.027603056174186, 51.14323142383093], [17.0284848378925, 51.14372114528172], [17.02935818847793, 51.14421103273902], [17.02974276368355, 51.14442668502402], [17.030457528548034, 51.14482468675921], [17.0304350997554, 51.14489792824294], [17.03014132388603, 51.14473214168035], [17.02986107391167, 51.14567393677988], [17.029042853295334, 51.14557653138538], [17.0285961105465, 51.145516420763535], [17.028522566959964, 51.145801572724594], [17.028816205156026, 51.14596987927818], [17.029286416715884, 51.146238617686144], [17.02963317002779, 51.14643689395706], [17.029704109105968, 51.14647810668409], [17.02980446156707, 51.146534989585696], [17.029816020413595, 51.14654946889483], [17.030043729766646, 51.14666909487464], [17.03025701215687, 51.146780887675924], [17.030147021681966, 51.14714287848731], [17.030115562340974, 51.147151840987675], [17.029879616683125, 51.14793144352027], [17.029738400904414, 51.1479501212555], [17.029697716979417, 51.148076564640135], [17.029769228948094, 51.14812056884991], [17.029615560765745, 51.14860962490534], [17.029491490982807, 51.14878040545602], [17.02925607380976, 51.14880224737335], [17.02875609484163, 51.14884869930435], [17.028599505398947, 51.14913791704744], [17.028524505010925, 51.14927637282328], [17.028483314258484, 51.149369558888054], [17.027601862278562, 51.14920114863639], [17.027284631624678, 51.14985787385221], [17.02742580124633, 51.149877755241256], [17.027540468036054, 51.149922964661585], [17.028258219402176, 51.15020638623735], [17.02834801033074, 51.15019000694027], [17.028632077183243, 51.150138096007545], [17.0288100461042, 51.14973546272367], [17.028713607858023, 51.14971857945061], [17.02879397908098, 51.14953671225043], [17.028890416979234, 51.14955359545587], [17.028903759066825, 51.14952331226552], [17.02892993041144, 51.14951578048674], [17.02899037265496, 51.14944031984834], [17.02916328239043, 51.14921789523664], [17.029050259275696, 51.149590206811624], [17.028916193408115, 51.15029354875328], [17.028897862666437, 51.15038989132199], [17.029246744178966, 51.15037640833124], [17.029230078440097, 51.150429654975405], [17.02923007873812, 51.15042965496863], [17.029291909542426, 51.15042824884977], [17.0294202650853, 51.15042611642632], [17.029488143262217, 51.15042498782367], [17.029652525298122, 51.15042225692868], [17.02965252611986, 51.15042225691503], [17.029934765286644, 51.15041756549831], [17.030010324452405, 51.15041630971669], [17.030262002438963, 51.15041212637899], [17.030400232290674, 51.15040982843172], [17.030585030132382, 51.150406755735055], [17.030642014399646, 51.15040580855696], [17.030752102392054, 51.15040397814933], [17.030861425424302, 51.15040216017795], [17.031139111806482, 51.15039754229985], [17.031244833080326, 51.15039578403126], [17.031738352869105, 51.15038757549197], [17.031808770312708, 51.150386403636226], [17.03234099815765, 51.150377547477774], [17.032402114546574, 51.15037653114631], [17.03285398467971, 51.15036900984237], [17.032980681351052, 51.1503669011475], [17.033194269831974, 51.150363344986395], [17.0331942702193, 51.150363344979944], [17.033238644109854, 51.15027287421397], [17.030825033993644, 51.15031437959351], [17.030739786605476, 51.15027287821867], [17.036713461430875, 51.150156648984684], [17.034765422893777, 51.14978622662102], [17.03514072667055, 51.149525279685605], [17.035292099158013, 51.14941787958774], [17.03561003116288, 51.149622948038456], [17.03583910495389, 51.14971488576346], [17.036671015528697, 51.149209753926726], [17.036024068069622, 51.14882046740983], [17.035721431600308, 51.14871284794438], [17.03548064382457, 51.14861812545882], [17.03461589116418, 51.14821259736736], [17.034483532518045, 51.14831030092436], [17.03446318362216, 51.14834094042669], [17.034457032908158, 51.14834596879585], [17.03432967846714, 51.14827576909618], [17.03431981031144, 51.14828223207641], [17.03417576384184, 51.14819485003748], [17.033889241581054, 51.148028449766066], [17.033882554325718, 51.14801262670408], [17.03380556854747, 51.14798965151192], [17.03377415285683, 51.1479712059504], [17.033566729383708, 51.147851952700876], [17.03345798927115, 51.14792324992322], [17.033131577992446, 51.147932094755404], [17.032747170397347, 51.14776508920166], [17.03222636424487, 51.14755887372609], [17.032811744888836, 51.147049814214164], [17.03341001049615, 51.14733068796812], [17.033428879031835, 51.14732782338279], [17.033760180963462, 51.1470565027032], [17.033769082623074, 51.14702855553734], [17.033703961634178, 51.14700486921926], [17.033771647837064, 51.14695430433095], [17.033768640370834, 51.14695322769783], [17.033827104950536, 51.146866529152064], [17.033899637121696, 51.14690010229561], [17.033936264310256, 51.14687289653901], [17.033970587592766, 51.146854041095864], [17.033997140324168, 51.14687194302578], [17.034004870451554, 51.146866559149515], [17.034211920636604, 51.146957662009356], [17.034224935699815, 51.14694832136932], [17.033229358101487, 51.146384500610296], [17.031228249492514, 51.14525311004578], [17.031258768682626, 51.14516610036802], [17.031288441277738, 51.145081295121614], [17.03162393906307, 51.14525672850669], [17.031834242024658, 51.14535710391963], [17.032061974635376, 51.14475679962836], [17.032054681951017, 51.14475562455832], [17.031785834521713, 51.144710311897185], [17.031774835154437, 51.1447107512292], [17.03172268659943, 51.144701815306526], [17.031713118594613, 51.14470009997864], [17.03148583718326, 51.1446640754372], [17.03145098104854, 51.14465857279827], [17.031491250711177, 51.14451944992547], [17.03150289253657, 51.144477384898394], [17.031557133411248, 51.14428047539196], [17.031607326174896, 51.144100109242075], [17.031606352182553, 51.14408860342199], [17.03163178565228, 51.14400484173478], [17.0318770955343, 51.14403422805772], [17.031857089836766, 51.14410926982319], [17.032739091176904, 51.14424066054029], [17.0325744020464, 51.14467112492877], [17.032514320350284, 51.14471351752987], [17.032695456434414, 51.14474402534461], [17.033095955324736, 51.143719721855405], [17.032891384693002, 51.14360992098544], [17.03324020376815, 51.143350639825776], [17.03325363076007, 51.143357798693856], [17.0336957300803, 51.14360604243824], [17.03398538327616, 51.143764890978346], [17.03432083357403, 51.14396591877489], [17.03461202866808, 51.144143548845975], [17.035061126309994, 51.14440847595661], [17.035355766868616, 51.14424694438753], [17.03547686583814, 51.1440867858103], [17.03509994416504, 51.14388401683322], [17.034872373639917, 51.144051054536654], [17.03376061607283, 51.14343678211131], [17.033067778714873, 51.14306077268071], [17.033238827396335, 51.14281724582646], [17.033666599455547, 51.14293077832114], [17.034132852884706, 51.14223524431664], [17.03372380141399, 51.142126767526015], [17.0333628892501, 51.14203098501614], [17.032962981395126, 51.141924846513014], [17.033177240903974, 51.14161702344781], [17.033196445221556, 51.14158908056319], [17.033390796050263, 51.141307207448826], [17.03299101859588, 51.14122453307046], [17.032928021161794, 51.14121110303998], [17.03293498738625, 51.14114512268569], [17.03293784837036, 51.141145667741974], [17.032954269783374, 51.140984861848516], [17.032957017732677, 51.140957987541555], [17.032959203298173, 51.14093614278754], [17.032962396891815, 51.140905038040515], [17.032943688122124, 51.14073487110668], [17.032943257535347, 51.14073154137615], [17.032941583419476, 51.140705655323615], [17.032990355607858, 51.140508016626306], [17.03308878230182, 51.14051985171648], [17.033124295290072, 51.14047735458308], [17.033150782036913, 51.14044555241962], [17.03320388607539, 51.14038185026748], [17.032783774399487, 51.14024415220668], [17.032722406582664, 51.14028546452424], [17.032787974209256, 51.14012181982537], [17.032819538969942, 51.140132176240385], [17.0328765080785, 51.14015090532784], [17.033190684305477, 51.14025312621994], [17.033506630652756, 51.139882631178374], [17.033470839493972, 51.139840632411165], [17.03309785358165, 51.13971077732391], [17.03305387459244, 51.139695463933556], [17.03296561816684, 51.139664762717935], [17.03309611657305, 51.13946079673888], [17.033169012607132, 51.13936007702721], [17.033265083618012, 51.13924238759298], [17.033573908338926, 51.13894227636866], [17.03370467932903, 51.13883180432707], [17.033848875273303, 51.13872439165004], [17.03427906280097, 51.13846084414675], [17.035533029760796, 51.13776687972353], [17.035575433902043, 51.137786404338975], [17.035906035273314, 51.13752627271013], [17.03617676553864, 51.13727347673528], [17.036222904385987, 51.13728519291989], [17.036310156348268, 51.1373139236751], [17.036391850853317, 51.13723621604096], [17.03645724809554, 51.13717396213683], [17.03637601247626, 51.13713903325393], [17.036538686356558, 51.13698496938035], [17.03674787241744, 51.137346476365614], [17.037187403190547, 51.13812098522666], [17.037711689217527, 51.13905138699159], [17.03792681108737, 51.13942931966841], [17.038568582253763, 51.14058718681337], [17.038530341156942, 51.14064361508823], [17.038976196265423, 51.140624382947955], [17.038826591687965, 51.140522541418825], [17.038677298551804, 51.14042087305788], [17.03861517075685, 51.14030982567982], [17.038553043256847, 51.140198778268264], [17.038903288710152, 51.14009787155522], [17.038951168620983, 51.140182129423174], [17.039001614809173, 51.140267370248914], [17.039131215794384, 51.14035598526032], [17.039284689424044, 51.14044561428687], [17.03937498917102, 51.140454563563836], [17.039466712768903, 51.14046307498266], [17.039475349547146, 51.140426315336924], [17.03981353392029, 51.14046041222987], [17.039811235641494, 51.1404692535423], [17.040145434236642, 51.14054594220372], [17.040131844756203, 51.14059975761802], [17.040357308840598, 51.140623542568434], [17.04067177816124, 51.14065672320936], [17.04065840495117, 51.1407145158151], [17.040396842939117, 51.14092369857133], [17.04028681312202, 51.14101163139891], [17.04034794640565, 51.141032350745], [17.040445475079455, 51.14093255684026], [17.040811729088073, 51.14101565893465], [17.040796529779065, 51.141048247239134], [17.040925786185245, 51.14104891631644], [17.040866081851153, 51.14110843732369], [17.041252697763777, 51.141219330187475], [17.041358815856107, 51.14124222467939], [17.041499776799117, 51.14128500205634], [17.041405404455237, 51.14141600777267], [17.04137633273496, 51.14145625884205], [17.04121111193167, 51.14140285445404], [17.041135940520537, 51.141494759587886], [17.041896607780874, 51.14180551764669], [17.041962744896082, 51.141730950964885], [17.04198363920215, 51.14170740744186], [17.04203317962475, 51.141641370785166], [17.042162913771072, 51.141469220919106], [17.042254719901436, 51.141337132805816], [17.042277918999243, 51.14130371050677], [17.04240879140986, 51.141117896437464], [17.04243314615464, 51.14107557483278], [17.042484113917947, 51.14082167511169], [17.042526782901568, 51.14075752374656], [17.042559823408723, 51.140742260131574], [17.042579708500387, 51.14071772836727], [17.04261997782184, 51.14054436012058], [17.042658531050115, 51.14037449275943], [17.04266887155699, 51.14033054612571], [17.042675489089895, 51.14030492586993], [17.04271142393438, 51.140153852378575], [17.04272119676259, 51.1401138565359], [17.042760153550795, 51.13995415073274], [17.04282986872865, 51.1396621443352], [17.04283606633113, 51.139631944901836], [17.04289987949114, 51.13947880713651], [17.042915938671943, 51.13944438236111], [17.042968975740642, 51.13933276044751], [17.043095050783162, 51.13911178376985], [17.04320005507184, 51.13893259823906], [17.043216820449516, 51.138903393192514], [17.04322064147747, 51.13889620576638], [17.04326195570473, 51.13881864846449], [17.043280001778566, 51.13878486017623], [17.043298375865998, 51.13872967022074], [17.043322251429814, 51.13862954107447], [17.04334596787083, 51.13852950051681], [17.04364947396644, 51.13851314046356], [17.043597920829104, 51.13859041640107], [17.043528303212064, 51.13870652368565], [17.043442809775286, 51.13884266485584], [17.043365258312075, 51.138969944206615], [17.043343975470925, 51.13900477579861], [17.04327321756666, 51.13911791600612], [17.043228814391398, 51.139189353058995], [17.043205177935555, 51.13922673640914], [17.043186981646404, 51.13925602863235], [17.04311836055092, 51.1393742923437], [17.043061909964155, 51.13947547638409], [17.043022198224225, 51.13956256675602], [17.042993510938228, 51.13963203772455], [17.04297846015219, 51.139674363669414], [17.04296927087008, 51.1397020484973], [17.042939237013478, 51.13982212013247], [17.042909347150392, 51.1399428222115], [17.04288203144941, 51.140054438837346], [17.04285643141175, 51.14016669877113], [17.04284837893655, 51.14020228579893], [17.042840330562754, 51.14023698288476], [17.042806539419033, 51.14038806496781], [17.042763383649298, 51.14058219371241], [17.042730309779962, 51.14072689898994], [17.042703908054097, 51.14089308118824], [17.042661741426997, 51.14100065670476], [17.042651443253185, 51.141012151068324], [17.042562124500094, 51.141112508438816], [17.042490239396884, 51.14121978666209], [17.04238469604811, 51.14137352640706], [17.042339583148944, 51.141439033119816], [17.0422921801201, 51.14150470984417], [17.042138104334896, 51.1417095625872], [17.042015824624453, 51.14186950261918], [17.041939986760756, 51.141928060218795], [17.041798036080678, 51.142086894968735], [17.041914589574386, 51.142075228362145], [17.04206455170097, 51.14214172153772], [17.04215348810203, 51.14228439638683], [17.042152461875183, 51.142285646532024], [17.040922741309203, 51.14378830969204], [17.041453904527962, 51.143775134363466], [17.041738000257208, 51.14376820305757], [17.042550648413826, 51.14377270996932], [17.042945744186156, 51.143310361287604], [17.04312118249113, 51.143331043583366], [17.043325776344748, 51.14335164946633], [17.043532366170982, 51.14337180385254], [17.043603952913678, 51.14337651550895], [17.043742970840594, 51.1433864800506], [17.04395429341665, 51.143401692126105], [17.044096596433906, 51.14340967841091], [17.04414788427565, 51.14341258771226], [17.044197612800293, 51.14341557414432], [17.044281065804704, 51.143418683317876], [17.04439736964315, 51.1434226991107], [17.044611411910825, 51.143430102243904], [17.044625706547368, 51.1434299313437], [17.044938199689778, 51.14343459612673], [17.04498808191859, 51.143434985472126], [17.045159547275713, 51.14343634050096], [17.045182123241215, 51.14343653379969], [17.04523528370795, 51.14343665314457], [17.04528530064938, 51.14343605460271], [17.04533102856837, 51.14343553789534], [17.04558309975653, 51.14343254299868], [17.045579824265648, 51.14352207104091], [17.045405203235525, 51.14352403501814], [17.045362333531962, 51.14352454811551], [17.0452367196728, 51.143526372464244], [17.04517670700276, 51.14352588254251], [17.045147842839548, 51.14352569184314], [17.044991091390166, 51.14352460976904], [17.0449339349886, 51.14352421496257], [17.044676728225593, 51.1435211973935], [17.04460470413393, 51.14352034836672], [17.04443595150449, 51.14351495137228], [17.044379082016263, 51.14351312029656], [17.04427135582203, 51.1435096420412], [17.044157755699104, 51.14350410200231], [17.043937009767852, 51.14349328111587], [17.043725114513286, 51.14347671588233], [17.04365367534539, 51.14347038737237], [17.043513380879318, 51.143459252622236], [17.04336965131996, 51.143445608466415], [17.043312777412996, 51.14344054056556], [17.043303778339798, 51.14343963990745], [17.04309618554927, 51.14341821836279], [17.042937442098076, 51.14359916642037], [17.04291911836517, 51.14362001627194], [17.04290737828451, 51.14363348556531], [17.04279115090514, 51.143766012544525], [17.042741027834783, 51.14383735761002], [17.042655445859957, 51.14383074193311], [17.042291066345072, 51.14382640132426], [17.04251089545305, 51.143882975069985], [17.0426537870754, 51.143884675177915], [17.043184574916985, 51.14392631671941], [17.043850228175327, 51.14399158651249], [17.04429143265479, 51.14403291313893], [17.044909554973657, 51.144058072269395], [17.04561356700894, 51.14408677874779], [17.046189147537866, 51.1440951958491], [17.046190930998915, 51.14404125459492], [17.046415139983594, 51.14404506955633], [17.046519882692305, 51.14404359518936], [17.046848407087026, 51.14403892844943], [17.04703417588518, 51.14403633397342], [17.047077042350995, 51.14403600002824], [17.04764805187229, 51.1440310950151], [17.048273982393145, 51.144007441268165], [17.04892428160992, 51.1440219006181], [17.048938999057334, 51.14402272148826], [17.049568705357554, 51.14405316417002], [17.050750794953778, 51.144127049085675], [17.051062005525655, 51.14414572888734], [17.05128569551667, 51.1436799477765], [17.051338429224067, 51.143571924572385], [17.05223002707387, 51.14364231426844], [17.052705396079382, 51.14368201614674], [17.052732346846, 51.14372751521539], [17.05274217792312, 51.14374433353697], [17.05289361999073, 51.1437751448793], [17.052865109110076, 51.143829606926836], [17.053024966096675, 51.143861960542196], [17.05311405749258, 51.143699924551065], [17.053277086003078, 51.14339420338717], [17.053302431040173, 51.14335124931181], [17.053328929500733, 51.14330919454058], [17.05335684653732, 51.14326695347314], [17.05339321142157, 51.14321483823803], [17.05341998271663, 51.14317969868237], [17.053452041661558, 51.143134776244416], [17.053535481374542, 51.14303791397606], [17.053573685238728, 51.14299928003765], [17.053617604627433, 51.14295579298479], [17.05369099950143, 51.142892362680065], [17.053801002607603, 51.14280261019528], [17.053889959385117, 51.142736402011344], [17.054030396947425, 51.1426440637694], [17.054136216070727, 51.14258415867281], [17.054332110451696, 51.14248716244152], [17.05444648607049, 51.1424357944851], [17.054503525529526, 51.14241317023628], [17.05467697965267, 51.14232677957624], [17.054802459356083, 51.14230895145318], [17.05528795448813, 51.14216005925547], [17.05555897569477, 51.14210203554772], [17.05610764936593, 51.14198446658371], [17.05610892256397, 51.14199210905851], [17.05652254693195, 51.14190189136126], [17.056683725363055, 51.142151763837454], [17.056844173510513, 51.14240038961763], [17.057047315053737, 51.142428538040754], [17.05731519881593, 51.14246417492598], [17.057590500932893, 51.14250116547913], [17.057855168263284, 51.14253689207244], [17.05802039398496, 51.14255818891055], [17.058188118033964, 51.14258172607212], [17.058502710158134, 51.14262277953295], [17.058705877824647, 51.14264903745592], [17.058782887654665, 51.142659051390275], [17.058801239889807, 51.14260269924433], [17.058753477004696, 51.14251009023171], [17.058543907725312, 51.14210377111616], [17.058666236065402, 51.142219697197106], [17.058567482077297, 51.14211456864617], [17.058510844183395, 51.14203678390627], [17.058462785417007, 51.1419566679709], [17.058423582545824, 51.14187466357082], [17.058397333666502, 51.141842206431456], [17.05872490004744, 51.141788244460386], [17.05869296441367, 51.14171919876047], [17.058684984091975, 51.14170193736284], [17.059004006150477, 51.141630268182915], [17.058991790004608, 51.14160378728092], [17.05907569657125, 51.141596122224676], [17.059219882721266, 51.141527446452855], [17.059142349341435, 51.141361206738424], [17.05910756865738, 51.14128658266681], [17.059201612936405, 51.14126343577015], [17.059326869153104, 51.14143707120716], [17.05955240143268, 51.14164805573056], [17.059717601371943, 51.141770702557274], [17.059720384893755, 51.14176873917226], [17.05984472425131, 51.14155316987119], [17.05982388337265, 51.141392350237304], [17.05966904989178, 51.141149963790674], [17.059649291497756, 51.14115478900371], [17.059796215474847, 51.14111890847841], [17.059909096958172, 51.14136013574714], [17.06021054950913, 51.14128224506576], [17.060254005710945, 51.141271033580566], [17.060322040747334, 51.14124859373734], [17.06042239082673, 51.141215374197834], [17.06044640185138, 51.14120747642209], [17.060318183880646, 51.14100076350925], [17.060299767490243, 51.140987904198404], [17.060365804083037, 51.14097166909927], [17.060391958245646, 51.140964489744405], [17.060379413319446, 51.14093553223518], [17.060432439021756, 51.14092243782538], [17.06038877223641, 51.141004575892396], [17.060518291356395, 51.141189445380896], [17.060797160773784, 51.14111729595019], [17.060805428762396, 51.141131682830974], [17.060831805422666, 51.14117762490548], [17.060848352087984, 51.141206578539595], [17.061123382282002, 51.14122081484243], [17.06123383147898, 51.14122651988265], [17.061479248741904, 51.14115776808234], [17.061525411568404, 51.14114484284619], [17.061622619805583, 51.14109455272497], [17.062080105996117, 51.140867773198245], [17.062005874059306, 51.1408040077219], [17.061853412891086, 51.14067278577929], [17.061610609139407, 51.140438698584425], [17.061558357913235, 51.140351619264095], [17.06126581405703, 51.14041624429813], [17.061290252207673, 51.1404584220379], [17.061235278158456, 51.14047038648201], [17.061240607954804, 51.14048238547569], [17.061081632970478, 51.140513921484775], [17.060896645102492, 51.14055201760102], [17.060856713319435, 51.140478314574935], [17.060802549653456, 51.140489772914215], [17.06073238671304, 51.140507988798106], [17.06072481470378, 51.14049522563388], [17.060652369257543, 51.140386507485076], [17.060450102057814, 51.14043811037556], [17.0604383936063, 51.14044116268743], [17.06032151177477, 51.14047196910152], [17.060086904497243, 51.13996712678759], [17.059920737501788, 51.14001243145161], [17.05984243504535, 51.13987279529803], [17.059891035429537, 51.13985942284036], [17.059885330248296, 51.13985115146395], [17.059836816138493, 51.13978218854173], [17.05975963345382, 51.139672577720866], [17.05975084626362, 51.1396056961035], [17.059728156640876, 51.13957953364035], [17.059596014136886, 51.13942639350632], [17.05954421203638, 51.13936668132173], [17.059825226050524, 51.13927009065839], [17.059948525106485, 51.13940767031197], [17.059953677278756, 51.13940587783838], [17.060074881120944, 51.13936449282092], [17.060355180515618, 51.13927418788915], [17.060363178548137, 51.13927158222604], [17.06043579211574, 51.13924941283318], [17.06039712030787, 51.13920031539548], [17.060325205608457, 51.139109229953334], [17.06042240662909, 51.13907745042408], [17.060698977214937, 51.13898769005084], [17.060710273988363, 51.13898166782693], [17.060702560566323, 51.13897447709605], [17.06067016404728, 51.138945692786045], [17.060649601859886, 51.138931575719674], [17.060601037739247, 51.13890872054803], [17.060548339626713, 51.13888748624193], [17.06086041403435, 51.13887683180698], [17.06085401302883, 51.13884087579879], [17.060875521935944, 51.1387780491439], [17.060863241318305, 51.138770588018396], [17.060843826569123, 51.13875485307547], [17.060837258017756, 51.13873983258361], [17.06083157102317, 51.138722212175935], [17.060548977715936, 51.13869341410264], [17.060577273544546, 51.13868273696273], [17.060598862416057, 51.1386723115915], [17.060604509923703, 51.138667934052606], [17.060614586014445, 51.13866009511595], [17.06062718104793, 51.138649948094894], [17.06063346899822, 51.13864006505133], [17.06063577876541, 51.138626940754385], [17.060619216087787, 51.13834746374066], [17.060606485562214, 51.138226289050685], [17.060600098818494, 51.13819105230942], [17.06056414472987, 51.13801512396858], [17.06055434587715, 51.13796072986573], [17.060533171817745, 51.13786202435667], [17.060348697770408, 51.137878126077666], [17.060131930317915, 51.13789700648896], [17.059947886436966, 51.13791302113893], [17.05985255283193, 51.13781356656554], [17.05983257869823, 51.13779234327385], [17.06012745796266, 51.137678836972846], [17.06010906876851, 51.137643593639496], [17.06005872900035, 51.13755485688036], [17.05999985188332, 51.137445348340556], [17.059954511015682, 51.13736307930297], [17.059911172975557, 51.137279999298755], [17.059861550402484, 51.13718694419561], [17.05981364756651, 51.13709927869905], [17.059834379346427, 51.13709092318424], [17.059810710273734, 51.137049020979674], [17.05978960949266, 51.13701152636147], [17.059747833071818, 51.13693249519272], [17.059729249016886, 51.13693923184522], [17.05968447980727, 51.13685911581325], [17.05964170696213, 51.136780615970586], [17.059598074188845, 51.13670014046497], [17.059554159946007, 51.13661805353249], [17.059510096191534, 51.13653559680435], [17.05946632694969, 51.13645342110543], [17.059418271457265, 51.13636701275396], [17.059375214365982, 51.13628285603454], [17.0593926462927, 51.13627584947228], [17.059389229024607, 51.13626892693322], [17.059338748709894, 51.1361774019165], [17.05930451862614, 51.1361131203448], [17.059292829912536, 51.13609064211866], [17.059259329921854, 51.13602770586162], [17.059233658566928, 51.13598032172152], [17.05951119336326, 51.13587676382329], [17.059502219556517, 51.13586905046217], [17.05933021809051, 51.13572246642945], [17.059283832681995, 51.13568119045564], [17.05916007146364, 51.13557606786208], [17.059109681139937, 51.13553289874255], [17.058934524354004, 51.13539404678875], [17.058801623205156, 51.13529017173674], [17.058757373843914, 51.13525491782073], [17.05858236586293, 51.135115877742145], [17.05875432455037, 51.135035950522024], [17.058926282462796, 51.13495603203301], [17.058740140940095, 51.13480943219753], [17.058555998321914, 51.13466436739992], [17.058740140940095, 51.13480943219752], [17.058822665854397, 51.134771284977234], [17.05887185943641, 51.13451051472445], [17.058846744361116, 51.134517892988114], [17.059225977361155, 51.13432705563059], [17.05942539185166, 51.13422754409869], [17.059641778110173, 51.13440596667115], [17.05984247726527, 51.13431211924643], [17.059655792805252, 51.13414439981497], [17.059632523066494, 51.13412371632014], [17.059412016297788, 51.133929456783044], [17.0591389009862, 51.1337598816678], [17.059020271641245, 51.13368513122623], [17.058903913995227, 51.1336118103173], [17.058716178656525, 51.1334946746176], [17.058696768995457, 51.1334823464127], [17.05852986588743, 51.13337789167025], [17.05833771630908, 51.133259407328495], [17.05814727457916, 51.13313849123641], [17.05795968724983, 51.13302269495151], [17.05778908984175, 51.13291598893304], [17.057667312869306, 51.13284096002649], [17.056997643500914, 51.13242143597896], [17.056916008114477, 51.13246750587491], [17.05683864367097, 51.132416135403574], [17.056686048391498, 51.132315290351215], [17.056788710178047, 51.13225052991819], [17.05671917348529, 51.13220698955383], [17.05675450166519, 51.13218129441727], [17.05692718973308, 51.13208341443141], [17.05687052639305, 51.13204828440257], [17.05644406926701, 51.131781249922064], [17.05623515578813, 51.13165456090412], [17.056166253138162, 51.13169588440225], [17.055254564192975, 51.13224261347201], [17.053163734137332, 51.13322871446931], [17.053061196523107, 51.13327063273381], [17.05293656948429, 51.13331834924438], [17.05247326086721, 51.13349117106174], [17.052205784857634, 51.1335755343983], [17.051919125765078, 51.13365482157679], [17.051578404530574, 51.13373874429262], [17.051132175348727, 51.13383933983517], [17.050729467771966, 51.13391943186462], [17.05026039670283, 51.13400226840775], [17.049714488885748, 51.134098546649895], [17.049385799318507, 51.13414977999847], [17.04887052070014, 51.13420529698519], [17.04869010857481, 51.13422184663034], [17.04818385624047, 51.13425662477628], [17.0478628563742, 51.13426834219624], [17.047535892680024, 51.13427275461749], [17.046841311655523, 51.134281321799946], [17.04657909300144, 51.13427598494391], [17.045942423386037, 51.13426043309744], [17.045103927061447, 51.134208562327956], [17.044798708338988, 51.134188828533006], [17.04450315658633, 51.13416393734894], [17.044088620725308, 51.13413429727193], [17.043774489909364, 51.13408634045259], [17.0434948148604, 51.1340483158933], [17.04303279722134, 51.133976623858636], [17.042669453349067, 51.13392242796429], [17.042342321040834, 51.13386214211957], [17.041776622583722, 51.13374480779019], [17.04155770399839, 51.133691887892006], [17.041248353504486, 51.13361966170936], [17.04097735401428, 51.13354518535635], [17.040594474470836, 51.13344884739234], [17.038793901052713, 51.132996039295506], [17.03665719827777, 51.13250391627924], [17.032716556972947, 51.13159618248881], [17.028643870426116, 51.131420611731876], [17.020680236623143, 51.13178905231502], [17.018507246273522, 51.13138422540665], [17.01411320067248, 51.13172619740933], [17.011888667290147, 51.131635837958164], [17.006370445867702, 51.13141150011221], [17.006008026015174, 51.13152428297229], [17.005617396216596, 51.131649163905685], [17.005737495544977, 51.13165854544666], [17.00593288408964, 51.13166820728061], [17.006218406717334, 51.13168546692238], [17.006532462758198, 51.13170467630407], [17.007178678973105, 51.13174504416842], [17.00781187363617, 51.131779724381545], [17.008598818243005, 51.13182037930586], [17.009172709371974, 51.13185562814555], [17.010242309230666, 51.13190756624994], [17.010803216146787, 51.13193541555181], [17.011361559328964, 51.13195622854155]], [[17.05907954383751, 51.14129367476833], [17.058872732105797, 51.14134570583821], [17.05907954383751, 51.14129367476832], [17.059142349341435, 51.141361206738424], [17.05907954383751, 51.14129367476833]], [[17.033518980769163, 51.13836389573437], [17.03351898076916, 51.13836389573438], [17.033428122261107, 51.13830976426065], [17.033518980769163, 51.13836389573437]], [[17.040225281516477, 51.140218329663945], [17.04021809174592, 51.14024736115455], [17.040225281516477, 51.14021832966394], [17.04024580168131, 51.140134660498184], [17.040225281516477, 51.140218329663945]], [[17.041015210192153, 51.14095976689297], [17.041064205804137, 51.14096626360804], [17.041124794185038, 51.1406980778832], [17.04112479418504, 51.1406980778832], [17.041064205804137, 51.14096626360805], [17.041015210192153, 51.140959766892976], [17.04101520565914, 51.14095977141207], [17.041015210192153, 51.14095976689297]], [[17.040833445650552, 51.140969000992406], [17.040822587369316, 51.140992329963524], [17.040833445650552, 51.1409690009924], [17.040900796230638, 51.140677983202885], [17.04090079623064, 51.140677983202885], [17.040833445650552, 51.140969000992406]], [[17.059701644873076, 51.140639746835845], [17.059885667105014, 51.1405915674647], [17.060263733296622, 51.14048719771062], [17.059885667105014, 51.14059156746471], [17.059701644873076, 51.140639746835845]], [[17.05955524211003, 51.14067839376647], [17.05949498215154, 51.14069436073569], [17.059555242110033, 51.14067839376646], [17.059701644873076, 51.140639746835845], [17.05955524211003, 51.14067839376647]], [[17.059449787088436, 51.14070617772813], [17.05943685946549, 51.14070944487692], [17.059378586953986, 51.14062210488], [17.05943685946549, 51.14070944487691], [17.059449787088436, 51.14070617772813]], [[17.05902402131711, 51.14009265338026], [17.059024021317107, 51.14009265338025], [17.059149799978815, 51.140057382985106], [17.05902402131711, 51.14009265338026]], [[17.059272596897973, 51.14046357076545], [17.05923699983915, 51.14041046029592], [17.059120454702544, 51.140236562187276], [17.059236999839154, 51.14041046029592], [17.059272596897973, 51.14046357076545]], [[17.059657979389115, 51.14146678854485], [17.059744245555855, 51.14145282413156], [17.059773574978667, 51.14142020281137], [17.05974424555586, 51.14145282413157], [17.059657979389115, 51.14146678854485]], [[17.059649281521818, 51.141154791439945], [17.05964928152182, 51.141154791439945], [17.059773574978667, 51.14142020281137], [17.059649281521818, 51.141154791439945]]], [[[17.031462089974085, 51.13896529586694], [17.03153654279998, 51.13887294143629], [17.03150118683216, 51.13882392473675], [17.031514055710918, 51.138819437592616], [17.031587226682827, 51.13880609156033], [17.031671559885915, 51.1387905994792], [17.03164005703858, 51.138744554340214], [17.031402294227462, 51.13839615117078], [17.031101191314523, 51.138775375698046], [17.031462089974085, 51.13896529586694]]], [[[17.05797125870439, 51.14701711660385], [17.057455059882972, 51.14726234806108], [17.05737497721264, 51.14719444229536], [17.057078688685177, 51.14733380244591], [17.05639702991233, 51.146632319132536], [17.056631599407112, 51.14646999782708], [17.056395737695315, 51.14629198838487], [17.05630565896398, 51.146324747977594], [17.056271056757964, 51.14634162998199], [17.05596173012977, 51.14652261196447], [17.05570324212005, 51.146722306477024], [17.055495016613914, 51.14684292003696], [17.055297428744296, 51.14657404465213], [17.054855245592005, 51.14670982944603], [17.054120190165364, 51.14665937955596], [17.05408975858902, 51.1468742013091], [17.054049698995957, 51.14690070237166], [17.05399166104715, 51.146922248556585], [17.053821989533656, 51.14695064972747], [17.05343701700914, 51.146822003592554], [17.05342197804328, 51.14685012729299], [17.052425486135274, 51.14663585414996], [17.052381044305474, 51.146628554092835], [17.05207372281139, 51.146687094336286], [17.05188958758146, 51.14674129258194], [17.05164267524839, 51.1468201704754], [17.051363788016026, 51.146874768222126], [17.051333950087667, 51.14695403948201], [17.051453485495443, 51.14784040649124], [17.05170577081672, 51.14822283035071], [17.052106889432384, 51.14857459168992], [17.052476992518592, 51.14892246854989], [17.052875008207565, 51.14935098242944], [17.053230442883663, 51.14978693524741], [17.053678214727796, 51.15057805892296], [17.054543204523352, 51.150193277405414], [17.054569310881643, 51.15023490362188], [17.055538997340324, 51.14976542473011], [17.05594184759706, 51.14957066258721], [17.057354504609577, 51.14888901927704], [17.05882521265852, 51.148173962175434], [17.05797125870439, 51.14701711660385]]], [[[17.056683725363055, 51.14215176383746], [17.05652254693195, 51.14190189136126], [17.05610892256397, 51.14199210905852], [17.05616127346754, 51.142308634043665], [17.056844173510513, 51.14240038961763], [17.056683725363055, 51.14215176383746]]], [[[17.059219882721266, 51.14152744645285], [17.059273359750907, 51.141502040400034], [17.059142349341435, 51.141361206738424], [17.059219882721266, 51.14152744645285]]], [[[17.062385115183645, 51.132244570330116], [17.061936107215764, 51.13207101111728], [17.061931307303176, 51.13207967796455], [17.061905750395173, 51.13212106535832], [17.061861124601524, 51.132181577366644], [17.06179137650702, 51.13225162180775], [17.06172154195194, 51.13230417574856], [17.061646565129468, 51.132350505451726], [17.061606670790994, 51.1323687984605], [17.06160069400828, 51.1324171926967], [17.061588034387388, 51.13246080088409], [17.061590754178347, 51.13246986736748], [17.061606269456533, 51.132559931392954], [17.06159004788895, 51.13262361562839], [17.06158679680602, 51.13262895870076], [17.061483890023073, 51.13271027026582], [17.061648028432106, 51.1328042690882], [17.061650050151894, 51.13280542688336], [17.06165005184616, 51.13280542603365], [17.061650050151894, 51.132805426883365], [17.061393616242764, 51.1329335031597], [17.060669008230963, 51.133299658840414], [17.060295418901152, 51.13348839769362], [17.06029727062331, 51.133489383454226], [17.060238234554458, 51.13351884458908], [17.060235807755113, 51.13351803399924], [17.05977594686203, 51.13375514339009], [17.059747212577186, 51.133769961038], [17.060100011120486, 51.133972816554454], [17.06017809892153, 51.13390229107648], [17.060195733382855, 51.133845842979014], [17.060219471876785, 51.13382302924086], [17.060255795562753, 51.133802456162755], [17.0603326921397, 51.13376384323583], [17.060371074999576, 51.13374459016562], [17.060881876897128, 51.133488101313475], [17.061698187232825, 51.13307394724534], [17.06192032665901, 51.132960149455506], [17.06242820027675, 51.13270841286526], [17.062482588064803, 51.13275032710193], [17.062528409498295, 51.1327855832342], [17.062591351652266, 51.132834056515456], [17.06266715254362, 51.13289243153766], [17.06268745799118, 51.132876080306986], [17.062942039160145, 51.133022880687534], [17.06360600290516, 51.13269057483644], [17.063686371498576, 51.13275416380467], [17.063807610107432, 51.13266692802409], [17.06361966997126, 51.13259764144991], [17.063581536815974, 51.13257640822528], [17.063466062262574, 51.13247757732515], [17.063452505335324, 51.13246193465239], [17.063453813564127, 51.13243964182087], [17.063469550379168, 51.132427335166135], [17.063421308024672, 51.132383897416126], [17.063405466675064, 51.13236888369699], [17.063374477547328, 51.13235754228873], [17.063352055219706, 51.13234225111412], [17.063285554897323, 51.13227543783209], [17.06375854363457, 51.13203752979526], [17.06383543636866, 51.13199881565302], [17.063861453802403, 51.13198822735708], [17.063893454492888, 51.13198203793701], [17.063926321097203, 51.13198177961526], [17.063964732949298, 51.131992038604636], [17.063373484340634, 51.13179080013279], [17.063347325576125, 51.13194961745316], [17.063098399653214, 51.131870950798486], [17.063056496542792, 51.13205016528046], [17.062545902513314, 51.132307654142885], [17.062545902513307, 51.132307654142885], [17.062385115183645, 51.132244570330116]], [[17.062599026370634, 51.13232853324614], [17.06259902994365, 51.13232853144599], [17.06259902994366, 51.13232853144599], [17.062599026370634, 51.13232853324614]], [[17.06197727747878, 51.13220070256802], [17.061970442590653, 51.132191801934255], [17.06194145150223, 51.13216931103071], [17.06192975229766, 51.132163553711244], [17.06194145150223, 51.1321693110307], [17.061970442590653, 51.13219180193425], [17.061977277478782, 51.13220070256802], [17.06197727747878, 51.13220070256802]], [[17.06188328792756, 51.13219886090023], [17.061883287927554, 51.13219886090023], [17.06192975229766, 51.132163553711244], [17.06188328792756, 51.13219886090023]]], [[[17.059956464774885, 51.13420115942545], [17.059895073494378, 51.13428814416519], [17.059949675855655, 51.13426317834582], [17.060132429097443, 51.134373358957916], [17.060192886874667, 51.13434641741291], [17.059956464774885, 51.13420115942545]]], [[[17.068207640692307, 51.13749481313129], [17.06792226531457, 51.13767528938661], [17.067863922524406, 51.137708616430416], [17.067829917961713, 51.13770770713696], [17.067113604309277, 51.137483871043614], [17.06708575232746, 51.137473346752486], [17.066781249366628, 51.13736131573033], [17.066698978462274, 51.13732981577988], [17.066617568721398, 51.13729742368044], [17.066454614179847, 51.137231559475644], [17.0664925182553, 51.13718717455257], [17.066479956596297, 51.13718087143604], [17.06636625517808, 51.13714486826531], [17.06586263245048, 51.136984220285704], [17.06578793705797, 51.13694913040469], [17.06566854109797, 51.13690081020864], [17.065667532451524, 51.13690193484471], [17.065098124869625, 51.13667423465692], [17.06491160722476, 51.13660224675725], [17.064712240704768, 51.136514882407866], [17.064601415466573, 51.136465389084506], [17.064495453909768, 51.13641563790229], [17.064284778696297, 51.136641803859455], [17.064545395833967, 51.136766947892966], [17.064670356393417, 51.136829031931285], [17.064763909190876, 51.1368628619572], [17.06493529830477, 51.13692127164373], [17.065106257488726, 51.136979057355546], [17.065194385821012, 51.13700911297264], [17.06541705345273, 51.13708552453086], [17.06544076137257, 51.137094613723406], [17.06544689263409, 51.13709667639674], [17.065484321984993, 51.137109821677214], [17.06575668584622, 51.13721042524488], [17.065963641074315, 51.13728664731076], [17.066171729461313, 51.1373626892731], [17.066379402184996, 51.13743953661128], [17.066585918814873, 51.13751422582792], [17.0666969015308, 51.13755471988086], [17.06678903502885, 51.13757687739128], [17.06698842045892, 51.13764670852366], [17.06677057328505, 51.13790290099556], [17.067061094819913, 51.13799982578541], [17.067280333402174, 51.138090077412556], [17.06733491258701, 51.13808614371793], [17.067310178712873, 51.13810239749931], [17.067158776357072, 51.138201945792815], [17.06713404235914, 51.138218199536], [17.067129077699185, 51.13818943805513], [17.067044917159414, 51.13815377007363], [17.06698168131982, 51.13812707880646], [17.066772578916737, 51.13805361024208], [17.066603773994284, 51.13816930817202], [17.066509162801292, 51.138233817787814], [17.066294861917985, 51.13838052594732], [17.06622393172446, 51.13831945940827], [17.066150627296516, 51.1382556769768], [17.066066212300235, 51.138183076839184], [17.065985732313017, 51.13811376231291], [17.065956656701815, 51.138088808607975], [17.066218207358332, 51.137916138697626], [17.06607520933076, 51.137892972265426], [17.066005647991357, 51.13788450588214], [17.065905465605955, 51.137871030385234], [17.065861552124947, 51.137866184823444], [17.06580808264454, 51.13786045384684], [17.06571609846242, 51.13795761618504], [17.065930280468727, 51.13810711659806], [17.0659196870662, 51.13811514963088], [17.065884661859116, 51.13813293905066], [17.06579917657439, 51.13817641332231], [17.065663091462447, 51.13824044712711], [17.06559319526101, 51.13827332115491], [17.065583051930393, 51.13827816643288], [17.065571179255144, 51.13828373504289], [17.065524581772127, 51.13830564803283], [17.065342053409655, 51.138391694554755], [17.06518067495388, 51.13846561202832], [17.06510934190217, 51.13849884285766], [17.064880209133218, 51.13860562376923], [17.064532437191573, 51.138767829335826], [17.064318302723194, 51.13886769922017], [17.063961655203975, 51.13903403024324], [17.063872894599104, 51.139076065523085], [17.063536973372525, 51.13923134208757], [17.06353896229056, 51.13923403692416], [17.06353268138133, 51.13923582950696], [17.063073870425118, 51.139384493168045], [17.062858912235146, 51.13945487677658], [17.06284676282334, 51.139458555069936], [17.06255663965004, 51.13951550759189], [17.06237485485716, 51.13955093482222], [17.06228624297033, 51.13957633926942], [17.06224422114937, 51.13958809339671], [17.062129354622986, 51.13962003842339], [17.062044838946854, 51.13964356074407], [17.062027006812116, 51.139621617867284], [17.061944261355563, 51.13963605680243], [17.061507278191016, 51.13972049665239], [17.06149892780206, 51.139722155654454], [17.061430610708694, 51.13974243640436], [17.061414169270847, 51.13974917253943], [17.061494908655675, 51.139881608509604], [17.061604182700947, 51.14004731927006], [17.061724318450214, 51.14021159781299], [17.061852458653018, 51.140373000823296], [17.061895697562857, 51.14042039040744], [17.062068770302755, 51.14051818334217], [17.06190411827637, 51.14055909607569], [17.06194563611004, 51.140623021749015], [17.062040541690067, 51.14059178881291], [17.062144595980126, 51.14055758167801], [17.062341714451467, 51.14048989707729], [17.06253697375636, 51.14042013861683], [17.062730232636632, 51.14034822426715], [17.062873375803104, 51.140504963891885], [17.062937691446432, 51.140486834720754], [17.063134936211277, 51.14042625160803], [17.063286574544076, 51.14039844767626], [17.063376893657633, 51.14038123670967], [17.06340662809942, 51.140375047245236], [17.063465224631102, 51.14035987452206], [17.06355239992567, 51.14033771192674], [17.063637446407874, 51.14031411186088], [17.063799555034915, 51.14051256125456], [17.06382765654264, 51.14054754011695], [17.06395342213642, 51.1405257580328], [17.063957982844148, 51.14053483810431], [17.063978945740818, 51.1405772751284], [17.064235058185282, 51.140520568354546], [17.06435327656699, 51.140732851425376], [17.064391216722562, 51.140800738993335], [17.06464075758521, 51.14074043684504], [17.06679569341118, 51.14021984668264], [17.06817475184474, 51.13988661142657], [17.068025041821762, 51.13969752624549], [17.067759528255554, 51.139411931094436], [17.06783200428458, 51.139384362243355], [17.06784672055813, 51.13937879808985], [17.06753081711783, 51.139042485790256], [17.067444338771168, 51.13907282847722], [17.06737225298258, 51.1389952304898], [17.067334662382393, 51.13900842416117], [17.06714165431648, 51.13881328409017], [17.067404701082943, 51.13866067036324], [17.067612701757348, 51.138540024840076], [17.067621478745128, 51.1385448323495], [17.068140143151165, 51.138828966215094], [17.06836798392216, 51.13874913754329], [17.067520683018774, 51.1382219481492], [17.067516558018234, 51.13819192584186], [17.06774210691222, 51.13810517607444], [17.067836263890268, 51.138108533579675], [17.06816513943274, 51.13801535187838], [17.06910295481002, 51.13830803437984], [17.069469497096843, 51.13844866351604], [17.070199574331532, 51.13869287510173], [17.07028756711194, 51.13872787007317], [17.070333564103578, 51.13874928044195], [17.07061399655651, 51.13887960253237], [17.07177354085145, 51.1394185971376], [17.071920102066002, 51.13947680844657], [17.072781003643748, 51.139126128347264], [17.073142163813905, 51.139024037180896], [17.07317290225252, 51.13901469783457], [17.07315419492174, 51.138994107164606], [17.071939702902938, 51.13861755535238], [17.07138759767656, 51.13844722432269], [17.069054470227176, 51.13772758338195], [17.069123424642704, 51.13763124197129], [17.069043325367108, 51.137569816492146], [17.06891694305628, 51.137481413178755], [17.068639683609753, 51.13737656187487], [17.068574732376145, 51.13735204228572], [17.068663173817725, 51.137267255192434], [17.069004205743624, 51.13737564362961], [17.069061864166663, 51.137293865432135], [17.069121805385937, 51.13721153902866], [17.069169162049032, 51.13714746926622], [17.069233019543983, 51.137170955003086], [17.06926148121451, 51.137134827432284], [17.069527167735036, 51.13722112947329], [17.069642767894685, 51.13705828497049], [17.06949435010836, 51.13701760374947], [17.069501367697207, 51.13701041393822], [17.06980327311977, 51.136707950116985], [17.069936483949284, 51.13664849134118], [17.069785602657305, 51.13651998013856], [17.069751310699285, 51.13649075176496], [17.069755744208752, 51.13648842275573], [17.069643652081236, 51.13641709731433], [17.06944547734527, 51.13610016423005], [17.069268064409865, 51.135875737561584], [17.069053030072137, 51.1356932804148], [17.068837010388247, 51.13550803721911], [17.06870549038502, 51.1355993135487], [17.067727721656404, 51.13627805291023], [17.06799919438294, 51.136432141489934], [17.068702337455335, 51.136833457597746], [17.068791619390836, 51.13688440260727], [17.068610693674348, 51.13707957417875], [17.068594459374385, 51.13701646350749], [17.068588978122918, 51.137013336409716], [17.068273224083406, 51.137352337520554], [17.06835179133648, 51.1373464009874], [17.068207640692307, 51.13749481313129]]]]}}]}