{"type": "FeatureCollection", "features": [{"type": "Feature", "properties": {"district": 4, "variant": "wariant-spojny-propozycja", "crs": "EPSG:4326"}, "geometry": {"type": "MultiPolygon", "coordinates": [[[[17.009185372869002, 51.144185692340514], [17.00907544942737, 51.14406595374405], [17.00892207238912, 51.1438725451563], [17.008867195160907, 51.14380175402405], [17.008813037686146, 51.14373006100902], [17.008675090763138, 51.14355430369165], [17.00847696920245, 51.143322318166874], [17.008207033200154, 51.143055841294576], [17.007808304259328, 51.142678327687825], [17.007504714318838, 51.142380171737955], [17.007238649861247, 51.142113599554726], [17.007171629405924, 51.14204683975893], [17.00702933664558, 51.141894982995304], [17.006893780547795, 51.14173890417657], [17.00678544101647, 51.14161781935438], [17.00671983478075, 51.14150720174626], [17.00664563955597, 51.141399279963856], [17.006560915150885, 51.141271931928706], [17.006492449684192, 51.14116274622186], [17.00644889813003, 51.14108792385632], [17.0064032484669, 51.14099368395426], [17.006314956288666, 51.14080494197139], [17.006255967859815, 51.14067240057973], [17.00622184891319, 51.14059623790188], [17.00619201907041, 51.140519985804126], [17.006156953915333, 51.14042467606831], [17.00612330394129, 51.140328020906985], [17.006110250609296, 51.140289721881665], [17.0060930999133, 51.14023127815328], [17.006068597110207, 51.140133900627625], [17.00605459691758, 51.14007581628409], [17.006041578151926, 51.14001728180622], [17.006029430953454, 51.139958754733634], [17.00596361298621, 51.13962663848326], [17.005836062279432, 51.13898190316392], [17.005795264129727, 51.138766397652404], [17.005745692375662, 51.138512314783064], [17.00557616558969, 51.13769263381541], [17.005544113690984, 51.137536372535465], [17.00543218783082, 51.137008886801866], [17.005390940695868, 51.13681244434055], [17.005351538206117, 51.13661528938247], [17.00530661974287, 51.13639888555099], [17.005275986265296, 51.13624119787518], [17.00526498329076, 51.1361820421461], [17.005202038009003, 51.13590756446783], [17.005190745615423, 51.13584858605953], [17.00516835775471, 51.13577000567725], [17.00513106131009, 51.13565311932638], [17.005108805675604, 51.135575708711805], [17.005075105156855, 51.13544642920144], [17.005072838812985, 51.13543752812413], [17.00505471236123, 51.135364791295565], [17.004917403374094, 51.13542371901557], [17.00496900743693, 51.13559885439832], [17.005004738125425, 51.13571610504817], [17.005015513604135, 51.13575125644708], [17.00506725251846, 51.13592945840016], [17.005127501852126, 51.13613453992228], [17.00518590327441, 51.13633055308676], [17.005228728353554, 51.13652797994646], [17.005272464493153, 51.136760824844906], [17.00530744512379, 51.13695295294937], [17.005340308810446, 51.13713455410749], [17.005410343743343, 51.137365815671394], [17.00549196360691, 51.13777552174341], [17.00552653274674, 51.1379569485399], [17.00556379731772, 51.13814728003158], [17.005551067307312, 51.13851366257835], [17.00564588662065, 51.13891440112597], [17.005749970885937, 51.13932628460948], [17.00444566298218, 51.13947042253967], [17.00443539882764, 51.13939885832235], [17.0042582590528, 51.13883236763526], [17.004185554470542, 51.138637688626076], [17.003937438304817, 51.13691739808194], [17.003912248185888, 51.13675198034489], [17.003795023839377, 51.13612041030705], [17.003955848016822, 51.13578161092816], [17.004078458896522, 51.13552331205416], [17.003922178982187, 51.13551156205627], [17.00379631272074, 51.13587726862019], [17.00378590294567, 51.13592741423799], [17.003662127953163, 51.13594491449693], [17.003693745569173, 51.13611105230679], [17.003730172593446, 51.13629274724771], [17.00377173297698, 51.136542672560644], [17.003810502725756, 51.1367596179406], [17.003837871208642, 51.13691011342182], [17.00385553409494, 51.137112558439114], [17.003888709691747, 51.13733983020048], [17.003914221739404, 51.13778777801994], [17.00402538847159, 51.13845209046988], [17.004083044943343, 51.13860360790082], [17.00418953847482, 51.13888821965552], [17.004218772650187, 51.138975353713874], [17.00426207997736, 51.13909315447527], [17.003930140056948, 51.13916887912511], [17.004002863166022, 51.139450341520885], [17.00428204601742, 51.14070857785793], [17.005036166229793, 51.14361916841868], [17.00515721231723, 51.14412543972067], [17.005390041148477, 51.14509923869289], [17.005942275541518, 51.14738017475683], [17.00602443324835, 51.14778046401949], [17.006156964502008, 51.14838313918808], [17.006182947781344, 51.1485012907299], [17.006209012119264, 51.148714293672], [17.00624475975675, 51.149007833561036], [17.006271693774867, 51.14927360322355], [17.006292628712995, 51.14948017089461], [17.00631849352545, 51.14973538657962], [17.006336493228908, 51.149912995200054], [17.006354493061092, 51.15009060381318], [17.006354392588264, 51.15031098063059], [17.0063538097344, 51.15056859206539], [17.006353428232607, 51.15073703057837], [17.006349431831172, 51.15094844239464], [17.006349365248823, 51.15095196463712], [17.00634735703579, 51.15116266673756], [17.00633066767959, 51.15176642163741], [17.00630944749649, 51.15197976346318], [17.006280851096573, 51.152231254003475], [17.006248340468485, 51.15251715779849], [17.006223367810254, 51.15273114282468], [17.006169380819177, 51.15301798511119], [17.006111439712654, 51.15333268863118], [17.006093965820053, 51.15342759485953], [17.006037698533948, 51.15373746083649], [17.0059857837217, 51.15402334972459], [17.00592415431359, 51.15428872165554], [17.005861380720614, 51.154506729073525], [17.005794851184532, 51.15473777906375], [17.005688643251002, 51.15510662027803], [17.005594975867425, 51.155431907098304], [17.005573095199775, 51.15550789031569], [17.005686985671392, 51.15560410469185], [17.00588192569247, 51.15576878785442], [17.00589241687534, 51.155777650689075], [17.005916126868925, 51.15579768062806], [17.00604317039383, 51.1559050055855], [17.00673374122567, 51.156295477443145], [17.006736282948037, 51.15629652772389], [17.006887504333346, 51.15635901484355], [17.006891680540793, 51.15636074051994], [17.007029679401487, 51.1564177638788], [17.007451302237403, 51.15659198524666], [17.007763588101138, 51.15670821250556], [17.008206647306015, 51.15687311128228], [17.008801787920945, 51.157058685091805], [17.00938462234871, 51.15723630277879], [17.01006763290501, 51.15739906679666], [17.01019079396436, 51.15742467524103], [17.01055909577399, 51.1575012549364], [17.010775942270843, 51.15754634306314], [17.011497238528875, 51.15767017732394], [17.011650714574685, 51.157687040781596], [17.012580616406435, 51.15778921542442], [17.013403166483958, 51.15783016855164], [17.014232160725445, 51.15784607316675], [17.01423222305396, 51.15784607436255], [17.014242490234775, 51.15784627146224], [17.01428074960188, 51.1578470056123], [17.01428788162169, 51.15784714212678], [17.01498401856841, 51.1578387354402], [17.015232055039363, 51.157823451467145], [17.015580976012046, 51.157801951109725], [17.01600281534136, 51.15777595524815], [17.016002891247265, 51.15777594869498], [17.01615645457369, 51.15776282646184], [17.016210832212014, 51.15775818041288], [17.016318635099058, 51.1577489683282], [17.016362502124043, 51.15774521908034], [17.016408266729865, 51.15774130867703], [17.01645582168672, 51.15773649816556], [17.016506289165548, 51.157731393890764], [17.016603363166542, 51.15772157442944], [17.0165713722882, 51.15766362978131], [17.01652994525479, 51.15758859650073], [17.016462781351176, 51.157466945008004], [17.016446963876167, 51.15743835082624], [17.016399800438343, 51.15735068107613], [17.016257597507956, 51.1570863433324], [17.016157983406906, 51.1569011703597], [17.01613545969898, 51.15685930136618], [17.016063510344278, 51.156725555169885], [17.0159937823218, 51.15659593407748], [17.015991550425685, 51.15659178726109], [17.015936095199656, 51.15648869842842], [17.015929586789095, 51.156476599578674], [17.01592687776639, 51.15647156416671], [17.0159036820769, 51.15642830866285], [17.01588502380674, 51.156393514618], [17.015876078300053, 51.15637683280113], [17.015958138343038, 51.15635262999689], [17.015969505677024, 51.156349277204924], [17.016120364286337, 51.156300114403614], [17.01633247552679, 51.1562253444613], [17.016336266411344, 51.15622400811912], [17.016358313492983, 51.15621541424894], [17.016546848504305, 51.15614192354778], [17.01683381704694, 51.1560170517597], [17.016962904753875, 51.15595566775657], [17.01708967238103, 51.15588976030786], [17.017216344272192, 51.15582161349854], [17.017235207770234, 51.15581092150236], [17.017251815519497, 51.15580150775495], [17.0174352628021, 51.155697525883284], [17.017608704196434, 51.155589844954385], [17.01792478492366, 51.15539360536473], [17.017960968899192, 51.15537114021762], [17.018111785047658, 51.15527860490119], [17.01824016151113, 51.15519983745462], [17.018424547366063, 51.15508670506935], [17.018547400297866, 51.15501132587268], [17.018561341287743, 51.155002731892054], [17.018958726239244, 51.15475775476267], [17.019225860829575, 51.15459307096453], [17.019460296334284, 51.15444854498541], [17.019490631403123, 51.1544296990041], [17.019819241288697, 51.15422554956686], [17.01999714590275, 51.1541150249213], [17.020037225649308, 51.15409034706153], [17.02004876098909, 51.15408324430448], [17.020048761626388, 51.154083243912076], [17.020432960363394, 51.15384668247058], [17.020743572629833, 51.15365542637131], [17.020781907814197, 51.15363182229595], [17.020911626452072, 51.15355194844356], [17.021031908998058, 51.15347788458124], [17.021127144400044, 51.15341924395851], [17.021282809343912, 51.153323392004566], [17.021382848055275, 51.1532617933222], [17.02156087184092, 51.153152173454394], [17.021630465711457, 51.15310932037472], [17.021661781684003, 51.153090037049076], [17.021882145367165, 51.1529531366886], [17.021912889783493, 51.15293403639965], [17.022063795728528, 51.152840284943444], [17.022188855436298, 51.152762591163935], [17.022190555882425, 51.1527615347137], [17.022288586286873, 51.15270063224585], [17.022308389020967, 51.1526883300484], [17.02240287518989, 51.1526300192372], [17.02261548121814, 51.15249881231845], [17.022797618807502, 51.15238640849382], [17.023172770658686, 51.15215488387879], [17.02334192202285, 51.15205049109191], [17.023505828540394, 51.151949334592096], [17.02370428896958, 51.15183526230953], [17.023865655281543, 51.1517425100905], [17.02408434751849, 51.15161680711012], [17.024191407108926, 51.151555268205584], [17.024211446736228, 51.151543749761295], [17.024395242785843, 51.15145116146071], [17.02449512377814, 51.15140376962453], [17.024495123992864, 51.15140376952265], [17.024522376999347, 51.15139083878741], [17.024554956397434, 51.151375380427666], [17.02455616109031, 51.15137484040404], [17.02455616129919, 51.1513748403104], [17.02471022115025, 51.151305845837484], [17.024791893028237, 51.15127174142027], [17.024941698500697, 51.15120918640737], [17.024981554432326, 51.151193390348354], [17.025080936898732, 51.15115400002879], [17.025232963529813, 51.151096295088045], [17.0253622983006, 51.15105137381054], [17.02540574965189, 51.151036281790276], [17.02558291202872, 51.15097735198928], [17.025705179985852, 51.15093668109228], [17.025850453155527, 51.15089349129766], [17.026075306667977, 51.15083085417839], [17.02617071356444, 51.15080648477777], [17.026260080378844, 51.15078365797854], [17.026333863588512, 51.15076481144773], [17.026468327577952, 51.15073259714923], [17.026695954910874, 51.15068138977736], [17.02676358502071, 51.15066808962035], [17.026913823614663, 51.15063854384335], [17.026939664241155, 51.15063346213025], [17.027064606547892, 51.1506115150054], [17.027380562994363, 51.1505604207364], [17.027434614876082, 51.15055354184717], [17.027610442821683, 51.15053116503433], [17.02765312054851, 51.15052623302939], [17.027918497120176, 51.15049556468042], [17.027998705844386, 51.150488673682645], [17.028124867512343, 51.150477835964246], [17.028168267399185, 51.15047410719185], [17.02819671809668, 51.150471662872675], [17.028338131341126, 51.150460994793875], [17.028352046463507, 51.15045994533529], [17.0285821580558, 51.150447304298055], [17.028608764263772, 51.15044584240926], [17.028669494376675, 51.150443626501314], [17.028758672776668, 51.15044037206529], [17.0289369293774, 51.15043631992405], [17.02913062293659, 51.150431915602816], [17.029230078440097, 51.150429654975405], [17.029246744178966, 51.15037640833124], [17.028897862666437, 51.15038989132199], [17.028916193408115, 51.15029354875328], [17.029050259275696, 51.149590206811624], [17.02916328239043, 51.14921789523664], [17.02899037265496, 51.14944031984834], [17.02892993041144, 51.14951578048674], [17.028903759066825, 51.14952331226552], [17.028890416979234, 51.14955359545587], [17.02879397908098, 51.14953671225043], [17.028713607858023, 51.14971857945061], [17.0288100461042, 51.14973546272367], [17.028632077183243, 51.150138096007545], [17.02834801033074, 51.15019000694027], [17.028258219402176, 51.15020638623735], [17.027540468036054, 51.149922964661585], [17.02742580124633, 51.149877755241256], [17.027284631624678, 51.14985787385221], [17.027601862278562, 51.14920114863639], [17.028483314258484, 51.149369558888054], [17.028524505010925, 51.14927637282328], [17.028599505398947, 51.14913791704744], [17.02875609484163, 51.14884869930435], [17.02925607380976, 51.14880224737335], [17.029491490982807, 51.14878040545602], [17.029615560765745, 51.14860962490534], [17.029769228948094, 51.14812056884991], [17.029697716979417, 51.148076564640135], [17.029738400904414, 51.1479501212555], [17.029879616683125, 51.14793144352027], [17.030115562340974, 51.147151840987675], [17.030147021681966, 51.14714287848731], [17.03025701215687, 51.146780887675924], [17.030043729766646, 51.14666909487464], [17.029816020413595, 51.14654946889483], [17.02980446156707, 51.146534989585696], [17.029704109105968, 51.14647810668409], [17.02963317002779, 51.14643689395706], [17.029286416715884, 51.146238617686144], [17.028816205156026, 51.14596987927818], [17.028522566959964, 51.145801572724594], [17.0285961105465, 51.145516420763535], [17.029042853295334, 51.14557653138538], [17.02986107391167, 51.14567393677988], [17.03014132388603, 51.14473214168035], [17.0304350997554, 51.14489792824294], [17.030457528548034, 51.14482468675921], [17.02974276368355, 51.14442668502402], [17.02935818847793, 51.14421103273902], [17.0284848378925, 51.14372114528172], [17.027603056174186, 51.14323142383093], [17.026908718653047, 51.142849072516015], [17.02600597702681, 51.142344403456086], [17.026066935160998, 51.14222247205457], [17.026406097829355, 51.1424113097496], [17.026588105198442, 51.14251256489237], [17.026670988254097, 51.1424346042458], [17.026652649947906, 51.14238039686356], [17.026824885907303, 51.142281020215144], [17.026599969413116, 51.14212786166232], [17.026514284110835, 51.142178047885885], [17.026234317848143, 51.14188785962166], [17.02636058600038, 51.141756268560194], [17.026533112462932, 51.14157437874583], [17.026633898998583, 51.141469283543564], [17.02686484333288, 51.14168563552105], [17.026755292101928, 51.14181337483059], [17.026981241187006, 51.141954756254655], [17.027783532013036, 51.14263238871143], [17.02798723813052, 51.14280434582842], [17.02812581161975, 51.1427386054473], [17.028210450520692, 51.14279538617347], [17.028573711493998, 51.14317937625065], [17.029341270873886, 51.14365965622276], [17.02938568946921, 51.14363164454365], [17.029450211396547, 51.14359089054199], [17.029464796704534, 51.14358163537407], [17.029517469076175, 51.143614579013104], [17.029853335223436, 51.14382479257874], [17.029841883174022, 51.14383251857641], [17.029779364061856, 51.1438745389678], [17.02973715228104, 51.14390362988106], [17.02983021946042, 51.14396077599011], [17.02987470729894, 51.14393150615066], [17.02993594619303, 51.143890562837505], [17.0299468170816, 51.14388329048242], [17.030459528854163, 51.144203968376395], [17.0305996585268, 51.1442318022036], [17.030761968165475, 51.14424396193882], [17.030918728641552, 51.144243355122065], [17.03103581101728, 51.14421979244172], [17.03084301603933, 51.144853277438756], [17.031025586583688, 51.144958584573686], [17.031032500725303, 51.14493620370524], [17.031084490407963, 51.14478891658899], [17.03111603842061, 51.144728533800794], [17.0313073128858, 51.144064390059896], [17.031314634672054, 51.14404641747451], [17.03133294925503, 51.14402899440613], [17.031340852935397, 51.14400984899494], [17.031386421803848, 51.1438544628165], [17.031387163831415, 51.14384359149119], [17.03139678923257, 51.143811146670195], [17.031419089637186, 51.143813587754714], [17.03143403738242, 51.14376514948049], [17.03141217883107, 51.143762082782835], [17.03142251618004, 51.14373044393387], [17.031429437355957, 51.14370088037006], [17.03144698331697, 51.14363823300164], [17.031459053023532, 51.14359824812483], [17.031223003208375, 51.143435207648544], [17.03116534414156, 51.14339534639219], [17.031260176345736, 51.143343632385395], [17.031336079178782, 51.14332984166559], [17.03140921911147, 51.14309026204293], [17.031176986632776, 51.14294160953145], [17.031055517737244, 51.14286358895813], [17.031374246562685, 51.141817640662225], [17.031466075257153, 51.14159379479169], [17.031520560079546, 51.1415674028921], [17.03193499144336, 51.141368324172944], [17.031773509441262, 51.14138196418541], [17.031879813097166, 51.14105078453985], [17.031663566546072, 51.14091849156277], [17.031686450992783, 51.14081918359493], [17.031804461261345, 51.14040585460434], [17.031769869862185, 51.14016447480495], [17.03163108959146, 51.14009660460696], [17.031103273343223, 51.139840495920794], [17.031081120229647, 51.139763531778954], [17.031065476593508, 51.13971965853121], [17.0310370324712, 51.13963945093277], [17.031011258504684, 51.13958801435548], [17.030943083732325, 51.13960154526207], [17.0308573164576, 51.1396185621676], [17.030903486400526, 51.13969572536571], [17.030917872064595, 51.13971981996825], [17.03077600592603, 51.139875864384905], [17.029992197861798, 51.1395935905626], [17.029915155330436, 51.139689985853266], [17.030670406449016, 51.13996711515284], [17.030701249638067, 51.13997846401237], [17.030788218259506, 51.140011250854506], [17.030820188287496, 51.140032938129956], [17.030849997840143, 51.140065673753995], [17.03086734847983, 51.140113327837135], [17.030874327519236, 51.1403724044787], [17.030850798122835, 51.14034820713481], [17.030814964583648, 51.140332897474], [17.030755471423348, 51.140361710705434], [17.03051063888712, 51.14048036747976], [17.030374176610493, 51.14049015862029], [17.030307019637426, 51.14048777692509], [17.030237584896387, 51.140485663973244], [17.02963292779738, 51.14021007815851], [17.02944190236212, 51.14012193170088], [17.029397351310703, 51.14010122738519], [17.029030424617563, 51.139931612397945], [17.028969325562674, 51.139902077537464], [17.028967322825277, 51.139905584853004], [17.0289461388212, 51.13992426925648], [17.02869880973588, 51.14016382133706], [17.02818634470799, 51.13996407519228], [17.02793084475958, 51.13986444109016], [17.027904198277668, 51.13985402534527], [17.02793397333428, 51.139818898542], [17.028147303200733, 51.13957212552564], [17.028213411646004, 51.13952228784634], [17.028361991050563, 51.13936742598787], [17.028530455134234, 51.13919513636143], [17.02854086228235, 51.13919834221811], [17.028583718795893, 51.13921189500687], [17.028658440322108, 51.13913086260069], [17.028625747181692, 51.13911511088142], [17.028792844292994, 51.13891593944574], [17.028844537070018, 51.13892991611529], [17.02887861521998, 51.13889191215418], [17.029121375993725, 51.138628616022764], [17.029297453430203, 51.13843780687254], [17.029330939038715, 51.138403492608504], [17.029332654770126, 51.13840412713476], [17.029415527124282, 51.138318604135904], [17.029413952192275, 51.13831806966555], [17.029425270827883, 51.1382989257379], [17.02944673756176, 51.13828374955686], [17.029448298017492, 51.13828429289631], [17.02952745803764, 51.13820065380634], [17.02960760261617, 51.13812115807291], [17.029307972555582, 51.13795392712465], [17.029094695861275, 51.13818587878599], [17.02870097328623, 51.138659330924725], [17.028678639039594, 51.138686545901116], [17.028574828566235, 51.138812320940026], [17.028468446270804, 51.13894213784516], [17.02846573778213, 51.138941144462876], [17.028415346223124, 51.13900133409268], [17.02838956765424, 51.13902855635804], [17.02834005164294, 51.139080383861014], [17.02822223605253, 51.139204082481776], [17.028220818453804, 51.13920354031314], [17.028134077673265, 51.13929004614833], [17.02790777518214, 51.13952314593582], [17.027710238457036, 51.1397255240645], [17.027593868109143, 51.139846249498646], [17.027538188478303, 51.13990365293554], [17.027446650491093, 51.140009553999626], [17.027280717526573, 51.13994956148637], [17.026495813016776, 51.13969590508229], [17.026494796438843, 51.13970882792306], [17.02645530688709, 51.13973884825019], [17.026382751502975, 51.13987251469422], [17.02627580844384, 51.139964221390954], [17.026315303554142, 51.140081113973274], [17.026474836358474, 51.14026346297651], [17.026515818717233, 51.140283420025106], [17.026443747327185, 51.14026420212555], [17.02642770288786, 51.14028917666733], [17.026384425717804, 51.14035674222115], [17.026358926960185, 51.14039366620353], [17.026233864814504, 51.14057407214985], [17.026030039063148, 51.140843853430155], [17.025998589757425, 51.140851826044084], [17.02610205775536, 51.14099958759929], [17.026115625300342, 51.14100949030936], [17.026151031040943, 51.14102470795274], [17.026126840342723, 51.14104698065097], [17.02610847304252, 51.14108588774491], [17.026144285770457, 51.14111979826597], [17.026283627422103, 51.14117976875848], [17.026283867163755, 51.14120709030694], [17.026316819217953, 51.14123570003128], [17.026351904391007, 51.14127024269526], [17.026447613688426, 51.14136506220597], [17.02632319586806, 51.141501145617156], [17.026301888394872, 51.14150931062165], [17.026168763767757, 51.141484577420506], [17.026122641639212, 51.141542617117835], [17.026071356495816, 51.14153565458003], [17.025321792894488, 51.14120772453767], [17.025249401240824, 51.14117701486829], [17.024800353110045, 51.14099321767177], [17.024780649543306, 51.14098358727081], [17.02473425832545, 51.14096414236445], [17.02464858372389, 51.14092838623426], [17.024577906115123, 51.14090046824256], [17.024559923368404, 51.140893270372786], [17.024604580854056, 51.14085257808751], [17.02397668382541, 51.14057040446034], [17.022565015902295, 51.13993598249548], [17.021107483337666, 51.13912878274009], [17.02077916357697, 51.138946960243224], [17.02013760983703, 51.138622346085526], [17.01989892011542, 51.138437900875616], [17.019791456115897, 51.1385137719299], [17.01973051647061, 51.138553993308214], [17.019832975628066, 51.138616628998996], [17.019787054733314, 51.138648058534486], [17.018904371205565, 51.13925264618809], [17.018895076442824, 51.139259013800945], [17.019686017300995, 51.139686856711926], [17.019880010448833, 51.1397918097548], [17.019361847665163, 51.140297988818155], [17.01820350356569, 51.141557610087006], [17.01814582160153, 51.14153428313424], [17.01816371334777, 51.1415181171116], [17.01676791898142, 51.14098307611452], [17.016660959496726, 51.14094253246547], [17.01545110703423, 51.140477737817804], [17.015230494042484, 51.14039045168945], [17.014208374358383, 51.14069232564849], [17.013111209016834, 51.140589103667466], [17.01234022115596, 51.14085494605404], [17.012321988418996, 51.1408930340948], [17.012168427122795, 51.141911928698306], [17.012015039797546, 51.142931714392525], [17.01199334422096, 51.14318751160951], [17.011988209711838, 51.14324593696448], [17.011985463902594, 51.143265439303704], [17.0119792663073, 51.143285299038084], [17.01197094250667, 51.1433043407307], [17.011956620411258, 51.143321857445486], [17.011941423737916, 51.14333883638021], [17.011924670474464, 51.14335509197954], [17.011189541084534, 51.14408855704812], [17.010957226768873, 51.14432232846853], [17.010908822333178, 51.14437244998382], [17.010857690348526, 51.14442246750434], [17.01080542628605, 51.1444719540275], [17.010752308863378, 51.14451990506782], [17.01062701683167, 51.14463548603756], [17.01018783660256, 51.14504382891064], [17.01014273282884, 51.14501440161123], [17.009828750897967, 51.14474365431696], [17.00978994005282, 51.14471269797546], [17.00959122914093, 51.144535807029825], [17.00941745780535, 51.144396326168945], [17.009398480599454, 51.144380217785965], [17.00934242149944, 51.144332529284476], [17.009287781340394, 51.14428465500248], [17.009270522923014, 51.14426837237479], [17.009185372869002, 51.144185692340514]]], [[[17.01863919789414, 51.13951803454951], [17.01859523671053, 51.13956546367473], [17.018527541315112, 51.13961888748201], [17.018459702698195, 51.139672319037736], [17.01842572137352, 51.139724866064604], [17.01835488839717, 51.139778649993616], [17.019287912023323, 51.14025677156159], [17.019359464955706, 51.14020406287871], [17.019392161594684, 51.14015006647001], [17.019461573577008, 51.1400965486836], [17.01953084423667, 51.14004294876432], [17.019539398335368, 51.139979130980116], [17.01960938425438, 51.139926157296706], [17.019679227137978, 51.139873182372476], [17.019732598858226, 51.13983142328861], [17.01980158970663, 51.13977683200099], [17.018934360495305, 51.13933311248739], [17.01886367539555, 51.13938671817193], [17.018777875585428, 51.13941181665031], [17.018708614351926, 51.13946497571477], [17.01863919789414, 51.13951803454951]]], [[[17.032891384693002, 51.14360992098544], [17.033095955324736, 51.143719721855405], [17.032695456434414, 51.14474402534461], [17.032514320350284, 51.14471351752987], [17.0325744020464, 51.14467112492877], [17.032739091176904, 51.14424066054029], [17.031857089836766, 51.14410926982319], [17.0318770955343, 51.14403422805772], [17.03163178565228, 51.14400484173478], [17.031606352182553, 51.14408860342199], [17.031607326174896, 51.144100109242075], [17.031557133411248, 51.14428047539196], [17.03150289253657, 51.144477384898394], [17.031491250711177, 51.14451944992547], [17.03145098104854, 51.14465857279827], [17.03148583718326, 51.1446640754372], [17.031713118594613, 51.14470009997864], [17.03172268659943, 51.144701815306526], [17.031774835154437, 51.1447107512292], [17.031785834521713, 51.144710311897185], [17.032054681951017, 51.14475562455832], [17.032061974635376, 51.14475679962836], [17.031834242024658, 51.14535710391963], [17.03162393906307, 51.14525672850669], [17.031288441277738, 51.145081295121614], [17.031258768682626, 51.14516610036802], [17.031228249492514, 51.14525311004578], [17.033229358101487, 51.146384500610296], [17.034224935699815, 51.14694832136932], [17.034211920636604, 51.146957662009356], [17.034004870451554, 51.146866559149515], [17.033997140324168, 51.14687194302578], [17.033970587592766, 51.146854041095864], [17.033936264310256, 51.14687289653901], [17.033899637121696, 51.14690010229561], [17.033827104950536, 51.146866529152064], [17.033768640370834, 51.14695322769783], [17.033771647837064, 51.14695430433095], [17.033703961634178, 51.14700486921926], [17.033769082623074, 51.14702855553734], [17.033760180963462, 51.1470565027032], [17.033428879031835, 51.14732782338279], [17.03341001049615, 51.14733068796812], [17.032811744888836, 51.147049814214164], [17.03222636424487, 51.14755887372609], [17.032747170397347, 51.14776508920166], [17.033131577992446, 51.147932094755404], [17.03345798927115, 51.14792324992322], [17.033566729383708, 51.147851952700876], [17.03377415285683, 51.1479712059504], [17.03380556854747, 51.14798965151192], [17.033882554325718, 51.14801262670408], [17.033889241581054, 51.148028449766066], [17.03417576384184, 51.14819485003748], [17.03431981031144, 51.14828223207641], [17.03432967846714, 51.14827576909618], [17.034457032908158, 51.14834596879585], [17.03446318362216, 51.14834094042669], [17.034483532518045, 51.14831030092436], [17.03461589116418, 51.14821259736736], [17.03548064382457, 51.14861812545882], [17.035721431600308, 51.14871284794438], [17.036024068069622, 51.14882046740983], [17.03626476593719, 51.14879815196958], [17.03663064887757, 51.148769900239564], [17.03651632787709, 51.148175849391954], [17.037511041320048, 51.14871213537011], [17.03843928482112, 51.1492203310865], [17.038761680482036, 51.149396903531425], [17.038870790551737, 51.14970870662503], [17.03928572706597, 51.14975094182054], [17.039385775422303, 51.14974489548408], [17.03963731498663, 51.149727876125816], [17.039607035289624, 51.14971995035364], [17.038865004666707, 51.14930950141929], [17.03880114322596, 51.14912032917297], [17.038726975819927, 51.14912316266656], [17.03872276103226, 51.149079744056834], [17.038540911140217, 51.149123853748776], [17.037818573617688, 51.14872473407641], [17.0372257555154, 51.14839491642182], [17.036834245095694, 51.14817711292533], [17.038801593473853, 51.14730539563108], [17.03872026986491, 51.14706490372632], [17.038697527568708, 51.146997645131535], [17.038509428397496, 51.146428780974524], [17.039320355826906, 51.1459119240634], [17.03982188195101, 51.145587039680315], [17.039785239665257, 51.1455001686446], [17.039739847475175, 51.145414843891835], [17.039688134599956, 51.14533108535747], [17.039631108777023, 51.1452485417223], [17.039565594690604, 51.14516871514215], [17.039494181218107, 51.145090817796174], [17.039416428511196, 51.14501538543944], [17.039332765263147, 51.14494242158052], [17.03924347167307, 51.14487219819766], [17.03914767360884, 51.14480551716428], [17.038992716763527, 51.14471093157505], [17.03872323818421, 51.144838797124585], [17.038551148970914, 51.14469525639202], [17.03877992326595, 51.144586744026], [17.03797741181465, 51.14411457231393], [17.037080746100486, 51.1435870527358], [17.036194582021007, 51.143077771798886], [17.036159597547737, 51.143126495032696], [17.036086098923136, 51.143243132235746], [17.03599527238354, 51.143382046738985], [17.035917126338703, 51.14349260448695], [17.035816509576346, 51.14363219327653], [17.035729146418355, 51.143749534008634], [17.035641212735563, 51.14386885668129], [17.03555913528889, 51.1439780243337], [17.03547686583814, 51.1440867858103], [17.035355766868616, 51.14424694438753], [17.03506112631001, 51.1444084759566], [17.03461202866808, 51.14414354884598], [17.03432083357403, 51.14396591877489], [17.03398538327616, 51.143764890978346], [17.0336957300803, 51.14360604243824], [17.03325363076007, 51.143357798693856], [17.03324020376815, 51.143350639825776], [17.032891384693002, 51.14360992098544]], [[17.033888331763176, 51.14463188332085], [17.033512710635915, 51.144885338134735], [17.03461202866808, 51.14414354884598], [17.033888331763176, 51.14463188332085]], [[17.037240377790525, 51.145681580605725], [17.03719430850437, 51.1456544549067], [17.03850941518042, 51.146428773192476], [17.037240377790525, 51.145681580605725]]]]}}]}