{
  "type": "FeatureCollection",
  "features": [
    {
      "type": "Feature",
      "properties": {
        "osm_id": 23283534,
        "electrified": "contact_line",
        "frequency": "0",
        "gauge": "1435",
        "maxspeed": "100",
        "operator": "PKP Polskie Linie Kolejowe",
        "operator:short": "PKP PLK",
        "passenger_lines": "2",
        "railway": "rail",
        "railway:preferred_direction": "backward",
        "railway:shp": "yes",
        "railway:track_class": "C3",
        "railway:track_ref": "2",
        "ref": "143",
        "usage": "main",
        "voltage": "3000",
        "workrules": "PL:Ir-1"
      },
      "geometry": {
        "type": "LineString",
        "coordinates": [
          [
            17.0674648,
            51.1376624
          ],
          [
            17.0669511,
            51.1374988
          ],
          [
            17.0665386,
            51.1373644
          ],
          [
            17.0661447,
            51.1372256
          ],
          [
            17.06574,
            51.1370782
          ],
          [
            17.0653363,
            51.1369226
          ],
          [
            17.0649198,
            51.1367514
          ],
          [
            17.0645468,
            51.136594
          ],
          [
            17.0641676,
            51.136424
          ],
          [
            17.0637946,
            51.1362521
          ],
          [
            17.0634155,
            51.136062
          ],
          [
            17.0630428,
            51.135868
          ],
          [
            17.0626979,
            51.1356832
          ],
          [
            17.0623248,
            51.1354712
          ],
          [
            17.0619958,
            51.1352749
          ],
          [
            17.0616618,
            51.1350704
          ],
          [
            17.059803,
            51.1339131
          ]
        ]
      }
    },
    {
      "type": "Feature",
      "properties": {
        "osm_id": 157159148,
        "electrified": "no",
        "gauge": "1435",
        "railway": "rail",
        "railway:track_ref": "5",
        "service": "spur"
      },
      "geometry": {
        "type": "LineString",
        "coordinates": [
          [
            17.0685515,
            51.138084
          ],
          [
            17.0691566,
            51.1383278
          ],
          [
            17.0692601,
            51.1383673
          ],
          [
            17.0693453,
            51.1383968
          ],
          [
            17.0728673,
            51.1394886
          ],
          [
            17.0745471,
            51.1400093
          ],
          [
            17.076556,
            51.140632
          ],
          [
            17.0766909,
            51.1406721
          ],
          [
            17.0772917,
            51.1408592
          ],
          [
            17.077606,
            51.1409558
          ],
          [
            17.0777193,
            51.1409874
          ],
          [
            17.0778874,
            51.1410292
          ]
        ]
      }
    },
    {
      "type": "Feature",
      "properties": {
        "osm_id": 157159153,
        "electrified": "contact_line",
        "frequency": "0",
        "gauge": "1435",
        "railway": "rail",
        "service": "crossover",
        "voltage": "3000"
      },
      "geometry": {
        "type": "LineString",
        "coordinates": [
          [
            17.0686163,
            51.138073
          ],
          [
            17.0687824,
            51.1381213
          ],
          [
            17.0688942,
            51.1381513
          ],
          [
            17.0694615,
            51.1382828
          ]
        ]
      }
    },
    {
      "type": "Feature",
      "properties": {
        "osm_id": 157159172,
        "electrified": "no",
        "gauge": "1435",
        "railway": "rail",
        "railway:track_ref": "61a",
        "service": "spur"
      },
      "geometry": {
        "type": "LineString",
        "coordinates": [
          [
            17.0826298,
            51.1422288
          ],
          [
            17.0825237,
            51.1422019
          ],
          [
            17.0824416,
            51.1421784
          ],
          [
            17.0823364,
            51.1421461
          ],
          [
            17.0821886,
            51.1421002
          ],
          [
            17.0819998,
            51.1420444
          ],
          [
            17.0818017,
            51.1419954
          ]
        ]
      }
    },
    {
      "type": "Feature",
      "properties": {
        "osm_id": 157159188,
        "electrified": "contact_line",
        "frequency": "0",
        "gauge": "1435",
        "railway": "rail",
        "service": "crossover",
        "voltage": "3000"
      },
      "geometry": {
        "type": "LineString",
        "coordinates": [
          [
            17.0674648,
            51.1376624
          ],
          [
            17.0676155,
            51.1377122
          ],
          [
            17.0677307,
            51.1377524
          ],
          [
            17.0678858,
            51.1378136
          ],
          [
            17.0679371,
            51.137834
          ],
          [
            17.0679952,
            51.137857
          ],
          [
            17.0682019,
            51.1379419
          ]
        ]
      }
    },
    {
      "type": "Feature",
      "properties": {
        "osm_id": 157159198,
        "electrified": "contact_line",
        "frequency": "0",
        "gauge": "1435",
        "maxspeed": "100",
        "operator": "PKP Polskie Linie Kolejowe",
        "operator:short": "PKP PLK",
        "passenger_lines": "2",
        "railway": "rail",
        "railway:preferred_direction": "forward",
        "railway:shp": "yes",
        "railway:track_class": "C3",
        "railway:track_ref": "1",
        "ref": "143",
        "usage": "main",
        "voltage": "3000",
        "workrules": "PL:Ir-1"
      },
      "geometry": {
        "type": "LineString",
        "coordinates": [
          [
            17.0682019,
            51.1379419
          ],
          [
            17.0679774,
            51.1378719
          ],
          [
            17.0679118,
            51.1378516
          ],
          [
            17.0678537,
            51.1378335
          ],
          [
            17.0673378,
            51.1376719
          ],
          [
            17.0669298,
            51.1375375
          ],
          [
            17.0665075,
            51.1373978
          ],
          [
            17.0661182,
            51.1372609
          ],
          [
            17.0657088,
            51.1371102
          ],
          [
            17.0652995,
            51.136953
          ],
          [
            17.0648887,
            51.1367844
          ],
          [
            17.0644782,
            51.136611
          ],
          [
            17.0641074,
            51.1364438
          ],
          [
            17.0637508,
            51.1362764
          ],
          [
            17.063391,
            51.1360979
          ],
          [
            17.0631113,
            51.1359534
          ],
          [
            17.0629964,
            51.1358941
          ],
          [
            17.0626352,
            51.1356964
          ],
          [
            17.0622962,
            51.1355047
          ],
          [
            17.0619453,
            51.1352956
          ],
          [
            17.0615986,
            51.1350851
          ],
          [
            17.0597624,
            51.1339384
          ]
        ]
      }
    },
    {
      "type": "Feature",
      "properties": {
        "osm_id": 157159206,
        "electrified": "no",
        "gauge": "1435",
        "railway": "rail",
        "railway:track_ref": "33",
        "service": "spur"
      },
      "geometry": {
        "type": "LineString",
        "coordinates": [
          [
            17.0792903,
            51.1414377
          ],
          [
            17.0793846,
            51.1414701
          ],
          [
            17.0794761,
            51.1415036
          ],
          [
            17.0796468,
            51.1415704
          ],
          [
            17.0798276,
            51.1416434
          ],
          [
            17.079953,
            51.1416854
          ],
          [
            17.0810184,
            51.1420165
          ]
        ]
      }
    },
    {
      "type": "Feature",
      "properties": {
        "osm_id": 157159208,
        "electrified": "contact_line",
        "frequency": "0",
        "gauge": "1435",
        "maxspeed": "100",
        "operator": "PKP Polskie Linie Kolejowe",
        "operator:short": "PKP PLK",
        "railway": "rail",
        "railway:preferred_direction": "both",
        "railway:shp": "yes",
        "railway:track_class": "C3",
        "railway:track_ref": "1",
        "railway:traffic_mode": "freight",
        "ref": "292",
        "usage": "main",
        "voltage": "3000",
        "workrules": "PL:Ir-1"
      },
      "geometry": {
        "type": "LineString",
        "coordinates": [
          [
            17.093753,
            51.1426011
          ],
          [
            17.0936077,
            51.1426653
          ],
          [
            17.0933526,
            51.1427677
          ],
          [
            17.0931299,
            51.1428509
          ],
          [
            17.0929442,
            51.1429176
          ],
          [
            17.0927981,
            51.1429634
          ],
          [
            17.0926142,
            51.1430189
          ],
          [
            17.0924237,
            51.1430754
          ],
          [
            17.0922209,
            51.1431286
          ],
          [
            17.0919975,
            51.1431817
          ],
          [
            17.0917888,
            51.1432272
          ],
          [
            17.0915651,
            51.1432713
          ],
          [
            17.0913291,
            51.1433129
          ],
          [
            17.0910765,
            51.1433509
          ],
          [
            17.0907702,
            51.1433905
          ],
          [
            17.0904673,
            51.1434222
          ],
          [
            17.0901563,
            51.1434464
          ],
          [
            17.0898656,
            51.143461
          ],
          [
            17.0895892,
            51.1434675
          ],
          [
            17.0892875,
            51.1434691
          ],
          [
            17.0889756,
            51.1434611
          ],
          [
            17.0886531,
            51.1434454
          ],
          [
            17.0883419,
            51.1434212
          ],
          [
            17.0880626,
            51.1433929
          ],
          [
            17.0878076,
            51.14336
          ],
          [
            17.0875167,
            51.1433124
          ],
          [
            17.0870424,
            51.1432253
          ],
          [
            17.0868405,
            51.1431835
          ],
          [
            17.0864572,
            51.1431041
          ],
          [
            17.0857485,
            51.1429431
          ],
          [
            17.083483,
            51.1424242
          ],
          [
            17.0826298,
            51.1422288
          ],
          [
            17.0816714,
            51.1420089
          ],
          [
            17.0816237,
            51.141998
          ],
          [
            17.081559,
            51.1419831
          ],
          [
            17.0811424,
            51.1418883
          ],
          [
            17.080799,
            51.141808
          ],
          [
            17.0806817,
            51.1417767
          ],
          [
            17.0805309,
            51.1417317
          ]
        ]
      }
    },
    {
      "type": "Feature",
      "properties": {
        "osm_id": 157159224,
        "electrified": "no",
        "gauge": "1435",
        "railway": "rail",
        "railway:track_ref": "7",
        "service": "spur"
      },
      "geometry": {
        "type": "LineString",
        "coordinates": [
          [
            17.0691566,
            51.1383278
          ],
          [
            17.0693377,
            51.1384028
          ],
          [
            17.0695704,
            51.1384967
          ],
          [
            17.0696916,
            51.1385431
          ],
          [
            17.0697948,
            51.13858
          ],
          [
            17.0699111,
            51.1386178
          ],
          [
            17.0759681,
            51.1404934
          ],
          [
            17.0760772,
            51.1405233
          ],
          [
            17.0761877,
            51.1405524
          ],
          [
            17.0765509,
            51.1406356
          ],
          [
            17.0766909,
            51.1406721
          ]
        ]
      }
    },
    {
      "type": "Feature",
      "properties": {
        "osm_id": 366824415,
        "electrified": "no",
        "gauge": "1435",
        "railway": "rail",
        "railway:track_ref": "31",
        "service": "spur"
      },
      "geometry": {
        "type": "LineString",
        "coordinates": [
          [
            17.0813874,
            51.1420908
          ],
          [
            17.0800303,
            51.1416701
          ],
          [
            17.0792903,
            51.1414377
          ],
          [
            17.0785195,
            51.1411973
          ]
        ]
      }
    },
    {
      "type": "Feature",
      "properties": {
        "osm_id": 366824646,
        "electrified": "contact_line",
        "frequency": "0",
        "gauge": "1435",
        "railway": "rail",
        "service": "crossover",
        "voltage": "3000"
      },
      "geometry": {
        "type": "LineString",
        "coordinates": [
          [
            17.0802165,
            51.1416354
          ],
          [
            17.0805252,
            51.1417597
          ],
          [
            17.0806562,
            51.1418114
          ],
          [
            17.080769,
            51.1418527
          ],
          [
            17.0809063,
            51.141897
          ]
        ]
      }
    },
    {
      "type": "Feature",
      "properties": {
        "osm_id": 366824648,
        "electrified": "contact_line",
        "frequency": "0",
        "gauge": "1435",
        "maxspeed": "100",
        "operator": "PKP Polskie Linie Kolejowe",
        "operator:short": "PKP PLK",
        "passenger_lines": "2",
        "railway": "rail",
        "railway:preferred_direction": "backward",
        "railway:shp": "yes",
        "railway:track_class": "D3",
        "railway:track_ref": "2",
        "ref": "143",
        "usage": "main",
        "voltage": "3000",
        "workrules": "PL:Ir-1"
      },
      "geometry": {
        "type": "LineString",
        "coordinates": [
          [
            17.0957245,
            51.145281
          ],
          [
            17.0835302,
            51.1425267
          ],
          [
            17.0827806,
            51.1423574
          ],
          [
            17.0823822,
            51.1422634
          ],
          [
            17.0820739,
            51.142186
          ],
          [
            17.0817944,
            51.1421131
          ],
          [
            17.0816621,
            51.1420752
          ],
          [
            17.0816127,
            51.142061
          ],
          [
            17.0815473,
            51.1420422
          ],
          [
            17.0813258,
            51.1419763
          ],
          [
            17.0809064,
            51.1418498
          ],
          [
            17.0805309,
            51.1417317
          ]
        ]
      }
    },
    {
      "type": "Feature",
      "properties": {
        "osm_id": 366824649,
        "electrified": "contact_line",
        "frequency": "0",
        "gauge": "1435",
        "maxspeed": "40",
        "operator": "PKP Polskie Linie Kolejowe",
        "operator:short": "PKP PLK",
        "passenger_lines": "2",
        "railway": "rail",
        "railway:preferred_direction": "both",
        "railway:shp": "yes",
        "railway:track_class": "D3",
        "railway:track_ref": "2",
        "ref": "143;292",
        "usage": "main",
        "voltage": "3000",
        "workrules": "PL:Ir-1"
      },
      "geometry": {
        "type": "LineString",
        "coordinates": [
          [
            17.0805309,
            51.1417317
          ],
          [
            17.0802165,
            51.1416354
          ],
          [
            17.0799432,
            51.1415505
          ]
        ]
      }
    },
    {
      "type": "Feature",
      "properties": {
        "osm_id": 366824650,
        "electrified": "no",
        "gauge": "1435",
        "railway": "rail",
        "service": "spur"
      },
      "geometry": {
        "type": "LineString",
        "coordinates": [
          [
            17.0795699,
            51.1413846
          ],
          [
            17.08021,
            51.1415854
          ],
          [
            17.0805796,
            51.1417014
          ]
        ]
      }
    },
    {
      "type": "Feature",
      "properties": {
        "osm_id": 366825098,
        "electrified": "contact_line",
        "frequency": "0",
        "gauge": "1435",
        "railway": "rail",
        "railway:track_ref": "3",
        "service": "siding",
        "voltage": "3000"
      },
      "geometry": {
        "type": "LineString",
        "coordinates": [
          [
            17.078357,
            51.1411457
          ],
          [
            17.0769965,
            51.1407231
          ],
          [
            17.070461,
            51.1386929
          ],
          [
            17.0689929,
            51.1382368
          ],
          [
            17.0688278,
            51.138184
          ],
          [
            17.0686911,
            51.1381367
          ],
          [
            17.0685515,
            51.138084
          ],
          [
            17.0682019,
            51.1379419
          ]
        ]
      }
    },
    {
      "type": "Feature",
      "properties": {
        "osm_id": 366825099,
        "electrified": "contact_line",
        "frequency": "0",
        "gauge": "1435",
        "maxspeed": "40",
        "operator": "PKP Polskie Linie Kolejowe",
        "operator:short": "PKP PLK",
        "passenger_lines": "1",
        "railway": "rail",
        "railway:shp": "yes",
        "railway:track_class": "C3",
        "railway:track_ref": "1",
        "ref": "292",
        "usage": "branch",
        "voltage": "3000",
        "workrules": "PL:Ir-1"
      },
      "geometry": {
        "type": "LineString",
        "coordinates": [
          [
            17.0750318,
            51.1408496
          ],
          [
            17.075331,
            51.1408102
          ],
          [
            17.0756655,
            51.1407858
          ],
          [
            17.0760666,
            51.1407784
          ],
          [
            17.0764284,
            51.1407895
          ],
          [
            17.0765658,
            51.1407973
          ],
          [
            17.0767038,
            51.1408111
          ],
          [
            17.0769101,
            51.1408329
          ],
          [
            17.0770216,
            51.1408494
          ],
          [
            17.0772069,
            51.1408811
          ],
          [
            17.077368,
            51.1409114
          ],
          [
            17.0774231,
            51.1409235
          ],
          [
            17.0775487,
            51.1409512
          ],
          [
            17.0778874,
            51.1410292
          ],
          [
            17.0781461,
            51.1410882
          ],
          [
            17.0782513,
            51.1411156
          ],
          [
            17.078357,
            51.1411457
          ],
          [
            17.0785195,
            51.1411973
          ],
          [
            17.0786545,
            51.1412367
          ],
          [
            17.0787665,
            51.141264
          ],
          [
            17.0792085,
            51.1413654
          ],
          [
            17.0796551,
            51.1414691
          ],
          [
            17.0797914,
            51.1415057
          ],
          [
            17.0799432,
            51.1415505
          ]
        ]
      }
    },
    {
      "type": "Feature",
      "properties": {
        "osm_id": 366826604,
        "electrified": "contact_line",
        "frequency": "0",
        "gauge": "1435",
        "railway": "rail",
        "railway:track_ref": "4",
        "service": "siding",
        "voltage": "3000"
      },
      "geometry": {
        "type": "LineString",
        "coordinates": [
          [
            17.0694615,
            51.1382828
          ],
          [
            17.069783,
            51.1383535
          ],
          [
            17.0699385,
            51.1383946
          ],
          [
            17.0700853,
            51.1384341
          ],
          [
            17.0728239,
            51.1392789
          ],
          [
            17.0746252,
            51.1398463
          ],
          [
            17.0795699,
            51.1413846
          ],
          [
            17.079693,
            51.1414263
          ],
          [
            17.0797956,
            51.1414642
          ],
          [
            17.0802165,
            51.1416354
          ]
        ]
      }
    },
    {
      "type": "Feature",
      "properties": {
        "osm_id": 392450213,
        "electrified": "no",
        "gauge": "1435",
        "maxspeed": "40",
        "operator": "PKP Polskie Linie Kolejowe",
        "operator:short": "PKP PLK",
        "passenger_lines": "1",
        "railway": "rail",
        "railway:shp": "yes",
        "railway:track_class": "C3",
        "railway:track_ref": "1",
        "ref": "292",
        "usage": "branch",
        "workrules": "PL:Ir-1"
      },
      "geometry": {
        "type": "LineString",
        "coordinates": [
          [
            17.0090868,
            51.156182
          ],
          [
            17.0092499,
            51.156197
          ],
          [
            17.0096761,
            51.1562374
          ],
          [
            17.0100012,
            51.1562743
          ],
          [
            17.0102741,
            51.1563078
          ],
          [
            17.0109781,
            51.1564281
          ],
          [
            17.0113869,
            51.1564999
          ],
          [
            17.0116293,
            51.1565425
          ],
          [
            17.0116989,
            51.1565543
          ],
          [
            17.0122796,
            51.1566447
          ],
          [
            17.0125593,
            51.1566789
          ],
          [
            17.0129055,
            51.1567063
          ],
          [
            17.0135377,
            51.1567193
          ],
          [
            17.0140264,
            51.1567063
          ],
          [
            17.0145984,
            51.1566482
          ],
          [
            17.0151959,
            51.1565523
          ],
          [
            17.0157541,
            51.1564172
          ],
          [
            17.0163632,
            51.1562226
          ],
          [
            17.0169213,
            51.1559829
          ],
          [
            17.0174146,
            51.1557156
          ],
          [
            17.017894,
            51.1554237
          ],
          [
            17.0184438,
            51.1550819
          ],
          [
            17.0189593,
            51.1547685
          ],
          [
            17.0200084,
            51.1541134
          ],
          [
            17.0216782,
            51.1530849
          ],
          [
            17.0229782,
            51.1522831
          ],
          [
            17.0233573,
            51.1520492
          ],
          [
            17.0239275,
            51.1517012
          ],
          [
            17.0242142,
            51.151548
          ],
          [
            17.0245323,
            51.1513935
          ],
          [
            17.0250201,
            51.1511805
          ],
          [
            17.0253593,
            51.1510561
          ],
          [
            17.0258113,
            51.1509102
          ],
          [
            17.0263123,
            51.1507756
          ],
          [
            17.0268135,
            51.1506596
          ],
          [
            17.0269686,
            51.1506312
          ],
          [
            17.0272573,
            51.1505795
          ],
          [
            17.0278725,
            51.1505037
          ],
          [
            17.0280275,
            51.1504846
          ],
          [
            17.0282804,
            51.15047
          ],
          [
            17.0286214,
            51.1504504
          ],
          [
            17.0287593,
            51.1504425
          ],
          [
            17.0289574,
            51.1504403
          ],
          [
            17.029027,
            51.1504395
          ],
          [
            17.0290464,
            51.1504393
          ],
          [
            17.0291449,
            51.1504357
          ],
          [
            17.0292964,
            51.1504311
          ],
          [
            17.0294612,
            51.1504306
          ],
          [
            17.0295547,
            51.1504298
          ],
          [
            17.0299132,
            51.1504227
          ],
          [
            17.0308642,
            51.1504064
          ],
          [
            17.0320731,
            51.1503861
          ],
          [
            17.0340533,
            51.1503527
          ],
          [
            17.0363626,
            51.1503127
          ],
          [
            17.0369713,
            51.1503022
          ],
          [
            17.0379396,
            51.1502878
          ],
          [
            17.0381201,
            51.1502847
          ],
          [
            17.0385063,
            51.1502894
          ],
          [
            17.0387168,
            51.1502996
          ],
          [
            17.0389733,
            51.1503193
          ],
          [
            17.0393581,
            51.1503618
          ],
          [
            17.0396573,
            51.1504081
          ],
          [
            17.0399934,
            51.1504706
          ],
          [
            17.0403024,
            51.1505422
          ],
          [
            17.0405606,
            51.1506124
          ],
          [
            17.041051,
            51.1507739
          ],
          [
            17.0416687,
            51.1510189
          ],
          [
            17.0423086,
            51.1512853
          ],
          [
            17.0426262,
            51.1514193
          ],
          [
            17.0429984,
            51.1515572
          ],
          [
            17.0432779,
            51.1516591
          ],
          [
            17.0435486,
            51.1517393
          ],
          [
            17.0435713,
            51.1517468
          ],
          [
            17.0436416,
            51.1517634
          ],
          [
            17.0437016,
            51.1517792
          ],
          [
            17.043981,
            51.1518469
          ],
          [
            17.0442856,
            51.1519082
          ],
          [
            17.0446033,
            51.1519619
          ],
          [
            17.0449416,
            51.1520017
          ],
          [
            17.0452832,
            51.1520298
          ],
          [
            17.0455856,
            51.152044
          ],
          [
            17.0458708,
            51.1520478
          ],
          [
            17.0461808,
            51.1520416
          ],
          [
            17.0463801,
            51.1520336
          ],
          [
            17.047063,
            51.1519864
          ],
          [
            17.048221,
            51.1518992
          ],
          [
            17.0487192,
            51.1518582
          ],
          [
            17.0489551,
            51.1518337
          ],
          [
            17.0493693,
            51.1517714
          ],
          [
            17.0497912,
            51.15169
          ],
          [
            17.0499913,
            51.1516452
          ],
          [
            17.0507315,
            51.1514663
          ],
          [
            17.0520052,
            51.1511467
          ],
          [
            17.0526645,
            51.1509874
          ],
          [
            17.0531105,
            51.1508736
          ],
          [
            17.0532959,
            51.1508196
          ],
          [
            17.0535592,
            51.1507279
          ],
          [
            17.0538223,
            51.1506317
          ],
          [
            17.0545389,
            51.15031
          ],
          [
            17.0563361,
            51.1494383
          ],
          [
            17.0589253,
            51.1481918
          ],
          [
            17.0597309,
            51.1478016
          ],
          [
            17.0615855,
            51.1469057
          ],
          [
            17.0618774,
            51.1467651
          ],
          [
            17.0646267,
            51.1454405
          ],
          [
            17.0652025,
            51.1451644
          ],
          [
            17.0655953,
            51.1449895
          ],
          [
            17.0656487,
            51.1449658
          ],
          [
            17.0673622,
            51.1442663
          ],
          [
            17.0695959,
            51.1433622
          ],
          [
            17.0702935,
            51.143056
          ],
          [
            17.07085,
            51.1427541
          ],
          [
            17.0709087,
            51.1427223
          ],
          [
            17.0709721,
            51.1426873
          ],
          [
            17.0717478,
            51.1422588
          ],
          [
            17.0720752,
            51.1420779
          ],
          [
            17.0729451,
            51.1415932
          ],
          [
            17.0734277,
            51.1413373
          ],
          [
            17.073447,
            51.1413289
          ],
          [
            17.073745,
            51.1411988
          ],
          [
            17.0739874,
            51.1411107
          ],
          [
            17.0740549,
            51.1410861
          ],
          [
            17.0743566,
            51.1409941
          ],
          [
            17.0746977,
            51.1409132
          ],
          [
            17.0750318,
            51.1408496
          ]
        ]
      }
    },
    {
      "type": "Feature",
      "properties": {
        "osm_id": 1382245323,
        "electrified": "contact_line",
        "frequency": "0",
        "gauge": "1435",
        "maxspeed": "100",
        "operator": "PKP Polskie Linie Kolejowe",
        "operator:short": "PKP PLK",
        "passenger_lines": "2",
        "railway": "rail",
        "railway:preferred_direction": "forward",
        "railway:shp": "yes",
        "railway:track_class": "D3",
        "railway:track_ref": "1",
        "ref": "143",
        "usage": "main",
        "voltage": "3000",
        "workrules": "PL:Ir-1"
      },
      "geometry": {
        "type": "LineString",
        "coordinates": [
          [
            17.0957048,
            51.1453159
          ],
          [
            17.0936919,
            51.1448607
          ],
          [
            17.0887963,
            51.1437543
          ],
          [
            17.0835306,
            51.1425643
          ],
          [
            17.0827327,
            51.142384
          ],
          [
            17.0823442,
            51.1422932
          ],
          [
            17.0820081,
            51.1422105
          ],
          [
            17.0818033,
            51.1421558
          ],
          [
            17.0816547,
            51.1421152
          ],
          [
            17.081606,
            51.1421013
          ],
          [
            17.0815415,
            51.1420829
          ],
          [
            17.0814204,
            51.1420505
          ],
          [
            17.0811642,
            51.1419748
          ],
          [
            17.0809063,
            51.141897
          ]
        ]
      }
    },
    {
      "type": "Feature",
      "properties": {
        "osm_id": 1382245324,
        "electrified": "contact_line",
        "frequency": "0",
        "gauge": "1435",
        "maxspeed": "100",
        "operator": "PKP Polskie Linie Kolejowe",
        "operator:short": "PKP PLK",
        "passenger_lines": "2",
        "railway": "rail",
        "railway:preferred_direction": "both",
        "railway:shp": "yes",
        "railway:track_class": "D3",
        "railway:track_ref": "2",
        "ref": "143",
        "usage": "main",
        "voltage": "3000",
        "workrules": "PL:Ir-1"
      },
      "geometry": {
        "type": "LineString",
        "coordinates": [
          [
            17.0799432,
            51.1415505
          ],
          [
            17.0694615,
            51.1382828
          ],
          [
            17.0680224,
            51.1378345
          ],
          [
            17.0679643,
            51.1378168
          ],
          [
            17.0679055,
            51.1377983
          ],
          [
            17.0674648,
            51.1376624
          ]
        ]
      }
    },
    {
      "type": "Feature",
      "properties": {
        "osm_id": 1553978519,
        "electrified": "contact_line",
        "frequency": "0",
        "gauge": "1435",
        "maxspeed": "100",
        "operator": "PKP Polskie Linie Kolejowe",
        "operator:short": "PKP PLK",
        "passenger_lines": "2",
        "railway": "rail",
        "railway:preferred_direction": "both",
        "railway:shp": "yes",
        "railway:track_class": "D3",
        "railway:track_ref": "1",
        "ref": "143",
        "usage": "main",
        "voltage": "3000",
        "workrules": "PL:Ir-1"
      },
      "geometry": {
        "type": "LineString",
        "coordinates": [
          [
            17.0809063,
            51.141897
          ],
          [
            17.0792085,
            51.1413654
          ],
          [
            17.0757155,
            51.1402797
          ],
          [
            17.0686163,
            51.138073
          ],
          [
            17.0682019,
            51.1379419
          ]
        ]
      }
    }
  ]
}
