{"type": "FeatureCollection", "features": [{"type": "Feature", "properties": {"district": 1, "name": "Okręg 1", "variant": "wariant-spojny-v6-polnoc-do-3", "crs": "EPSG:4326"}, "geometry": {"type": "Polygon", "coordinates": [[[17.076090654296916, 51.14034945784138], [17.07609769896545, 51.14034710589118], [17.076098367908948, 51.140346882839104], [17.07611364774536, 51.14035163769571], [17.0764585174076, 51.14045933604885], [17.076686210275714, 51.14053044023531], [17.076746786282268, 51.14054935706441], [17.077014201133714, 51.14063450492425], [17.077054383620197, 51.14064662450834], [17.077253836058773, 51.14070678459324], [17.07732200239794, 51.14072833743456], [17.0775622906268, 51.14080431006461], [17.077767047380497, 51.14086748936698], [17.07790669105348, 51.14091057736179], [17.07826508306819, 51.14102116105209], [17.07847341336439, 51.14108761792128], [17.07849434153686, 51.141094151967], [17.07873336708683, 51.14116877816666], [17.079133039975986, 51.14129355803102], [17.079328581773833, 51.14135460609989], [17.07983611458507, 51.14151305637559], [17.07991391548284, 51.1415373929693], [17.08002769913755, 51.14157298528865], [17.08009364707716, 51.14159361379936], [17.08022994156635, 51.14163624655181], [17.080341672141834, 51.141670976494424], [17.080535938430103, 51.14173136075457], [17.080630447065705, 51.1417607374496], [17.0807539703793, 51.14179598442346], [17.080799, 51.141808], [17.0811424, 51.1418883], [17.081559, 51.1419831], [17.08161985690813, 51.1419971149603], [17.08162041051152, 51.14199469313273], [17.081622682790552, 51.141984751374906], [17.08163174190883, 51.141944983208546], [17.081633852099973, 51.14193571979298], [17.08164590276173, 51.14188281700784], [17.081646258176757, 51.14188125380669], [17.081654799203896, 51.1418437550449], [17.08165942648372, 51.141823446068955], [17.081672078316302, 51.14176789875941], [17.081696836877306, 51.1416592081744], [17.081702818004768, 51.141628498946204], [17.081703000956644, 51.14162756096729], [17.081711321033787, 51.141584843788145], [17.081716592658204, 51.141557769784704], [17.081728268397608, 51.141497824272214], [17.081751640586518, 51.141377821034524], [17.081755212531327, 51.14135732667221], [17.08176134177135, 51.14132217323476], [17.081792336946894, 51.14114436723675], [17.081818800782212, 51.14097597913815], [17.081829167965704, 51.140910018269956], [17.081839192071435, 51.140854218373526], [17.081844846629732, 51.14082274425078], [17.081877106423942, 51.140643034254474], [17.08188755361891, 51.14060897907486], [17.081926669913386, 51.14048147887602], [17.081997606767327, 51.14025025355634], [17.08200522738858, 51.140225411217614], [17.082027720900545, 51.140105833406885], [17.08204310422038, 51.140024050591734], [17.082050597454796, 51.139942726345495], [17.082053833142485, 51.13990761489991], [17.082056905046656, 51.139874276720214], [17.082061171645528, 51.139827966001846], [17.082060921400366, 51.13982523658598], [17.082045654426732, 51.13965877456185], [17.081922514372085, 51.13935388699266], [17.081862997744473, 51.13920652730558], [17.0816597858937, 51.13869429415985], [17.08132108994096, 51.13786902673071], [17.08100515036092, 51.13684458209498], [17.08059880736018, 51.135763203677904], [17.08016987872043, 51.13466759067284], [17.079786129329623, 51.13367157869821], [17.07931203551619, 51.132547495171174], [17.07892830129305, 51.1315799349479], [17.078680021758647, 51.13093963761621], [17.07858181787457, 51.13072638120982], [17.07855509262936, 51.13058774188211], [17.078523646421424, 51.130306353019414], [17.078492444440037, 51.12974452433924], [17.0784892769463, 51.1295836603247], [17.07833506895002, 51.127607545611795], [17.07795406713656, 51.12762349416798], [17.077950063491542, 51.127623665537556], [17.07345055775739, 51.12781625963134], [17.070638186114337, 51.12796013661428], [17.067768297181384, 51.12811349585027], [17.067761419605436, 51.12811386336965], [17.066039578602798, 51.12819263626878], [17.0643454464776, 51.128380535817314], [17.06178157258628, 51.12884727484869], [17.060456964541984, 51.12936631663698], [17.05940847297705, 51.129777163407255], [17.059284564352367, 51.12982571645237], [17.059005192104717, 51.129993266445865], [17.058827757449404, 51.13009968064983], [17.058185192166757, 51.13048505110029], [17.056983975453416, 51.13120546572341], [17.056261176530377, 51.131638955291066], [17.05623515578813, 51.13165456090412], [17.056204740484922, 51.131672802099864], [17.059803, 51.1339131], [17.0616618, 51.1350704], [17.0619958, 51.1352749], [17.0623248, 51.1354712], [17.0626979, 51.1356832], [17.0630428, 51.135868], [17.0634155, 51.136062], [17.0637946, 51.1362521], [17.0641676, 51.136424], [17.0645468, 51.136594], [17.0649198, 51.1367514], [17.0653363, 51.1369226], [17.06574, 51.1370782], [17.0661447, 51.1372256], [17.0665386, 51.1373644], [17.0669511, 51.1374988], [17.0674648, 51.1376624], [17.0679055, 51.1377983], [17.0679643, 51.1378168], [17.0680224, 51.1378345], [17.0694615, 51.1382828], [17.076090654296916, 51.14034945784138]], [[17.06165005184616, 51.13280542603365], [17.061650050151894, 51.132805426883365], [17.061650049451053, 51.132805426482], [17.061650050151894, 51.13280542688336], [17.06165005184616, 51.13280542603365]], [[17.061923425620094, 51.13206610913889], [17.06238504002432, 51.132244541278084], [17.061936107215764, 51.13207101111728], [17.061923425620094, 51.13206610913889]], [[17.06259902994366, 51.13232853144599], [17.062599026370634, 51.13232853324614], [17.06259902994365, 51.13232853144599], [17.06259902994366, 51.13232853144599]], [[17.061970442590653, 51.13219180193425], [17.061977277478782, 51.13220070256802], [17.06197727747878, 51.13220070256802], [17.061970442590653, 51.132191801934255], [17.06194145150223, 51.13216931103071], [17.06192975229766, 51.132163553711244], [17.06194145150223, 51.1321693110307], [17.061970442590653, 51.13219180193425]], [[17.06188328792756, 51.13219886090023], [17.061883287927554, 51.13219886090023], [17.06192975229766, 51.132163553711244], [17.06188328792756, 51.13219886090023]], [[17.061637963486362, 51.13195595222206], [17.06163796348636, 51.13195595222206], [17.061676153765433, 51.1319108519449], [17.061637963486362, 51.13195595222206]], [[17.06074885822316, 51.13228932463579], [17.060748858223167, 51.132289324635785], [17.06074885951001, 51.13228932537275], [17.06074885822316, 51.13228932463579]], [[17.061366210989746, 51.13185110964457], [17.06150208723805, 51.131903530933315], [17.061366210989746, 51.13185110964458], [17.061340543288964, 51.13187402050185], [17.061366210989746, 51.13185110964457]], [[17.06095282554271, 51.1321488329545], [17.061109276162124, 51.132040041191615], [17.061009251231873, 51.13210959605648], [17.06095282554271, 51.1321488329545]]]}}, {"type": "Feature", "properties": {"district": 2, "name": "Okręg 2", "variant": "wariant-spojny-v6-polnoc-do-3", "crs": "EPSG:4326"}, "geometry": {"type": "MultiPolygon", "coordinates": [[[[17.06726876378523, 51.144300274603374], [17.06740689551918, 51.14424438998217], [17.067867485945257, 51.14405804351627], [17.068087206685522, 51.143969148462766], [17.068478472160812, 51.143810845891764], [17.068480642091114, 51.14380996780776], [17.06864722625743, 51.1437425696816], [17.06873753150501, 51.143706032161894], [17.06885837965561, 51.14365713698286], [17.069027551252933, 51.14358737396829], [17.069042774692864, 51.14358109632982], [17.06914515238855, 51.14353887785683], [17.06919384603992, 51.143519646438584], [17.06936515363377, 51.14345199092292], [17.069401859077445, 51.14343691432153], [17.069478301773913, 51.143405515870654], [17.069494575565447, 51.1433988078365], [17.069638575317676, 51.14333944963111], [17.069761985778474, 51.14328712098811], [17.069779384774947, 51.143279744046204], [17.069837759561526, 51.143254991519775], [17.06987430591787, 51.14323949548768], [17.06989475342979, 51.14323082489359], [17.06998765629252, 51.14318838110777], [17.070057471442922, 51.14315648459207], [17.07012356669218, 51.1431262880633], [17.07018439840804, 51.14309673556033], [17.07025644210929, 51.14306173724339], [17.070301828737513, 51.14303968779732], [17.070450995218607, 51.14296183755265], [17.070487800056355, 51.142942628870586], [17.07056327848304, 51.142903235665834], [17.070660211573365, 51.14284968792594], [17.07071411169311, 51.14281991196326], [17.07082743638842, 51.14275730872528], [17.070899583751405, 51.142717451944115], [17.07094211918691, 51.142693954744665], [17.070986596831215, 51.142669383414635], [17.070994559379898, 51.14266498511177], [17.07103121984282, 51.142645470363945], [17.071062797032962, 51.142628660661984], [17.071117654017257, 51.142599459358976], [17.071122399256577, 51.14259693320502], [17.071287177278798, 51.142504970811295], [17.071321989395482, 51.14248554197917], [17.071461559846302, 51.14240764751306], [17.07147852720235, 51.14239817770315], [17.071715770112604, 51.14226819842346], [17.071792897207647, 51.14222594262989], [17.071880382985135, 51.142178011133474], [17.07206835451841, 51.142073508676646], [17.072097324486272, 51.14205740347284], [17.07212632479998, 51.14204128052339], [17.072229018712218, 51.1419841876314], [17.072978404023974, 51.14159478499339], [17.07361944834054, 51.14127827485046], [17.07516131335046, 51.140659727611414], [17.075207438373855, 51.14064432813496], [17.075210107061658, 51.140643437183805], [17.075273892463322, 51.14062214219486], [17.07530988377005, 51.14061012715533], [17.075413587829384, 51.140575504534475], [17.0754577187679, 51.14056077060895], [17.075548644854088, 51.140530414016744], [17.075595501867195, 51.140514770261916], [17.075652715395293, 51.14049566912539], [17.07567620931162, 51.14048782617134], [17.075701077121664, 51.14047952301416], [17.075733906149967, 51.140468563405804], [17.07577754343615, 51.14045399446362], [17.075814891111076, 51.14044152522392], [17.075876414527492, 51.14042098463551], [17.075887747863355, 51.140417200556094], [17.075946399756578, 51.140397618908864], [17.075958229386877, 51.14039366973887], [17.075959623394088, 51.14039320430253], [17.076025875372338, 51.14037108466047], [17.076063220020735, 51.14035861711568], [17.076090654296916, 51.14034945784138], [17.0694615, 51.1382828], [17.0680224, 51.1378345], [17.0679643, 51.1378168], [17.0679055, 51.1377983], [17.0674648, 51.1376624], [17.0669511, 51.1374988], [17.0665386, 51.1373644], [17.0661447, 51.1372256], [17.06574, 51.1370782], [17.0653363, 51.1369226], [17.0649198, 51.1367514], [17.0645468, 51.136594], [17.0641676, 51.136424], [17.0637946, 51.1362521], [17.0634155, 51.136062], [17.0630428, 51.135868], [17.0626979, 51.1356832], [17.0623248, 51.1354712], [17.0619958, 51.1352749], [17.0616618, 51.1350704], [17.059803, 51.1339131], [17.056204740484922, 51.131672802099864], [17.056166253138162, 51.13169588440225], [17.055254564192975, 51.13224261347201], [17.053163734137332, 51.13322871446931], [17.053061196523107, 51.13327063273381], [17.05293656948429, 51.13331834924438], [17.05247326086721, 51.13349117106174], [17.052205784857634, 51.1335755343983], [17.051919125765078, 51.13365482157679], [17.051578404530574, 51.13373874429262], [17.051132175348727, 51.13383933983517], [17.050729467771966, 51.13391943186462], [17.05026039670283, 51.13400226840775], [17.049714488885748, 51.134098546649895], [17.049385799318507, 51.13414977999847], [17.04887052070014, 51.13420529698519], [17.04869010857481, 51.13422184663034], [17.04818385624047, 51.13425662477628], [17.0478628563742, 51.13426834219624], [17.047535892680024, 51.13427275461749], [17.046841311655523, 51.134281321799946], [17.04657909300144, 51.13427598494391], [17.045942423386037, 51.13426043309744], [17.045103927061447, 51.134208562327956], [17.044798708338988, 51.134188828533006], [17.04450315658633, 51.13416393734894], [17.044088620725308, 51.13413429727193], [17.043774489909364, 51.13408634045259], [17.0434948148604, 51.1340483158933], [17.04303279722134, 51.133976623858636], [17.042669453349067, 51.13392242796429], [17.042342321040834, 51.13386214211957], [17.041776622583722, 51.13374480779019], [17.04155770399839, 51.133691887892006], [17.041248353504486, 51.13361966170936], [17.04097735401428, 51.13354518535635], [17.040594474470836, 51.13344884739234], [17.038793901052713, 51.132996039295506], [17.03665719827777, 51.13250391627924], [17.03658906524185, 51.13248822171225], [17.03610596723722, 51.13336659135254], [17.03606202722932, 51.13344159848035], [17.03600504962868, 51.13358341893575], [17.035994999884053, 51.133699013215605], [17.036001166475895, 51.133748012733484], [17.036020208339654, 51.13381065680426], [17.036060516998518, 51.13389016995788], [17.036109691141238, 51.1339872050911], [17.03618109023011, 51.134084612151554], [17.03633208382232, 51.13431339366135], [17.03639243448602, 51.13440483929818], [17.036492571376794, 51.1345652756914], [17.036558610510248, 51.13467108862444], [17.036607182614336, 51.13476693193611], [17.03663929618195, 51.134863385791604], [17.036661995560042, 51.13495975310001], [17.036678270304765, 51.135081966679074], [17.036662171505125, 51.13549098024104], [17.03663465757415, 51.135850465634476], [17.03660293842142, 51.1360494780081], [17.03659985475261, 51.13606170550407], [17.036571785555388, 51.13617252346872], [17.036470993688024, 51.13651635642502], [17.036398475415915, 51.13671000736633], [17.03632519466322, 51.13686475374745], [17.03622651691305, 51.13701286318829], [17.036057547264264, 51.1372084518818], [17.035915779778414, 51.13735479451581], [17.03573483021596, 51.137501820767426], [17.03553699484986, 51.13765339109645], [17.035373988649237, 51.137751130664704], [17.035091778474655, 51.13790719130897], [17.03475698262515, 51.138079627926516], [17.034311283096145, 51.13829864921259], [17.03402917014769, 51.138466835141074], [17.034000117946444, 51.1384853925412], [17.033872973337314, 51.13856666052464], [17.033778775720794, 51.138626922066685], [17.033757569148218, 51.13864338670805], [17.033554348205826, 51.138801174978795], [17.03336235438769, 51.138972117654795], [17.033166188887346, 51.13916894269251], [17.033045721553993, 51.13931826269761], [17.033037091812265, 51.13932963647653], [17.0332, 51.13935], [17.036, 51.1398], [17.0388, 51.14015], [17.0403, 51.14072], [17.04084874036497, 51.14090291345499], [17.0412, 51.14102], [17.0417, 51.14125], [17.044, 51.1422], [17.047, 51.1428], [17.051, 51.1429], [17.056, 51.1427], [17.0607, 51.143], [17.066, 51.14345], [17.067129431317536, 51.14435664448426], [17.066959386170304, 51.14442543982575], [17.06726876378523, 51.144300274603374]], [[17.06045085244991, 51.139867896915284], [17.060086904497243, 51.13996712678759], [17.0599207440893, 51.140012429655556], [17.06045085244991, 51.139867896915284]], [[17.06126079365789, 51.1414417643834], [17.06112338331665, 51.14122081650608], [17.06135443919705, 51.141592339715764], [17.06126079365789, 51.1414417643834]]], [[[17.081559, 51.1419831], [17.0811424, 51.1418883], [17.080799, 51.141808], [17.0807539703793, 51.14179598442346], [17.081609997524883, 51.14204024897195], [17.08161316653152, 51.14202638309487], [17.08161985690813, 51.1419971149603], [17.081559, 51.1419831]]]]}}, {"type": "Feature", "properties": {"district": 3, "name": "Okręg 3", "variant": "wariant-spojny-v6-polnoc-do-3", "crs": "EPSG:4326"}, "geometry": {"type": "Polygon", "coordinates": [[[17.02965252611986, 51.15042225691503], [17.029934765286644, 51.15041756549831], [17.030010324452405, 51.15041630971669], [17.030262002438963, 51.15041212637899], [17.030400232290674, 51.15040982843172], [17.030585030132382, 51.150406755735055], [17.030642014399646, 51.15040580855696], [17.030752102392054, 51.15040397814933], [17.030861425424302, 51.15040216017795], [17.031139111806482, 51.15039754229985], [17.031244833080326, 51.15039578403126], [17.031738352869105, 51.15038757549197], [17.031808770312708, 51.150386403636226], [17.03234099815765, 51.150377547477774], [17.032402114546574, 51.15037653114631], [17.03285398467971, 51.15036900984237], [17.032980681351052, 51.1503669011475], [17.033194269831974, 51.150363344986395], [17.0331942702193, 51.150363344979944], [17.03338853421541, 51.150360110581715], [17.033461169236052, 51.150358901221125], [17.033479265068994, 51.150358600376656], [17.03353039985117, 51.15035774818725], [17.03380505025585, 51.150353175305895], [17.034079193047972, 51.150348609274154], [17.034323891461284, 51.150344533056995], [17.034463402401027, 51.150342125817964], [17.03473796315439, 51.15033738729375], [17.034881769298508, 51.15033490532932], [17.034887585885556, 51.15033480499578], [17.034973419169344, 51.150333323338785], [17.03515949850546, 51.15033011105346], [17.035289638203, 51.150327864648325], [17.03530872227769, 51.150327534814366], [17.035488034127486, 51.150324439688916], [17.03634916579803, 51.15030166840395], [17.03692158530011, 51.15028653166232], [17.036921585445157, 51.150286531658885], [17.03718723717117, 51.15028024782388], [17.03748098770465, 51.150272124305], [17.03778363936261, 51.150263754143786], [17.038068468567594, 51.150262745664016], [17.03838955740722, 51.15026294615376], [17.03878199856495, 51.15026318919428], [17.0391104923252, 51.15027311241266], [17.039411544277694, 51.15028938705093], [17.039594343153265, 51.150319345768345], [17.039889903594673, 51.150373045559], [17.040137176797018, 51.15042024617721], [17.040393276631775, 51.150475439451164], [17.040804117771618, 51.15059192593094], [17.041465682209907, 51.15083818430728], [17.041621940270502, 51.15090630085672], [17.04174444086465, 51.15095970239019], [17.041765380526048, 51.15097110019056], [17.041902789623244, 51.1510458940549], [17.041918273567646, 51.151054322811184], [17.0419234297057, 51.15105712935722], [17.04198868288136, 51.15109264788118], [17.041991710412947, 51.15109429620554], [17.04205707818572, 51.151129876758944], [17.042076777016675, 51.15114059910776], [17.042149855705766, 51.15117924439701], [17.042281808247125, 51.151249022759124], [17.04231628702399, 51.15126725556093], [17.042376225127516, 51.151295656408344], [17.042512046891634, 51.151360013077884], [17.042608592411305, 51.151402784938455], [17.04267892384626, 51.15143394331799], [17.04275634924814, 51.15146531073844], [17.04282590207056, 51.15149348888778], [17.042944587744557, 51.15153949812329], [17.043010892048255, 51.15156248414093], [17.0431451825595, 51.15160904066315], [17.04321866107225, 51.15163451335061], [17.043353554033484, 51.151677876949705], [17.043375210598928, 51.15168443221626], [17.043453054143633, 51.15170799330288], [17.043497022187644, 51.151721301528575], [17.04350472352149, 51.15172329810924], [17.04350472378945, 51.15172329817871], [17.043646659736034, 51.15176009457689], [17.043735152288072, 51.15178303596074], [17.04380381718436, 51.151800836730594], [17.043856867022825, 51.15181458943721], [17.04391552907935, 51.1518274198122], [17.044068173507362, 51.15186080626409], [17.044070998797498, 51.151861387610495], [17.04419684154408, 51.15188728942952], [17.044334167320002, 51.1519134323659], [17.0443463377353, 51.15191574954521], [17.044367829388662, 51.151919228827545], [17.04452053899395, 51.151943952815955], [17.044547258701346, 51.151947669847836], [17.044714776178758, 51.15197097102402], [17.044803347550726, 51.15198169354097], [17.044858911437736, 51.151988419354936], [17.044923421348987, 51.151994682410105], [17.045032504240474, 51.15200527198524], [17.045160031044674, 51.15201590055553], [17.04520828669358, 51.152019921794434], [17.04531560581772, 51.1520260108844], [17.045425491998426, 51.152032244882996], [17.04547793732121, 51.15203522054939], [17.045551950921265, 51.15203783012019], [17.045613615116256, 51.15204000446427], [17.0457140150644, 51.15204212714242], [17.045784418331664, 51.152043615769685], [17.045785337025336, 51.152043634951056], [17.04595784264908, 51.152043226247], [17.046037017409493, 51.152041000737164], [17.04607938581843, 51.15203980995943], [17.0461839295454, 51.15203687160894], [17.046335385652192, 51.1520299682898], [17.046337079639233, 51.15202989040746], [17.046370927622952, 51.15202834777892], [17.04637832158735, 51.15202801072137], [17.046538134500125, 51.152018366914604], [17.04658865573935, 51.152015317733195], [17.04660457305569, 51.152014357037245], [17.04680555021069, 51.15199931391267], [17.046984469411964, 51.151985921905485], [17.04715278193106, 51.151973323302556], [17.047409641926937, 51.151954095729046], [17.047486642326998, 51.15194833209199], [17.04750722305578, 51.151946844701875], [17.047784611165735, 51.151926795513475], [17.04797602449171, 51.15191295983336], [17.048172088652713, 51.15189878771934], [17.048192719699426, 51.15189714509768], [17.048329945437864, 51.15188622100029], [17.04852891385257, 51.15187038097059], [17.048695329250968, 51.15185713184776], [17.048746936823967, 51.15185302350197], [17.04893532282889, 51.1518313667301], [17.048946677424382, 51.151830061169974], [17.049048551658505, 51.151815796800015], [17.049093768377116, 51.151809466246775], [17.049268217897463, 51.151780983085004], [17.049276913334634, 51.151779563285025], [17.049363900104925, 51.15176448273207], [17.049464686486463, 51.151747009751745], [17.049626943088914, 51.151715880206716], [17.049698344026567, 51.1517021812233], [17.049741502281247, 51.151693900926645], [17.049958343852314, 51.151646098134776], [17.05000182467353, 51.1516365132711], [17.050063600045842, 51.15162170028014], [17.05028992743963, 51.15156743036789], [17.05042166543415, 51.15153584066164], [17.050471653149078, 51.15152350818244], [17.05063675826982, 51.151482773376685], [17.05078936871155, 51.15144512196318], [17.050981707415787, 51.15139766769097], [17.051108353183558, 51.15136642155064], [17.051243032390378, 51.15133319260115], [17.051416016014276, 51.151290513221525], [17.051551868487017, 51.151256994976976], [17.05156232131885, 51.15125441611216], [17.05168471538118, 51.1512242172234], [17.05173378874149, 51.15121210962384], [17.05175142462555, 51.151207758690205], [17.051770433922634, 51.15120306829291], [17.05180634928727, 51.15119420711931], [17.051881989892244, 51.15117554384407], [17.051892194143477, 51.151173026761136], [17.05201582468956, 51.1511425229128], [17.052017851754933, 51.151142022438705], [17.05205710427156, 51.15113233781724], [17.0520714890571, 51.15112878843086], [17.05207810896513, 51.151127154729245], [17.052093707680708, 51.15112330593529], [17.052113058805126, 51.151118531952314], [17.052146961360307, 51.15111016677083], [17.05215796865389, 51.15110745120904], [17.052188696288244, 51.15109986935284], [17.052210843060593, 51.15109440423207], [17.052227286471325, 51.15109034741313], [17.05223408019293, 51.151088671062], [17.052241029049604, 51.15108695731215], [17.052242593524877, 51.151086570849856], [17.052294374606358, 51.15107379455324], [17.052313047633827, 51.15106918674472], [17.05237077477768, 51.151054943840116], [17.05238752416233, 51.15105081126794], [17.052419123737803, 51.151043014371886], [17.052438053876376, 51.15103834390118], [17.052466708411725, 51.15103127286802], [17.052551703630474, 51.151010301793825], [17.05257964125222, 51.151003408314104], [17.05260248467571, 51.15099777166673], [17.05270773584192, 51.15097180270798], [17.0527195102247, 51.1509688973324], [17.052732024460166, 51.150965809165506], [17.052771536710374, 51.15095605988515], [17.052782401713763, 51.150953379070934], [17.052937323611513, 51.150913101530016], [17.05294772246771, 51.15091021915434], [17.05297656725273, 51.150902225403804], [17.053026738722973, 51.15088832013891], [17.05307846696968, 51.15087398336866], [17.05312502453395, 51.15086107901471], [17.05314721223456, 51.15085492993811], [17.053258948748418, 51.15082185364958], [17.053448733875758, 51.15076119047977], [17.053486668536838, 51.15074791235002], [17.05361792087678, 51.150701969482185], [17.053714829654595, 51.15066563540496], [17.053756488349173, 51.1506488948486], [17.0537564889294, 51.150648894615436], [17.053813668482505, 51.150625916985746], [17.053949625984277, 51.150571282885885], [17.0542782264355, 51.15042456872005], [17.054280771421624, 51.15042334153822], [17.054305604899593, 51.15041136588566], [17.054392319191493, 51.15036954695738], [17.05447976232648, 51.15032737606988], [17.054604656661095, 51.15026714473346], [17.05494663298065, 51.15010222225028], [17.054978169898387, 51.150087013113385], [17.05529943764359, 51.14993207516063], [17.055716588689258, 51.14973089204423], [17.056098120623837, 51.14954688413848], [17.05659558758553, 51.149306959791126], [17.056774003637507, 51.14922090903103], [17.056861762859764, 51.14917858339522], [17.057097107009618, 51.149065075699525], [17.05721482920026, 51.149008296008546], [17.05742396411949, 51.148907428855445], [17.057701487571467, 51.1487735747316], [17.05774342277034, 51.14875334791143], [17.057921047867946, 51.14866767558724], [17.05833460798592, 51.1484682045102], [17.058456524610754, 51.14840940051599], [17.05887632725693, 51.14820691321749], [17.0590754189188, 51.1481108832248], [17.05931416445189, 51.147995724573185], [17.059636104699194, 51.1478404367399], [17.059742104647256, 51.147789306430965], [17.059870559147857, 51.14772734512763], [17.06010365998274, 51.147614906502014], [17.060169498323486, 51.147583148427756], [17.060486412831327, 51.147430278334916], [17.060716758197294, 51.147319165698605], [17.060780408665323, 51.14728846215048], [17.06101741691949, 51.14717413472188], [17.061234290425705, 51.14706951848845], [17.06145004002691, 51.14696544389891], [17.061787715613455, 51.146802551639745], [17.06179930266662, 51.14679696224507], [17.0619318853548, 51.146733004636914], [17.062012636503923, 51.1466940502763], [17.06219898512583, 51.146604155176696], [17.062295631050603, 51.146557533163566], [17.062538437928726, 51.14644040121328], [17.06271999707373, 51.14635281498625], [17.062884843596365, 51.146273290413056], [17.06302190037815, 51.14620717215341], [17.063191661708622, 51.14612527550455], [17.06320123214964, 51.14612065867751], [17.06335411364045, 51.146046905136366], [17.063440683142662, 51.14600514218116], [17.063517768723344, 51.14596795355823], [17.063704511294794, 51.145877863245566], [17.06402466136871, 51.14572341203164], [17.064088540165383, 51.1456925943686], [17.06418754637123, 51.145644829121984], [17.06421134857269, 51.14563334653832], [17.064621334404393, 51.14543569722106], [17.064795154421486, 51.145351899737705], [17.064885008376002, 51.14530858160225], [17.065152179740334, 51.145181523909606], [17.06529925858834, 51.14511157710081], [17.0653357017493, 51.14509553688762], [17.06558474122611, 51.14498591791293], [17.065726606563622, 51.1449274437257], [17.06584152503418, 51.14488007567597], [17.06587200759542, 51.14486767882792], [17.06621900680906, 51.14472655551525], [17.066383636450066, 51.144659600774766], [17.066712898649296, 51.14452568792664], [17.06692279164624, 51.14444032327038], [17.066959386170304, 51.14442543982575], [17.067129431317536, 51.14435664448426], [17.066, 51.14345], [17.0607, 51.143], [17.056, 51.1427], [17.051, 51.1429], [17.047, 51.1428], [17.044, 51.1422], [17.0417, 51.14125], [17.0412, 51.14102], [17.04084874036497, 51.14090291345499], [17.040833445650552, 51.140969000992406], [17.040822587369316, 51.140992329963524], [17.040833445650552, 51.1409690009924], [17.040848740364968, 51.14090291345499], [17.0403, 51.14072], [17.0388, 51.14015], [17.036, 51.1398], [17.0332, 51.13935], [17.033037091812265, 51.13932963647653], [17.032898497233678, 51.13951230058711], [17.03278488410876, 51.13970485429017], [17.03272925709011, 51.13983664098414], [17.032721454532222, 51.13985511311137], [17.032661723270607, 51.13991646900162], [17.032602790560258, 51.13997962681974], [17.032544648080922, 51.14004456779109], [17.03248307408532, 51.140108933718], [17.032422741830096, 51.14017810917068], [17.032370215173884, 51.140250591353336], [17.03233138724803, 51.140330833921524], [17.032306708025644, 51.140421517763926], [17.03227850659126, 51.140511250986535], [17.03225020644524, 51.14060104417903], [17.03222190629922, 51.14069083737152], [17.03219457465203, 51.140780924549354], [17.032167445625085, 51.140871073232034], [17.03214031659813, 51.14096122191472], [17.032113187571184, 51.14105137059741], [17.032086058544234, 51.1411415192801], [17.03206021946936, 51.141232048093265], [17.03203455732868, 51.141322629046414], [17.032008895187992, 51.14141320999956], [17.031983233047306, 51.14150379095271], [17.031957570906624, 51.14159437190587], [17.03193190876594, 51.14168495285901], [17.031905955652345, 51.14177544960132], [17.031877378736922, 51.141865077686006], [17.031845942955787, 51.14195371213725], [17.03181450717465, 51.14204234658849], [17.031783527006596, 51.14213114493617], [17.031755842388968, 51.14222112878322], [17.031728157771333, 51.14231111263025], [17.031700473153705, 51.14240109647729], [17.03167278853607, 51.14249108032433], [17.031645103918443, 51.142581064171374], [17.031617794543482, 51.142671159520845], [17.03159105304696, 51.14276142601503], [17.03156473617868, 51.14285182055842], [17.0315384193104, 51.14294221510181], [17.03151210244212, 51.143032609645196], [17.031485785573842, 51.14312300418859], [17.031459468173036, 51.14321339857631], [17.03143278285161, 51.14330368290872], [17.03140583652575, 51.143393889228555], [17.031379139580658, 51.14348417075941], [17.031352654928533, 51.14357451612115], [17.031326179963564, 51.14366486434624], [17.031299373398085, 51.14375511315187], [17.031272022131322, 51.14384519980987], [17.03124461665154, 51.143935270339455], [17.03121721117176, 51.14402534086905], [17.03118980569198, 51.14411541139864], [17.031162400212203, 51.144205481928225], [17.03113499473242, 51.14429555245782], [17.031107589252642, 51.14438562298741], [17.03108017014172, 51.144475689322306], [17.03105252669232, 51.144565686436785], [17.031025484257917, 51.14465586180259], [17.030998487161007, 51.1447460509027], [17.03097208933797, 51.144836421543644], [17.03094569151493, 51.14492679218459], [17.03091929120383, 51.14501716208993], [17.0308928425376, 51.14510751769862], [17.03086639387137, 51.14519787330731], [17.030839392631442, 51.145288059142246], [17.0308120544204, 51.145378141478005], [17.030784715870805, 51.14546822371268], [17.03075659755067, 51.145558073164565], [17.030728479230543, 51.14564792261645], [17.03070036091041, 51.14573777206832], [17.030672519615436, 51.14582770617756], [17.030645422110265, 51.14591786758486], [17.030618324605094, 51.14600802899217], [17.030590529796978, 51.1460979795407], [17.03056267132917, 51.14618791083906], [17.03053481286136, 51.14627784213741], [17.03050695439355, 51.14636777343577], [17.03047792940908, 51.146457328548024], [17.030448862488562, 51.14654687013646], [17.030419795568044, 51.1466364117249], [17.030390540378768, 51.14672589408599], [17.030361244522005, 51.14681536365351], [17.030332023411027, 51.14690485585514], [17.030303913361255, 51.14699468450227], [17.03027602002114, 51.14708458493156], [17.030248399682357, 51.14717457578891], [17.030220779343566, 51.14726456664626], [17.03019246216627, 51.147354346307154], [17.030163962765407, 51.14744407303311], [17.030135773098813, 51.14753389579724], [17.030107583432216, 51.14762371856136], [17.030079393765618, 51.14771354132549], [17.03005291229558, 51.147803875303325], [17.03002663923614, 51.14789427870916], [17.029999983192766, 51.147984569635], [17.02997332714939, 51.14807486056084], [17.0299459964545, 51.148164936126406], [17.029918346454938, 51.14825491086414], [17.029890915142154, 51.14834495752414], [17.029863483829367, 51.14843500418414], [17.02983660966003, 51.1485252245337], [17.029810222702118, 51.14861559677151], [17.029783835744208, 51.14870596900933], [17.0297574487863, 51.148796341247134], [17.029731061828386, 51.14888671348494], [17.02970416889537, 51.14897693765504], [17.029677160487292, 51.14906712803271], [17.02965015207921, 51.149157318410374], [17.029623143671124, 51.14924750878804], [17.02959613526304, 51.1493376991657], [17.02956912685496, 51.14942788954337], [17.029542118446876, 51.14951807992104], [17.029515110038794, 51.1496082702987], [17.02948810163071, 51.14969846067636], [17.02946423417022, 51.14978940159124], [17.029440996920556, 51.14988049128324], [17.029417759670892, 51.14997158097523], [17.029395119332754, 51.150062777506065], [17.029373637911394, 51.15015418146683], [17.029352156490035, 51.1502455854276], [17.029330675068675, 51.150336989388364], [17.029309498193754, 51.15042795664227], [17.0294202650853, 51.15042611642632], [17.029488143262217, 51.15042498782367], [17.029652525298122, 51.15042225692868], [17.02965252611986, 51.15042225691503]], [[17.039795854190643, 51.140528424592446], [17.039760500168292, 51.14066442831861], [17.03969681255148, 51.14090942159816], [17.039760500168292, 51.1406644283186], [17.039795854184053, 51.140528424589945], [17.0388, 51.14015], [17.039795854190643, 51.140528424592446]], [[17.03755835770922, 51.148579961505725], [17.03728583031448, 51.148428339371044], [17.037285830314485, 51.14842833937104], [17.03755835770922, 51.148579961505725]], [[17.041015210192153, 51.140959766892976], [17.04101520565914, 51.14095977141207], [17.041015210192153, 51.14095976689297], [17.041022002692788, 51.140960667564265], [17.041022002692834, 51.14096066756428], [17.041015210192153, 51.140959766892976]], [[17.033888331763176, 51.14463188332085], [17.033512710635915, 51.144885338134735], [17.03461202866808, 51.144143548845975], [17.033888331763176, 51.14463188332085]], [[17.039863350904735, 51.14096287479575], [17.04002988925799, 51.14101632799333], [17.04007663022408, 51.14082560977027], [17.040119241233253, 51.14065131166864], [17.04007663022408, 51.140825609770275], [17.04002988925799, 51.141016327993334], [17.039863350904735, 51.14096287479575]], [[17.040707119348575, 51.1412399375884], [17.04070711934857, 51.1412399375884], [17.04074182970538, 51.141165527335595], [17.040811727789123, 51.141015661719685], [17.040796529779065, 51.141048247239134], [17.040741829705382, 51.14116552733559], [17.040707119348575, 51.1412399375884]], [[17.041358815856107, 51.14124222467939], [17.041499776799117, 51.14128500205634], [17.041499776799114, 51.14128500205635], [17.041358815856107, 51.14124222467939]], [[17.038952194176684, 51.14775074873373], [17.038801593473853, 51.14730539563108], [17.03872027011857, 51.14706490447645], [17.038952194176684, 51.14775074873373]], [[17.038823544483602, 51.14905544630127], [17.039474772785923, 51.148893499132036], [17.039474772785926, 51.14889349913204], [17.038823544483602, 51.14905544630128], [17.03872276103226, 51.149079744056834], [17.038823544483602, 51.14905544630127]], [[17.03850941518042, 51.146428773192476], [17.037240377790525, 51.145681580605725], [17.03719430850437, 51.1456544549067], [17.03850941518042, 51.146428773192476]]]}}, {"type": "Feature", "properties": {"district": 4, "name": "Okręg 4", "variant": "wariant-spojny-v6-polnoc-do-3", "crs": "EPSG:4326"}, "geometry": {"type": "Polygon", "coordinates": [[[17.01055909577399, 51.1575012549364], [17.010775942270843, 51.15754634306314], [17.011497238528875, 51.15767017732394], [17.011650714574685, 51.157687040781596], [17.012580616406435, 51.15778921542442], [17.013403166483958, 51.15783016855164], [17.014232160725445, 51.15784607316675], [17.01423222305396, 51.15784607436255], [17.014242490234775, 51.15784627146224], [17.01428074960188, 51.1578470056123], [17.01428788162169, 51.15784714212678], [17.01498401856841, 51.1578387354402], [17.015232055039363, 51.157823451467145], [17.015580976012046, 51.157801951109725], [17.01600281534136, 51.15777595524815], [17.016002891247265, 51.15777594869498], [17.01615645457369, 51.15776282646184], [17.016210832212014, 51.15775818041288], [17.016318635099058, 51.1577489683282], [17.016362502124043, 51.15774521908034], [17.016408266729865, 51.15774130867703], [17.01645582168672, 51.15773649816556], [17.016506289165548, 51.157731393890764], [17.016603363166542, 51.15772157442944], [17.0165713722882, 51.15766362978131], [17.01652994525479, 51.15758859650073], [17.016462781351176, 51.157466945008004], [17.016446963876167, 51.15743835082624], [17.016399800438343, 51.15735068107613], [17.016257597507956, 51.1570863433324], [17.016157983406906, 51.1569011703597], [17.01613545969898, 51.15685930136618], [17.016063510344278, 51.156725555169885], [17.0159937823218, 51.15659593407748], [17.015991550425685, 51.15659178726109], [17.015936095199656, 51.15648869842842], [17.015929586789095, 51.156476599578674], [17.01592687776639, 51.15647156416671], [17.0159036820769, 51.15642830866285], [17.01588502380674, 51.156393514618], [17.015876078300053, 51.15637683280113], [17.015958138343038, 51.15635262999689], [17.015969505677024, 51.156349277204924], [17.016120364286337, 51.156300114403614], [17.01633247552679, 51.1562253444613], [17.016336266411344, 51.15622400811912], [17.016358313492983, 51.15621541424894], [17.016546848504305, 51.15614192354778], [17.01683381704694, 51.1560170517597], [17.016962904753875, 51.15595566775657], [17.01708967238103, 51.15588976030786], [17.017216344272192, 51.15582161349854], [17.017235207770234, 51.15581092150236], [17.017251815519497, 51.15580150775495], [17.0174352628021, 51.155697525883284], [17.017608704196434, 51.155589844954385], [17.01792478492366, 51.15539360536473], [17.017960968899192, 51.15537114021762], [17.018111785047658, 51.15527860490119], [17.01824016151113, 51.15519983745462], [17.018424547366063, 51.15508670506935], [17.018547400297866, 51.15501132587268], [17.018561341287743, 51.155002731892054], [17.018958726239244, 51.15475775476267], [17.019225860829575, 51.15459307096453], [17.019460296334284, 51.15444854498541], [17.019490631403123, 51.1544296990041], [17.019819241288697, 51.15422554956686], [17.01999714590275, 51.1541150249213], [17.020037225649308, 51.15409034706153], [17.02004876098909, 51.15408324430448], [17.020048761626388, 51.154083243912076], [17.020432960363394, 51.15384668247058], [17.020743572629833, 51.15365542637131], [17.020781907814197, 51.15363182229595], [17.020911626452072, 51.15355194844356], [17.021031908998058, 51.15347788458124], [17.021127144400044, 51.15341924395851], [17.021282809343912, 51.153323392004566], [17.021382848055275, 51.1532617933222], [17.02156087184092, 51.153152173454394], [17.021630465711457, 51.15310932037472], [17.021661781684003, 51.153090037049076], [17.021882145367165, 51.1529531366886], [17.021912889783493, 51.15293403639965], [17.022063795728528, 51.152840284943444], [17.022188855436298, 51.152762591163935], [17.022190555882425, 51.1527615347137], [17.022288586286873, 51.15270063224585], [17.022308389020967, 51.1526883300484], [17.02240287518989, 51.1526300192372], [17.02261548121814, 51.15249881231845], [17.022797618807502, 51.15238640849382], [17.023172770658686, 51.15215488387879], [17.02334192202285, 51.15205049109191], [17.023505828540394, 51.151949334592096], [17.02370428896958, 51.15183526230953], [17.023865655281543, 51.1517425100905], [17.02408434751849, 51.15161680711012], [17.024191407108926, 51.151555268205584], [17.024211446736228, 51.151543749761295], [17.024395242785843, 51.15145116146071], [17.02449512377814, 51.15140376962453], [17.024495123992864, 51.15140376952265], [17.024522376999347, 51.15139083878741], [17.024554956397434, 51.151375380427666], [17.02455616109031, 51.15137484040404], [17.02455616129919, 51.1513748403104], [17.02471022115025, 51.151305845837484], [17.024791893028237, 51.15127174142027], [17.024941698500697, 51.15120918640737], [17.024981554432326, 51.151193390348354], [17.025080936898732, 51.15115400002879], [17.025232963529813, 51.151096295088045], [17.0253622983006, 51.15105137381054], [17.02540574965189, 51.151036281790276], [17.02558291202872, 51.15097735198928], [17.025705179985852, 51.15093668109228], [17.025850453155527, 51.15089349129766], [17.026075306667977, 51.15083085417839], [17.02617071356444, 51.15080648477777], [17.026260080378844, 51.15078365797854], [17.026333863588512, 51.15076481144773], [17.026468327577952, 51.15073259714923], [17.026695954910874, 51.15068138977736], [17.02676358502071, 51.15066808962035], [17.026913823614663, 51.15063854384335], [17.026939664241155, 51.15063346213025], [17.027064606547892, 51.1506115150054], [17.027380562994363, 51.1505604207364], [17.027434614876082, 51.15055354184717], [17.027610442821683, 51.15053116503433], [17.02765312054851, 51.15052623302939], [17.027918497120176, 51.15049556468042], [17.027998705844386, 51.150488673682645], [17.028124867512343, 51.150477835964246], [17.028168267399185, 51.15047410719185], [17.02819671809668, 51.150471662872675], [17.028338131341126, 51.150460994793875], [17.028352046463507, 51.15045994533529], [17.0285821580558, 51.150447304298055], [17.028608764263772, 51.15044584240926], [17.028669494376675, 51.150443626501314], [17.028758672776668, 51.15044037206529], [17.0289369293774, 51.15043631992405], [17.02913062293659, 51.150431915602816], [17.029230078440097, 51.150429654975405], [17.02923007873812, 51.15042965496863], [17.029291909542426, 51.15042824884977], [17.029309498193754, 51.15042795664227], [17.029330675068675, 51.150336989388364], [17.029352156490035, 51.1502455854276], [17.029373637911394, 51.15015418146683], [17.029395119332754, 51.150062777506065], [17.029417759670892, 51.14997158097523], [17.029440996920556, 51.14988049128324], [17.02946423417022, 51.14978940159124], [17.02948810163071, 51.14969846067636], [17.029515110038794, 51.1496082702987], [17.029542118446876, 51.14951807992104], [17.02956912685496, 51.14942788954337], [17.02959613526304, 51.1493376991657], [17.029623143671124, 51.14924750878804], [17.02965015207921, 51.149157318410374], [17.029677160487292, 51.14906712803271], [17.02970416889537, 51.14897693765504], [17.029731061828386, 51.14888671348494], [17.0297574487863, 51.148796341247134], [17.029783835744208, 51.14870596900933], [17.029810222702118, 51.14861559677151], [17.02983660966003, 51.1485252245337], [17.029863483829367, 51.14843500418414], [17.029890915142154, 51.14834495752414], [17.029918346454938, 51.14825491086414], [17.0299459964545, 51.148164936126406], [17.02997332714939, 51.14807486056084], [17.029999983192766, 51.147984569635], [17.03002663923614, 51.14789427870916], [17.03005291229558, 51.147803875303325], [17.030079393765618, 51.14771354132549], [17.030107583432216, 51.14762371856136], [17.030135773098813, 51.14753389579724], [17.030163962765407, 51.14744407303311], [17.03019246216627, 51.147354346307154], [17.030220779343566, 51.14726456664626], [17.030248399682357, 51.14717457578891], [17.03027602002114, 51.14708458493156], [17.030303913361255, 51.14699468450227], [17.030332023411027, 51.14690485585514], [17.030361244522005, 51.14681536365351], [17.030390540378768, 51.14672589408599], [17.030419795568044, 51.1466364117249], [17.030448862488562, 51.14654687013646], [17.03047792940908, 51.146457328548024], [17.03050695439355, 51.14636777343577], [17.03053481286136, 51.14627784213741], [17.03056267132917, 51.14618791083906], [17.030590529796978, 51.1460979795407], [17.030618324605094, 51.14600802899217], [17.030645422110265, 51.14591786758486], [17.030672519615436, 51.14582770617756], [17.03070036091041, 51.14573777206832], [17.030728479230543, 51.14564792261645], [17.03075659755067, 51.145558073164565], [17.030784715870805, 51.14546822371268], [17.0308120544204, 51.145378141478005], [17.030839392631442, 51.145288059142246], [17.03086639387137, 51.14519787330731], [17.0308928425376, 51.14510751769862], [17.03091929120383, 51.14501716208993], [17.03094569151493, 51.14492679218459], [17.03097208933797, 51.144836421543644], [17.030998487161007, 51.1447460509027], [17.031025484257917, 51.14465586180259], [17.03105252669232, 51.144565686436785], [17.03108017014172, 51.144475689322306], [17.031107589252642, 51.14438562298741], [17.03113499473242, 51.14429555245782], [17.031162400212203, 51.144205481928225], [17.03118980569198, 51.14411541139864], [17.03121721117176, 51.14402534086905], [17.03124461665154, 51.143935270339455], [17.031272022131322, 51.14384519980987], [17.031299373398085, 51.14375511315187], [17.031326179963564, 51.14366486434624], [17.031352654928533, 51.14357451612115], [17.031379139580658, 51.14348417075941], [17.03140583652575, 51.143393889228555], [17.03143278285161, 51.14330368290872], [17.031459468173036, 51.14321339857631], [17.031485785573842, 51.14312300418859], [17.03151210244212, 51.143032609645196], [17.0315384193104, 51.14294221510181], [17.03156473617868, 51.14285182055842], [17.03159105304696, 51.14276142601503], [17.031617794543482, 51.142671159520845], [17.031645103918443, 51.142581064171374], [17.03167278853607, 51.14249108032433], [17.031700473153705, 51.14240109647729], [17.031728157771333, 51.14231111263025], [17.031755842388968, 51.14222112878322], [17.031783527006596, 51.14213114493617], [17.03181450717465, 51.14204234658849], [17.031845942955787, 51.14195371213725], [17.031877378736922, 51.141865077686006], [17.031905955652345, 51.14177544960132], [17.03193190876594, 51.14168495285901], [17.031957570906624, 51.14159437190587], [17.031983233047306, 51.14150379095271], [17.032008895187992, 51.14141320999956], [17.03203455732868, 51.141322629046414], [17.03206021946936, 51.141232048093265], [17.032086058544234, 51.1411415192801], [17.032113187571184, 51.14105137059741], [17.03214031659813, 51.14096122191472], [17.032167445625085, 51.140871073232034], [17.03219457465203, 51.140780924549354], [17.03222190629922, 51.14069083737152], [17.03225020644524, 51.14060104417903], [17.03227850659126, 51.140511250986535], [17.032306708025644, 51.140421517763926], [17.03233138724803, 51.140330833921524], [17.032370215173884, 51.140250591353336], [17.032422741830096, 51.14017810917068], [17.03248307408532, 51.140108933718], [17.032544648080922, 51.14004456779109], [17.032602790560258, 51.13997962681974], [17.032661723270607, 51.13991646900162], [17.032721454532222, 51.13985511311137], [17.03272925709011, 51.13983664098414], [17.03278488410876, 51.13970485429017], [17.032898497233678, 51.13951230058711], [17.033045721553993, 51.13931826269761], [17.033166188887346, 51.13916894269251], [17.03336235438769, 51.138972117654795], [17.033554348205826, 51.138801174978795], [17.033757569148218, 51.13864338670805], [17.033778775720794, 51.138626922066685], [17.033872973337314, 51.13856666052464], [17.034000117946444, 51.1384853925412], [17.03402917014769, 51.138466835141074], [17.034311283096145, 51.13829864921259], [17.03475698262515, 51.138079627926516], [17.035091778474655, 51.13790719130897], [17.035373988649237, 51.137751130664704], [17.03553699484986, 51.13765339109645], [17.03573483021596, 51.137501820767426], [17.035915779778414, 51.13735479451581], [17.036057547264264, 51.1372084518818], [17.03622651691305, 51.13701286318829], [17.03632519466322, 51.13686475374745], [17.036398475415915, 51.13671000736633], [17.036470993688024, 51.13651635642502], [17.036571785555388, 51.13617252346872], [17.03659985475261, 51.13606170550407], [17.03660293842142, 51.1360494780081], [17.03663465757415, 51.135850465634476], [17.036662171505125, 51.13549098024104], [17.036678270304765, 51.135081966679074], [17.036661995560042, 51.13495975310001], [17.03663929618195, 51.134863385791604], [17.036607182614336, 51.13476693193611], [17.036558610510248, 51.13467108862444], [17.036492571376794, 51.1345652756914], [17.03639243448602, 51.13440483929818], [17.03633208382232, 51.13431339366135], [17.03618109023011, 51.134084612151554], [17.036109691141238, 51.1339872050911], [17.036060516998518, 51.13389016995788], [17.036020208339654, 51.13381065680426], [17.036001166475895, 51.133748012733484], [17.035994999884053, 51.133699013215605], [17.03600504962868, 51.13358341893575], [17.03606202722932, 51.13344159848035], [17.03610596723722, 51.13336659135254], [17.036589065241845, 51.13248822171225], [17.03658906524184, 51.132488221712244], [17.032716556972947, 51.13159618248881], [17.028643870426116, 51.131420611731876], [17.027906170787364, 51.13145474168961], [17.027921130953324, 51.13154183262721], [17.028133717011986, 51.13274843030035], [17.028143126237165, 51.13280182618863], [17.02816563935265, 51.13299874576692], [17.028167093701196, 51.13301480475247], [17.02816854804974, 51.13303086373803], [17.02817000239829, 51.13304692272358], [17.028173522081556, 51.133065311057564], [17.028179010429234, 51.13308860095461], [17.028191218034117, 51.13311411647248], [17.02820097833734, 51.13314223790053], [17.028212053294336, 51.13317092805619], [17.028221056427125, 51.13320027848759], [17.028227867553824, 51.13323028999838], [17.028234132373946, 51.13326045020338], [17.028240074753704, 51.1332906506906], [17.028244457648988, 51.133321046002976], [17.028248580136683, 51.13335149626043], [17.02825254968586, 51.13338197878738], [17.028256519235033, 51.13341246131432], [17.028260488784206, 51.13344294384126], [17.028264458333382, 51.13347342636821], [17.028268427882555, 51.13350390889515], [17.028272397431728, 51.133534391422096], [17.028276366980904, 51.13356487394904], [17.028280336530074, 51.133595356475986], [17.02828430607925, 51.13362583900293], [17.028288275628423, 51.13365632152987], [17.028293484687058, 51.13368666485701], [17.028298967748665, 51.13371697741297], [17.028304450810275, 51.13374728996894], [17.02830993387188, 51.1337776025249], [17.028315176987554, 51.13380795939594], [17.028320289555154, 51.133838340377615], [17.028325402122753, 51.13386872135929], [17.028330514690353, 51.13389910234096], [17.02833562725795, 51.13392948332264], [17.02834073982555, 51.133959864304316], [17.028345841006406, 51.133990247133966], [17.028350904511083, 51.13402063607813], [17.028355968015763, 51.134051025022295], [17.02836103152044, 51.13408141396647], [17.02836609502512, 51.13411180291064], [17.02837098415304, 51.1341422204941], [17.028375801231448, 51.13417264991082], [17.02838077186619, 51.13420305244004], [17.028386006452397, 51.134233408751726], [17.02839124074284, 51.13426376510957], [17.02839647372246, 51.134294121672], [17.02840170670207, 51.13432447823443], [17.028407082757294, 51.13435481071699], [17.02841268830617, 51.1343851045754], [17.02841829385504, 51.1344153984338], [17.028424147590925, 51.13444563381961], [17.028431049836087, 51.13447562195848], [17.028437952081244, 51.13450561009734], [17.028444854326402, 51.134535598236205], [17.028451756571563, 51.134565586375075], [17.02845891942311, 51.13459549494216], [17.02846640865343, 51.13462530385498], [17.028474335819173, 51.13465502596525], [17.02848234336777, 51.13468473214295], [17.02849035091637, 51.13471443832065], [17.02849835846497, 51.13474414449835], [17.02850636601357, 51.13477385067605], [17.028515052948443, 51.13480330952908], [17.028525113518267, 51.13483238620002], [17.028535333004896, 51.13486142145768], [17.028545552491522, 51.13489045671534], [17.028555771978148, 51.134919491973], [17.028565991464774, 51.13494852723066], [17.028576210951403, 51.134977562488324], [17.02858643043803, 51.135006597745985], [17.028597476691427, 51.13503535146897], [17.02860861542902, 51.13506407369879], [17.028619754166613, 51.135092795928614], [17.02863150841108, 51.13512125189456], [17.028643386043527, 51.135149654483754], [17.028655263675976, 51.13517805707295], [17.028667141308425, 51.135206459662136], [17.028679313612265, 51.135234740376426], [17.02869215953328, 51.13526274248535], [17.02870577445833, 51.135290352210035], [17.028719603305557, 51.13531785278094], [17.028733432152784, 51.13534535335185], [17.02874726100001, 51.13537285392276], [17.028761652620084, 51.13540008346408], [17.028776148317128, 51.13542726288226], [17.028790644014173, 51.13545444230043], [17.02880517773112, 51.135481599119224], [17.028820390127475, 51.135508352524695], [17.028835602523827, 51.13553510593017], [17.028850814920183, 51.13556185933564], [17.02886602731654, 51.1355886127411], [17.02888123971289, 51.13561536614658], [17.028896452109244, 51.135642119552045], [17.0289116645056, 51.13566887295752], [17.028926876901956, 51.13569562636299], [17.02894208929831, 51.13572237976845], [17.02895730169466, 51.13574913317393], [17.028972916068845, 51.13577562059695], [17.02898864201086, 51.13580203419728], [17.029004367952872, 51.13582844779762], [17.029020194967583, 51.135854809095825], [17.02903606843403, 51.13588114635664], [17.029051941900484, 51.135907483617444], [17.02906781536693, 51.13593382087825], [17.02908368883338, 51.13596015813906], [17.02909956229983, 51.13598649539988], [17.02911543576628, 51.13601283266068], [17.02913130923273, 51.13603916992149], [17.029147182699177, 51.1360655071823], [17.02916305616563, 51.136091844443115], [17.029178929632074, 51.13611818170392], [17.029194803098527, 51.136144518964734], [17.029210676564976, 51.13617085622555], [17.029226550031424, 51.13619719348635], [17.029242327516776, 51.13622359655321], [17.029258100992585, 51.13625000236906], [17.029273874468387, 51.13627640818491], [17.029290439172136, 51.13630235622433], [17.029307352376115, 51.136328102633854], [17.029324265580094, 51.13635384904339], [17.029341178784076, 51.136379595452915], [17.029358091988055, 51.13640534186244], [17.029375005192037, 51.136431088271976], [17.029391918396016, 51.1364568346815], [17.029408831599994, 51.13648258109103], [17.029425744803973, 51.136508327500565], [17.02944265800795, 51.136534073910084], [17.02945957121193, 51.13655982031962], [17.029476666469687, 51.13658543811955], [17.02949402291923, 51.13661087140384], [17.02951137936877, 51.136636304688125], [17.02952873581831, 51.13666173797242], [17.029546092267854, 51.136687171256696], [17.029563448717393, 51.13671260454099], [17.029580805166937, 51.136738037825275], [17.02959800949539, 51.13676358121948], [17.02961476175363, 51.13678940138463], [17.029631467740856, 51.13681524979229], [17.029648173728077, 51.13684109819994], [17.0296648797153, 51.13686694660759], [17.02968158570252, 51.13689279501524], [17.029698291689744, 51.136918643422895], [17.02971499767697, 51.13694449183055], [17.02973170366419, 51.13697034023819], [17.02974840965141, 51.136996188645846], [17.029765115638632, 51.1370220370535], [17.029783118661637, 51.13704697217854], [17.02980198268946, 51.13707130104373], [17.029820846717282, 51.13709562990892], [17.029839710745108, 51.13711995877411], [17.02985857477293, 51.1371442876393], [17.029877438800753, 51.13716861650448], [17.02989583930353, 51.13719331447113], [17.029914236074184, 51.1372180164709], [17.02993298947841, 51.1372424371301], [17.02995174288263, 51.137266857789285], [17.029970496286854, 51.13729127844849], [17.029989249691077, 51.13731569910768], [17.030008003095297, 51.137340119766876], [17.030028279070578, 51.137365918541285], [17.030009811048345, 51.13738672355576], [17.02986587747918, 51.1375426841455], [17.02978543357, 51.137629849348144], [17.029553245205552, 51.13788480320731], [17.029498307173604, 51.13795170681185], [17.029289416550856, 51.13820609204859], [17.029283550259972, 51.13821272267118], [17.028971863636386, 51.138564990143074], [17.028770806859153, 51.13874853988118], [17.028665405061343, 51.13886230958508], [17.028604101598134, 51.138943363551576], [17.02852717401704, 51.13904508976307], [17.028180984387333, 51.13944146211152], [17.027956115046894, 51.13963691623885], [17.027867472737984, 51.13974245514479], [17.027716875684582, 51.139908195059554], [17.027559694979246, 51.140081170646084], [17.02753813273233, 51.14010490383578], [17.027397750809072, 51.140334563798156], [17.027341617799852, 51.1404264207072], [17.027253109750905, 51.140562147511446], [17.02719637771039, 51.14064916293363], [17.027178914348543, 51.14067230986394], [17.02698672575612, 51.1409271499018], [17.02675505983181, 51.1411774719341], [17.026508815956213, 51.14138427012531], [17.026391765235854, 51.141506418042354], [17.026352927972404, 51.14155240042325], [17.026252843779595, 51.141670940760584], [17.025927431474372, 51.14206550164061], [17.025840575484818, 51.142166523087795], [17.025744673893847, 51.14226886251478], [17.025450490138876, 51.142582793313], [17.025174496930873, 51.142889836089736], [17.025069996312258, 51.143006082192414], [17.024989135944548, 51.14309232005818], [17.024975773638747, 51.14310657412222], [17.024656729833723, 51.143446815124285], [17.02462567742992, 51.14347993473102], [17.024595849556317, 51.14351258809051], [17.024522529786573, 51.143592883433236], [17.024037889737222, 51.1441179530562], [17.02365511614545, 51.14453292082858], [17.023637988963877, 51.14455149429985], [17.023531443303742, 51.14466405416896], [17.02338570354887, 51.144822277710155], [17.023256535167413, 51.14496249835166], [17.022454822764256, 51.145830331219656], [17.021814034740604, 51.14652051170285], [17.021812499376587, 51.14652215295681], [17.021389100828575, 51.146984859105906], [17.021314647894656, 51.147068873644955], [17.02105755825362, 51.147375333953406], [17.020751827511607, 51.14775036400213], [17.02051805092664, 51.1480308548346], [17.02014929088933, 51.14850279599519], [17.02013907486998, 51.1485158703496], [17.019834447687025, 51.14878937907516], [17.019830679913476, 51.14879276176699], [17.01934294892203, 51.14927740530813], [17.01933814830153, 51.14928217541589], [17.018675328965383, 51.14991192954008], [17.018344337552968, 51.150265852066546], [17.01820691261869, 51.15041449300794], [17.01805272407398, 51.15057913844889], [17.018011687240346, 51.15062294205594], [17.01765646194426, 51.15100563277672], [17.017648050767082, 51.15101469560942], [17.017487888630914, 51.151188522491985], [17.01711528802055, 51.151589368511914], [17.015190602748582, 51.15366096909739], [17.015029956620744, 51.15383450084763], [17.01494248319522, 51.15392944992021], [17.014879050756875, 51.15399830671525], [17.014817066711373, 51.15406559349872], [17.014593449211443, 51.15430830888259], [17.014320965648103, 51.15457674492926], [17.014248675399905, 51.154647971916525], [17.014147061232904, 51.1547295145305], [17.014010804482723, 51.15483884866602], [17.013410580869742, 51.15528681127442], [17.012582742129798, 51.15590149514131], [17.011831004916157, 51.15645252221108], [17.01159517791133, 51.156627787324666], [17.01142314772174, 51.15675829238941], [17.011342397258204, 51.15680829345814], [17.011149493210226, 51.15691545539058], [17.01071600087414, 51.157160160025164], [17.010601972947526, 51.15725951091325], [17.010369711528124, 51.157461876938584], [17.01055909577399, 51.1575012549364]], [[17.032884015708987, 51.1385482834284], [17.032622889719427, 51.138601500056645], [17.032622862545143, 51.13860150560292], [17.032622889719427, 51.13860150005664], [17.032884015708987, 51.1385482834284]], [[17.03205774885357, 51.138715631338776], [17.032119200638483, 51.13870371622204], [17.03216594356524, 51.13869476280209], [17.032119200638483, 51.13870371622205], [17.032057748853568, 51.13871563133878], [17.031734322339172, 51.138778396316795], [17.03205774885357, 51.138715631338776]], [[17.031671559885915, 51.1387905994792], [17.03164005703858, 51.138744554340214], [17.031402294227462, 51.13839615117078], [17.03164005703858, 51.13874455434021], [17.031671559885915, 51.1387905994792]], [[17.03096000502393, 51.13774834261411], [17.030960005023935, 51.13774834261411], [17.03097273352244, 51.1377669308091], [17.03096000502393, 51.13774834261411]], [[17.032004435872526, 51.138289862642935], [17.03199775193798, 51.13828989655886], [17.03181725171258, 51.13829081231663], [17.032004435872526, 51.138289862642935]], [[17.033179045835414, 51.13819700690801], [17.033337243842162, 51.13825562540917], [17.033228631745644, 51.13821538045094], [17.033179045835414, 51.13819700690801]], [[17.03351898076916, 51.13836389573438], [17.033428122261107, 51.13830976426065], [17.033518980769163, 51.13836389573437], [17.03351898076916, 51.13836389573438]]]}}, {"type": "Feature", "properties": {"district": 5, "name": "Okręg 5", "variant": "wariant-spojny-v6-polnoc-do-3", "crs": "EPSG:4326"}, "geometry": {"type": "Polygon", "coordinates": [[[17.00226047164078, 51.13171952126113], [17.002299141846645, 51.1318784272954], [17.002303261244112, 51.13189535498173], [17.002306293176527, 51.131907814474], [17.0023208705178, 51.13196796292711], [17.00245712952379, 51.13253592995148], [17.002486976593232, 51.13266033559773], [17.002516882965654, 51.132785046489204], [17.002725772700508, 51.13365612712235], [17.00276384943286, 51.13381490475792], [17.002828394202194, 51.134084047778025], [17.0029886749009, 51.134752489602896], [17.003023084587355, 51.134895984873914], [17.003076004489277, 51.13511668123036], [17.003080823297413, 51.13513376673073], [17.00366346102658, 51.13804045148142], [17.003782984098496, 51.138599337075185], [17.003930140056948, 51.13916887912511], [17.004002863166022, 51.139450341520885], [17.00428204601742, 51.14070857785793], [17.005036166229793, 51.14361916841868], [17.00515721231723, 51.14412543972067], [17.005390041148477, 51.14509923869289], [17.005942275541518, 51.14738017475683], [17.00602443324835, 51.14778046401949], [17.006156964502008, 51.14838313918808], [17.006182947781344, 51.1485012907299], [17.006209012119264, 51.148714293672], [17.00624475975675, 51.149007833561036], [17.006271693774867, 51.14927360322355], [17.006292628712995, 51.14948017089461], [17.00631849352545, 51.14973538657962], [17.006336493228908, 51.149912995200054], [17.006354493061092, 51.15009060381318], [17.006354392588264, 51.15031098063059], [17.0063538097344, 51.15056859206539], [17.006353428232607, 51.15073703057837], [17.006349431831172, 51.15094844239464], [17.006349365248823, 51.15095196463712], [17.00634735703579, 51.15116266673756], [17.00633066767959, 51.15176642163741], [17.00630944749649, 51.15197976346318], [17.006280851096573, 51.152231254003475], [17.006248340468485, 51.15251715779849], [17.006223367810254, 51.15273114282468], [17.006169380819177, 51.15301798511119], [17.006111439712654, 51.15333268863118], [17.006093965820053, 51.15342759485953], [17.006037698533948, 51.15373746083649], [17.0059857837217, 51.15402334972459], [17.00592415431359, 51.15428872165554], [17.005861380720614, 51.154506729073525], [17.005794851184532, 51.15473777906375], [17.005688643251002, 51.15510662027803], [17.005594975867425, 51.155431907098304], [17.005573095199775, 51.15550789031569], [17.005686985671392, 51.15560410469185], [17.00588192569247, 51.15576878785442], [17.00589241687534, 51.155777650689075], [17.005916126868925, 51.15579768062806], [17.00604317039383, 51.1559050055855], [17.00673374122567, 51.156295477443145], [17.006736282948037, 51.15629652772389], [17.006887504333346, 51.15635901484355], [17.006891680540793, 51.15636074051994], [17.007029679401487, 51.1564177638788], [17.007451302237403, 51.15659198524666], [17.007763588101138, 51.15670821250556], [17.008206647306015, 51.15687311128228], [17.008801787920945, 51.157058685091805], [17.00938462234871, 51.15723630277879], [17.01006763290501, 51.15739906679666], [17.01019079396436, 51.15742467524103], [17.010369711528124, 51.157461876938584], [17.010601972947526, 51.15725951091325], [17.01071600087414, 51.157160160025164], [17.011149493210226, 51.15691545539058], [17.011342397258204, 51.15680829345814], [17.01142314772174, 51.15675829238941], [17.01159517791133, 51.156627787324666], [17.011831004916157, 51.15645252221108], [17.012582742129798, 51.15590149514131], [17.013410580869742, 51.15528681127442], [17.014010804482723, 51.15483884866602], [17.014147061232904, 51.1547295145305], [17.014248675399905, 51.154647971916525], [17.014320965648103, 51.15457674492926], [17.014593449211443, 51.15430830888259], [17.014817066711373, 51.15406559349872], [17.014879050756875, 51.15399830671525], [17.01494248319522, 51.15392944992021], [17.015029956620744, 51.15383450084763], [17.015190602748582, 51.15366096909739], [17.01711528802055, 51.151589368511914], [17.017487888630914, 51.151188522491985], [17.017648050767082, 51.15101469560942], [17.01765646194426, 51.15100563277672], [17.018011687240346, 51.15062294205594], [17.01805272407398, 51.15057913844889], [17.01820691261869, 51.15041449300794], [17.018344337552968, 51.150265852066546], [17.018675328965383, 51.14991192954008], [17.01933814830153, 51.14928217541589], [17.01934294892203, 51.14927740530813], [17.019830679913476, 51.14879276176699], [17.019834447687025, 51.14878937907516], [17.02013907486998, 51.1485158703496], [17.02014929088933, 51.14850279599519], [17.02051805092664, 51.1480308548346], [17.020751827511607, 51.14775036400213], [17.02105755825362, 51.147375333953406], [17.021314647894656, 51.147068873644955], [17.021389100828575, 51.146984859105906], [17.021812499376587, 51.14652215295681], [17.021814034740604, 51.14652051170285], [17.022454822764256, 51.145830331219656], [17.023256535167413, 51.14496249835166], [17.02338570354887, 51.144822277710155], [17.023531443303742, 51.14466405416896], [17.023637988963877, 51.14455149429985], [17.02365511614545, 51.14453292082858], [17.024037889737222, 51.1441179530562], [17.024522529786573, 51.143592883433236], [17.024595849556317, 51.14351258809051], [17.02462567742992, 51.14347993473102], [17.024656729833723, 51.143446815124285], [17.024975773638747, 51.14310657412222], [17.024989135944548, 51.14309232005818], [17.025069996312258, 51.143006082192414], [17.025174496930873, 51.142889836089736], [17.025450490138876, 51.142582793313], [17.025744673893847, 51.14226886251478], [17.025840575484818, 51.142166523087795], [17.025927431474372, 51.14206550164061], [17.026252843779595, 51.141670940760584], [17.026352927972404, 51.14155240042325], [17.026391765235854, 51.141506418042354], [17.026508815956213, 51.14138427012531], [17.02675505983181, 51.1411774719341], [17.02698672575612, 51.1409271499018], [17.027178914348543, 51.14067230986394], [17.02719637771039, 51.14064916293363], [17.027253109750905, 51.140562147511446], [17.027341617799852, 51.1404264207072], [17.027397750809072, 51.140334563798156], [17.02753813273233, 51.14010490383578], [17.027559694979246, 51.140081170646084], [17.027716875684582, 51.139908195059554], [17.027867472737984, 51.13974245514479], [17.027956115046894, 51.13963691623885], [17.028180984387333, 51.13944146211152], [17.02852717401704, 51.13904508976307], [17.028604101598134, 51.138943363551576], [17.028665405061343, 51.13886230958508], [17.028770806859153, 51.13874853988118], [17.028971863636386, 51.138564990143074], [17.029283550259972, 51.13821272267118], [17.029289416550856, 51.13820609204859], [17.029498307173604, 51.13795170681185], [17.029553245205552, 51.13788480320731], [17.02978543357, 51.137629849348144], [17.02986587747918, 51.1375426841455], [17.030009811048345, 51.13738672355576], [17.030028279070578, 51.137365918541285], [17.030008003095297, 51.137340119766876], [17.029989249691077, 51.13731569910768], [17.029970496286854, 51.13729127844849], [17.02995174288263, 51.137266857789285], [17.02993298947841, 51.1372424371301], [17.029914236074184, 51.1372180164709], [17.02989583930353, 51.13719331447113], [17.029877438800753, 51.13716861650448], [17.02985857477293, 51.1371442876393], [17.029839710745108, 51.13711995877411], [17.029820846717282, 51.13709562990892], [17.02980198268946, 51.13707130104373], [17.029783118661637, 51.13704697217854], [17.029765115638632, 51.1370220370535], [17.02974840965141, 51.136996188645846], [17.02973170366419, 51.13697034023819], [17.02971499767697, 51.13694449183055], [17.029698291689744, 51.136918643422895], [17.02968158570252, 51.13689279501524], [17.0296648797153, 51.13686694660759], [17.029648173728077, 51.13684109819994], [17.029631467740856, 51.13681524979229], [17.02961476175363, 51.13678940138463], [17.02959800949539, 51.13676358121948], [17.029580805166937, 51.136738037825275], [17.029563448717393, 51.13671260454099], [17.029546092267854, 51.136687171256696], [17.02952873581831, 51.13666173797242], [17.02951137936877, 51.136636304688125], [17.02949402291923, 51.13661087140384], [17.029476666469687, 51.13658543811955], [17.02945957121193, 51.13655982031962], [17.02944265800795, 51.136534073910084], [17.029425744803973, 51.136508327500565], [17.029408831599994, 51.13648258109103], [17.029391918396016, 51.1364568346815], [17.029375005192037, 51.136431088271976], [17.029358091988055, 51.13640534186244], [17.029341178784076, 51.136379595452915], [17.029324265580094, 51.13635384904339], [17.029307352376115, 51.136328102633854], [17.029290439172136, 51.13630235622433], [17.029273874468387, 51.13627640818491], [17.029258100992585, 51.13625000236906], [17.029242327516776, 51.13622359655321], [17.029226550031424, 51.13619719348635], [17.029210676564976, 51.13617085622555], [17.029194803098527, 51.136144518964734], [17.029178929632074, 51.13611818170392], [17.02916305616563, 51.136091844443115], [17.029147182699177, 51.1360655071823], [17.02913130923273, 51.13603916992149], [17.02911543576628, 51.13601283266068], [17.02909956229983, 51.13598649539988], [17.02908368883338, 51.13596015813906], [17.02906781536693, 51.13593382087825], [17.029051941900484, 51.135907483617444], [17.02903606843403, 51.13588114635664], [17.029020194967583, 51.135854809095825], [17.029004367952872, 51.13582844779762], [17.02898864201086, 51.13580203419728], [17.028972916068845, 51.13577562059695], [17.02895730169466, 51.13574913317393], [17.02894208929831, 51.13572237976845], [17.028926876901956, 51.13569562636299], [17.0289116645056, 51.13566887295752], [17.028896452109244, 51.135642119552045], [17.02888123971289, 51.13561536614658], [17.02886602731654, 51.1355886127411], [17.028850814920183, 51.13556185933564], [17.028835602523827, 51.13553510593017], [17.028820390127475, 51.135508352524695], [17.02880517773112, 51.135481599119224], [17.028790644014173, 51.13545444230043], [17.028776148317128, 51.13542726288226], [17.028761652620084, 51.13540008346408], [17.02874726100001, 51.13537285392276], [17.028733432152784, 51.13534535335185], [17.028719603305557, 51.13531785278094], [17.02870577445833, 51.135290352210035], [17.02869215953328, 51.13526274248535], [17.028679313612265, 51.135234740376426], [17.028667141308425, 51.135206459662136], [17.028655263675976, 51.13517805707295], [17.028643386043527, 51.135149654483754], [17.02863150841108, 51.13512125189456], [17.028619754166613, 51.135092795928614], [17.02860861542902, 51.13506407369879], [17.028597476691427, 51.13503535146897], [17.02858643043803, 51.135006597745985], [17.028576210951403, 51.134977562488324], [17.028565991464774, 51.13494852723066], [17.028555771978148, 51.134919491973], [17.028545552491522, 51.13489045671534], [17.028535333004896, 51.13486142145768], [17.028525113518267, 51.13483238620002], [17.028515052948443, 51.13480330952908], [17.02850636601357, 51.13477385067605], [17.02849835846497, 51.13474414449835], [17.02849035091637, 51.13471443832065], [17.02848234336777, 51.13468473214295], [17.028474335819173, 51.13465502596525], [17.02846640865343, 51.13462530385498], [17.02845891942311, 51.13459549494216], [17.028451756571563, 51.134565586375075], [17.028444854326402, 51.134535598236205], [17.028437952081244, 51.13450561009734], [17.028431049836087, 51.13447562195848], [17.028424147590925, 51.13444563381961], [17.02841829385504, 51.1344153984338], [17.02841268830617, 51.1343851045754], [17.028407082757294, 51.13435481071699], [17.02840170670207, 51.13432447823443], [17.02839647372246, 51.134294121672], [17.02839124074284, 51.13426376510957], [17.028386006452397, 51.134233408751726], [17.02838077186619, 51.13420305244004], [17.028375801231448, 51.13417264991082], [17.02837098415304, 51.1341422204941], [17.02836609502512, 51.13411180291064], [17.02836103152044, 51.13408141396647], [17.028355968015763, 51.134051025022295], [17.028350904511083, 51.13402063607813], [17.028345841006406, 51.133990247133966], [17.02834073982555, 51.133959864304316], [17.02833562725795, 51.13392948332264], [17.028330514690353, 51.13389910234096], [17.028325402122753, 51.13386872135929], [17.028320289555154, 51.133838340377615], [17.028315176987554, 51.13380795939594], [17.02830993387188, 51.1337776025249], [17.028304450810275, 51.13374728996894], [17.028298967748665, 51.13371697741297], [17.028293484687058, 51.13368666485701], [17.028288275628423, 51.13365632152987], [17.02828430607925, 51.13362583900293], [17.028280336530074, 51.133595356475986], [17.028276366980904, 51.13356487394904], [17.028272397431728, 51.133534391422096], [17.028268427882555, 51.13350390889515], [17.028264458333382, 51.13347342636821], [17.028260488784206, 51.13344294384126], [17.028256519235033, 51.13341246131432], [17.02825254968586, 51.13338197878738], [17.028248580136683, 51.13335149626043], [17.028244457648988, 51.133321046002976], [17.028240074753704, 51.1332906506906], [17.028234132373946, 51.13326045020338], [17.028227867553824, 51.13323028999838], [17.028221056427125, 51.13320027848759], [17.028212053294336, 51.13317092805619], [17.02820097833734, 51.13314223790053], [17.028191218034117, 51.13311411647248], [17.028179010429234, 51.13308860095461], [17.028173522081556, 51.133065311057564], [17.02817000239829, 51.13304692272358], [17.02816854804974, 51.13303086373803], [17.028167093701196, 51.13301480475247], [17.02816563935265, 51.13299874576692], [17.028143126237165, 51.13280182618863], [17.028133717011986, 51.13274843030035], [17.027921130953324, 51.13154183262721], [17.027906170787364, 51.13145474168961], [17.020680236623143, 51.13178905231502], [17.018507246273522, 51.13138422540665], [17.01411320067248, 51.13172619740933], [17.011888667290147, 51.131635837958164], [17.006370445867702, 51.13141150011221], [17.006150968674245, 51.13140257748351], [17.003920874870648, 51.13123530386688], [17.003915453196466, 51.1312308365631], [17.003768121268187, 51.1312517078602], [17.00365345404356, 51.13126795160506], [17.003480894867312, 51.13129239585811], [17.00340411171707, 51.13130327260498], [17.00333796938546, 51.131312641623225], [17.003319744508573, 51.1313152236579], [17.003077828061294, 51.1313494925309], [17.002843658696225, 51.13138266279813], [17.002760882894826, 51.13140210553291], [17.002732187131183, 51.131408845809865], [17.002559354684045, 51.1314494417293], [17.002386260577836, 51.131490098988515], [17.00236693875292, 51.13149080346176], [17.002316936208135, 51.13149262700687], [17.002275056757863, 51.131494153953646], [17.00220623999224, 51.131496662863874], [17.002207661401748, 51.13150250569823], [17.002208716731822, 51.13150684060558], [17.002210190688462, 51.131512895076725], [17.0022165956843, 51.13153921757057], [17.00224286822596, 51.131647180346576], [17.00226047164078, 51.13171952126113]], [[17.026030039063148, 51.14084385343015], [17.026233864814504, 51.140574072149846], [17.026296395887343, 51.14048386917669], [17.026233864814504, 51.14057407214985], [17.026030039063148, 51.140843853430155], [17.025998589757425, 51.140851826044084], [17.025994470790305, 51.14084179974188], [17.025998589757425, 51.14085182604408], [17.026030039063148, 51.14084385343015]], [[17.026427806388718, 51.1402890155594], [17.02642770288786, 51.14028917666733], [17.026384425717804, 51.14035674222115], [17.026371676338993, 51.14037520421234], [17.026384425717804, 51.140356742221144], [17.02642770288786, 51.14028917666732], [17.026427806388718, 51.1402890155594]], [[17.02663752806769, 51.13936150075146], [17.0267654542399, 51.13920030217846], [17.026765454239904, 51.13920030217846], [17.02663752806769, 51.13936150075146]], [[17.026471526926336, 51.13918807511245], [17.026518636861546, 51.139129135529885], [17.026523513326318, 51.1391228474031], [17.02651863686155, 51.1391291355299], [17.026471526926336, 51.13918807511245]], [[17.02583258586591, 51.139492958027134], [17.02583303955971, 51.13953016964832], [17.025834498349102, 51.139649818501546], [17.025837816847265, 51.13992199963496], [17.025838105516623, 51.139944070415766], [17.025839580356006, 51.14005683216624], [17.02584019932225, 51.14010618153236], [17.025839580356006, 51.140056832166245], [17.025837816847265, 51.13992199963497], [17.02583258586591, 51.139492958027134]], [[17.025984236023586, 51.140812399247494], [17.02597812022399, 51.14079302505531], [17.02595472772483, 51.14069521159373], [17.02597812022399, 51.1407930250553], [17.025984236023586, 51.140812399247494]]]}}]}