{"type":"FeatureCollection","features":[{"type":"Feature","properties":{"name":"Karłowice–Różanka — okręg 1","district":1,"precinct":84,"seats":4,"election_year":2021,"polling_station":"Liceum Ogólnokształcące nr XIV, al. Aleksandra Brücknera 10","reconstruction":true,"method":"official 2021 address rules + current SIP EMUiA address points + current cadastral parcels","crs":"EPSG:4326"},"geometry":{"type":"MultiPolygon","coordinates":[[[[17.04957769281417,51.13445873621033],[17.04919804922345,51.13450547093258],[17.049029677670973,51.13452483207008],[17.04873748764577,51.13455370378048],[17.048438634902848,51.134575122068654],[17.048177063581033,51.13458873436156],[17.047953546949124,51.13459446629713],[17.04787635791369,51.13462866380166],[17.04780643223607,51.134638306732384],[17.047784090634835,51.134628317117716],[17.047633132505517,51.13460476659472],[17.047300164400962,51.13461130496199],[17.047013823669193,51.134612073424414],[17.0467248560848,51.13461481547607],[17.046531956454917,51.134612352975],[17.046240068345302,51.13460912785892],[17.04595240081402,51.13459593096343],[17.045666486128123,51.134580886805665],[17.045095418731854,51.13454851924136],[17.044882444447385,51.134532891067494],[17.044525100394726,51.134504126851375],[17.044238989785285,51.13448062732647],[17.04395868612802,51.13444993790182],[17.043676745147685,51.13442036711138],[17.04339732326526,51.13438437965412],[17.043120608126063,51.13434327159305],[17.042987244884944,51.134325117969894],[17.042841221470656,51.13430216797954],[17.042562568787503,51.13425945156809],[17.042286359570404,51.13421537009429],[17.042007823599203,51.134171205978866],[17.041730495910127,51.134128057939975],[17.041485023510162,51.134093575660486],[17.04089474935467,51.134018347251974],[17.040330423094904,51.13396386115928],[17.039976657789097,51.13393029393166],[17.03951968706413,51.133889270666835],[17.03923612334193,51.13385970279043],[17.038972368815376,51.13382780687555],[17.038757646019665,51.133798929376454],[17.038095656002127,51.13369814204009],[17.03780190392776,51.133650156968],[17.037345106778634,51.13356940132241],[17.036799914744794,51.13346649353063],[17.03662995357311,51.13342828092907],[17.0363202767258,51.13337602569723],[17.03630758908947,51.13337602003313],[17.036198504049775,51.13335386952734],[17.036188377577275,51.13337290707442],[17.036229444474323,51.133381677815564],[17.03615040253458,51.13359376665755],[17.03663058176359,51.13368441044065],[17.03679981766202,51.133721816983986],[17.036923204690073,51.133763960835395],[17.037059432575038,51.13380494274542],[17.03711084249405,51.13382205983286],[17.03715396455806,51.133836465703766],[17.037282482073287,51.13387996390315],[17.03737743072692,51.13392101015607],[17.03738575541999,51.13392470150965],[17.037654552850544,51.134042529679256],[17.037962571276775,51.13415356006276],[17.037968027131246,51.134136479648724],[17.038530085964425,51.13432487740051],[17.038539397583005,51.13430582396707],[17.039259999467742,51.134541962060105],[17.03924653545521,51.13466609746843],[17.03938639521252,51.13468514475846],[17.04060092705714,51.134926328471536],[17.04096894411995,51.13495378082348],[17.04221629079148,51.13505165204851],[17.04347138787195,51.13514879124252],[17.04428455259734,51.1352116156237],[17.045063296225354,51.13527523204477],[17.045489553733894,51.1353133309669],[17.046125277356253,51.135348929832446],[17.046868161333766,51.13527652499568],[17.04754384885861,51.13523095966561],[17.047530502426877,51.13527544861827],[17.047111577459354,51.13659490771673],[17.047075698584297,51.136708702990795],[17.047573011144873,51.13684426362002],[17.04762826770756,51.13665740532655],[17.04769684124881,51.13666571280116],[17.047754540189953,51.13667266415173],[17.047932055068866,51.13669408438789],[17.047995967712655,51.13670183234389],[17.04827810303667,51.1367359609835],[17.048160695559172,51.13713386709827],[17.048933668084967,51.13722704051785],[17.04902995271894,51.136909679925566],[17.049091387065605,51.13669378069838],[17.04933422615224,51.136723838587244],[17.049502510520277,51.136744597076536],[17.049670780571166,51.13676536419649],[17.049839065247326,51.13678612220296],[17.049867197580895,51.13678973985555],[17.05000733560637,51.13680688884009],[17.050175620406208,51.13682765535186],[17.050221325120656,51.136833519209986],[17.050515307087032,51.136869806270504],[17.050367666307135,51.137356960991795],[17.050355214556244,51.13736908580057],[17.05033605055838,51.13738103024872],[17.0503070431084,51.13739009898192],[17.050282468314013,51.13739205693664],[17.05070402588743,51.13744378983119],[17.051024439114617,51.13748395791034],[17.051162597875948,51.13704220407143],[17.051512003541713,51.137084359019866],[17.051892436099852,51.1370076966231],[17.05190897842308,51.137035123287596],[17.05194845931892,51.137101400359214],[17.05208869637609,51.13760991256447],[17.052723835547184,51.13768841422482],[17.052707349741635,51.13761559943273],[17.053294367562884,51.13731662865998],[17.053368860501315,51.13727873799598],[17.053434908036483,51.13724505800064],[17.053457072973103,51.13723445881234],[17.053478136628474,51.13741398164987],[17.054066023323035,51.13748816511305],[17.054102591461042,51.13737339345971],[17.054397406377515,51.13722442791912],[17.054623789671115,51.137402149444206],[17.05484398178264,51.137391199824364],[17.054907861117144,51.13738808423922],[17.05502802664188,51.137382124228445],[17.055185482415183,51.13737428986313],[17.055179548432132,51.13743468827453],[17.0551669326047,51.13759772137773],[17.05515908786402,51.137693622421814],[17.055070021379354,51.13797716426887],[17.05512042244409,51.13798335181932],[17.0551342304988,51.137930631257476],[17.055173281630445,51.13778090964097],[17.055370590024882,51.137789263692675],[17.05550673643013,51.13779499294346],[17.055514567450995,51.13770673296375],[17.055664719673207,51.137710939024736],[17.055662109189736,51.137742939047016],[17.055573816017667,51.13774010452753],[17.055569184325435,51.137797627795415],[17.05556223076012,51.13787860426446],[17.05555946806707,51.137914558496504],[17.055703480977147,51.137920647700504],[17.055609781074956,51.1380182108078],[17.055594775174097,51.13802881427501],[17.05558262335302,51.1380333008633],[17.05556575499433,51.13803643687503],[17.055548747335756,51.138035894996435],[17.056041033508183,51.13809680981673],[17.056052333015213,51.13809277477334],[17.05605304755346,51.13809277155091],[17.056056611416196,51.13809529044588],[17.056055326799893,51.13809942430159],[17.056223324588654,51.13811991007891],[17.05625717730231,51.13812406678189],[17.056747899658955,51.1381832759488],[17.05675887510611,51.138184623017814],[17.056817039827656,51.13800197315162],[17.056969691817674,51.1380210036302],[17.05699475966938,51.13794083837975],[17.05699580366843,51.13793167736506],[17.05699527792269,51.137922413796815],[17.05699303590034,51.13791322628632],[17.05698936151215,51.137904207019076],[17.056984110057325,51.13789544472459],[17.056904893636887,51.13782792303262],[17.05683441084885,51.13776658467414],[17.056838969678648,51.13776445493572],[17.05702853559,51.13767520615416],[17.057049933087143,51.13770154752078],[17.057139186068923,51.13774284634391],[17.057418388425166,51.13785497729481],[17.057727167084476,51.13797503201227],[17.057778129249098,51.13788768573884],[17.05783308968985,51.13780537888195],[17.057850981790928,51.1377828241797],[17.057988544833908,51.13781093716519],[17.058293663267573,51.13787426324804],[17.058583362277904,51.13793417420482],[17.058654071690206,51.137947958134596],[17.058664948521404,51.13793448031644],[17.05872058865158,51.13787770010324],[17.05877680378103,51.137820744698196],[17.058795228813505,51.13782677220431],[17.058740163303963,51.13788481562723],[17.05868307784923,51.13794240227375],[17.058868043233783,51.138005487870366],[17.058875033187718,51.13800747689169],[17.05900415711275,51.13804941874834],[17.059546040742077,51.13784336600401],[17.05961012714925,51.137909550637914],[17.059627094379646,51.13792825965999],[17.059644228315637,51.13795001750732],[17.059659057710597,51.13797267376575],[17.05967159620817,51.137997666887976],[17.059679722256455,51.138011962820784],[17.059684704410166,51.138034710704446],[17.059691106739596,51.13806140746768],[17.059733032355567,51.13825764673827],[17.059762829911982,51.13843402027076],[17.05967362282809,51.13847820629846],[17.060075358992524,51.13864642247313],[17.060064405035092,51.138595453091796],[17.060235039146953,51.138622804385214],[17.060604509923703,51.138667934052606],[17.060614586014445,51.13866009511595],[17.06062718104793,51.138649948094894],[17.06063346899822,51.13864006505133],[17.06063577876541,51.138626940754385],[17.060619216087787,51.13834746374066],[17.060606485562214,51.138226289050685],[17.060600098818494,51.13819105230942],[17.06056414472987,51.13801512396858],[17.06055434587715,51.13796072986573],[17.060533171817745,51.13786202435667],[17.060501904816032,51.13771638376938],[17.06016210169895,51.13774537800372],[17.060155264766486,51.13773233303373],[17.06017798185847,51.137730367066176],[17.060171851166103,51.13771913468977],[17.06012808468583,51.13763811894681],[17.060078462498097,51.137546412392524],[17.060019865922214,51.13743645663545],[17.0599756736368,51.137353918158766],[17.05993117783241,51.13727155701688],[17.05989881705051,51.137213655325795],[17.05989483213324,51.137205829276105],[17.059881001058287,51.13717975601674],[17.059879434243342,51.13717669593406],[17.059834379346427,51.13709092318424],[17.059810710273734,51.137049020979674],[17.05978960949266,51.13701152636147],[17.059747833071818,51.13693249519272],[17.059727158485146,51.13689301727828],[17.059704485708437,51.13685202202436],[17.059662576018624,51.136772531279085],[17.059643172671738,51.136738007871756],[17.059618514433364,51.136692061322854],[17.059574885434046,51.136611406044544],[17.059557907738586,51.136581280081806],[17.059529818072065,51.13652841086486],[17.059485041575037,51.13644587647699],[17.059473784155028,51.136425370470434],[17.059437997256012,51.13635892789731],[17.0593926462927,51.13627584947228],[17.059389229024607,51.13626892693322],[17.059338748709894,51.1361774019165],[17.05930451862614,51.1361131203448],[17.059292829912536,51.13609064211866],[17.059259329921854,51.13602770586162],[17.059233658566928,51.13598032172152],[17.05951119336326,51.13587676382329],[17.059502219556517,51.13586905046217],[17.05933021809051,51.13572246642945],[17.059283832681995,51.13568119045564],[17.05916007146364,51.13557606786208],[17.059109681139937,51.13553289874255],[17.058934524354004,51.13539404678875],[17.058801623205156,51.13529017173674],[17.058757373843914,51.13525491782073],[17.05858236586293,51.135115877742145],[17.05875432455037,51.135035950522024],[17.058926282462796,51.13495603203301],[17.058740140940095,51.13480943219753],[17.05909991755708,51.134643124216225],[17.058962039216265,51.13452621924953],[17.058949753233794,51.134518389295174],[17.05892861910233,51.134510739850114],[17.058908615751335,51.13450650657568],[17.058873609727566,51.13451000052662],[17.058846744361116,51.134517892988114],[17.059225977361155,51.13432705563059],[17.05942539185166,51.13422754409869],[17.059641778110173,51.13440596667115],[17.05984247726527,51.13431211924643],[17.059655792805252,51.13414439981497],[17.059632523066494,51.13412371632014],[17.059412016297788,51.133929456783044],[17.0591389009862,51.1337598816678],[17.059020271641245,51.13368513122623],[17.058903913995227,51.1336118103173],[17.058716178656525,51.1334946746176],[17.058696768995457,51.1334823464127],[17.05852986588743,51.13337789167025],[17.05833771630908,51.133259407328495],[17.05814727457916,51.13313849123641],[17.05795968724983,51.13302269495151],[17.05778908984175,51.13291598893304],[17.057667312869306,51.13284096002649],[17.056997643500914,51.13242143597896],[17.056916008114477,51.13246750587491],[17.05683864367097,51.132416135403574],[17.056686048391498,51.132315290351215],[17.056788710178047,51.13225052991819],[17.05671917348529,51.13220698955383],[17.05675450166519,51.13218129441727],[17.05692718973308,51.13208341443141],[17.05700165693852,51.13204201528158],[17.057097018227278,51.132099949362534],[17.0570837251437,51.13210794185745],[17.058316438511543,51.13287392177226],[17.058525724425902,51.13300401490559],[17.059354604001314,51.133523831721035],[17.059747212577186,51.133769961038],[17.060100011120486,51.133972816554454],[17.06017809892153,51.13390229107648],[17.06028002310561,51.13398008843763],[17.06030331221719,51.13399278915537],[17.060371683023185,51.13403000726097],[17.06057601696734,51.13413076862303],[17.06067622448712,51.13420379632159],[17.060739844316036,51.134169571311745],[17.060966696130414,51.13431761856223],[17.061746645419618,51.13482686697825],[17.06213780124481,51.135123300505526],[17.062189551404085,51.1350931147588],[17.062485329301477,51.13534753775868],[17.062780999296283,51.13553264000982],[17.06278702358936,51.135537147148995],[17.06284620122106,51.13550426980571],[17.062892314927737,51.13554429262212],[17.062916724738027,51.13556452612068],[17.062941268605083,51.13558449099895],[17.062967977461724,51.13560338547191],[17.06307604272972,51.13567821802449],[17.06310460090919,51.13569611145182],[17.063133164386034,51.13571374421493],[17.06316100473537,51.1357311014891],[17.06319084928732,51.135747566857276],[17.06321925620803,51.13576376000259],[17.063250388844246,51.13577941761579],[17.06338690965688,51.13584266541013],[17.06340461532646,51.13585175189843],[17.063480598810646,51.135885855783144],[17.063754799092326,51.13598834861706],[17.063792407896468,51.135960053645825],[17.063925923906073,51.136033462012335],[17.06403830420351,51.13609076244643],[17.064263947606374,51.136190006757914],[17.0643439143168,51.13622150798255],[17.064623279116372,51.136327420185495],[17.064495453909768,51.13641563790229],[17.064601415466573,51.136465389084506],[17.064712240704768,51.136514882407866],[17.06491160722476,51.13660224675725],[17.065098124869625,51.13667423465692],[17.065667532451524,51.13690193484471],[17.06566854109797,51.13690081020864],[17.06578793705797,51.13694913040469],[17.06586263245048,51.136984220285704],[17.06636625517808,51.13714486826531],[17.066479956596297,51.13718087143604],[17.0664925182553,51.13718717455257],[17.066454614179847,51.137231559475644],[17.066617568721398,51.13729742368044],[17.066698978462274,51.13732981577988],[17.066781249366628,51.13736131573033],[17.06708575232746,51.137473346752486],[17.067113604309277,51.137483871043614],[17.067829917961713,51.13770770713696],[17.067863922524406,51.137708616430416],[17.06792226531457,51.13767528938661],[17.068207640692307,51.13749481313129],[17.06835179133648,51.1373464009874],[17.068273224083406,51.137352337520554],[17.068588978122918,51.137013336409716],[17.068594459374385,51.13701646350749],[17.068610693674348,51.13707957417875],[17.068791619390836,51.13688440260727],[17.068702337455335,51.136833457597746],[17.06799919438294,51.136432141489934],[17.067727721656404,51.13627805291023],[17.06870549038502,51.1355993135487],[17.068837010388247,51.13550803721911],[17.069053030072137,51.1356932804148],[17.069268064409865,51.135875737561584],[17.06944547734527,51.13610016423005],[17.069643652081236,51.13641709731433],[17.069755744208752,51.13648842275573],[17.069751310699285,51.13649075176496],[17.069785602657305,51.13651998013856],[17.069936483949284,51.13664849134118],[17.06980327311977,51.136707950116985],[17.069501367697207,51.13701041393822],[17.06949435010836,51.13701760374947],[17.069642767894685,51.13705828497049],[17.069527167735036,51.13722112947329],[17.06926148121451,51.137134827432284],[17.069233019543983,51.137170955003086],[17.069169162049032,51.13714746926622],[17.069121805385937,51.13721153902866],[17.069061864166663,51.137293865432135],[17.069004205743624,51.13737564362961],[17.068663173817725,51.137267255192434],[17.068574732376145,51.13735204228572],[17.068639683609753,51.13737656187487],[17.06891694305628,51.137481413178755],[17.069043325367108,51.137569816492146],[17.069123424642704,51.13763124197129],[17.069054470227176,51.13772758338195],[17.07138759767656,51.13844722432269],[17.071939702902938,51.13861755535238],[17.07315419492174,51.138994107164606],[17.07317290225252,51.13901469783457],[17.073142163813905,51.139024037180896],[17.07316273023685,51.139047411391545],[17.07319912339631,51.139087514864286],[17.073034892597615,51.13915452549098],[17.07303971679533,51.139191915636786],[17.074398664261576,51.1396183050703],[17.074589112411825,51.139658000105634],[17.07469970341961,51.13967151453287],[17.074852587404166,51.139682432796654],[17.07484724092133,51.13974616292141],[17.076475156377022,51.14018564074256],[17.076536303874995,51.14020066878905],[17.075210107061658,51.140643437183805],[17.075273892463322,51.14062214219486],[17.07530988377005,51.14061012715533],[17.075413587829384,51.140575504534475],[17.0754577187679,51.14056077060895],[17.075548644854088,51.140530414016744],[17.075595501867195,51.140514770261916],[17.075652715395293,51.14049566912539],[17.07567620931162,51.14048782617134],[17.075701077121664,51.14047952301416],[17.075733906149967,51.140468563405804],[17.07577754343615,51.14045399446362],[17.075814891111076,51.14044152522392],[17.075876414527492,51.14042098463551],[17.075887747863355,51.140417200556094],[17.075946399756578,51.140397618908864],[17.075958229386877,51.14039366973887],[17.075959623394088,51.14039320430253],[17.076025875372338,51.14037108466047],[17.076063220020735,51.14035861711568],[17.07609769896545,51.14034710589118],[17.076098367908948,51.140346882839104],[17.07611364774536,51.14035163769571],[17.0764585174076,51.14045933604885],[17.076686210275714,51.14053044023531],[17.076746786282268,51.14054935706441],[17.077014201133714,51.14063450492425],[17.077054383620197,51.14064662450834],[17.077253836058773,51.14070678459324],[17.07732200239794,51.14072833743456],[17.0775622906268,51.14080431006461],[17.077767047380497,51.14086748936698],[17.07790669105348,51.14091057736179],[17.07826508306819,51.14102116105209],[17.07847341336439,51.14108761792128],[17.07849434153686,51.141094151967],[17.07873336708683,51.14116877816666],[17.079133039975986,51.14129355803102],[17.079328581773833,51.14135460609989],[17.07983611458507,51.14151305637559],[17.07991391548284,51.1415373929693],[17.08002769913755,51.14157298528865],[17.08009364707716,51.14159361379936],[17.08022994156635,51.14163624655181],[17.080341672141834,51.141670976494424],[17.080535938430103,51.14173136075457],[17.080630447065705,51.1417607374496],[17.081609997524883,51.14204024897195],[17.08161316653152,51.14202638309487],[17.08162041051152,51.14199469313273],[17.081622682790552,51.141984751374906],[17.08163174190883,51.141944983208546],[17.081633852099973,51.14193571979298],[17.08164590276173,51.14188281700784],[17.081646258176757,51.14188125380669],[17.081654799203896,51.1418437550449],[17.08165942648372,51.141823446068955],[17.081672078316302,51.14176789875941],[17.081696836877306,51.1416592081744],[17.081702818004768,51.141628498946204],[17.081703000956644,51.14162756096729],[17.081711321033787,51.141584843788145],[17.081716592658204,51.141557769784704],[17.081728268397608,51.141497824272214],[17.081751640586518,51.141377821034524],[17.081755212531327,51.14135732667221],[17.08176134177135,51.14132217323476],[17.081792336946894,51.14114436723675],[17.081818800782212,51.14097597913815],[17.081829167965704,51.140910018269956],[17.081839192071435,51.140854218373526],[17.081844846629732,51.14082274425078],[17.081877106423942,51.140643034254474],[17.08188755361891,51.14060897907486],[17.081926669913386,51.14048147887602],[17.081997606767327,51.14025025355634],[17.08200522738858,51.140225411217614],[17.082027720900545,51.140105833406885],[17.08204310422038,51.140024050591734],[17.082050597454796,51.139942726345495],[17.082053833142485,51.13990761489991],[17.082056905046656,51.139874276720214],[17.082061171645528,51.139827966001846],[17.082060921400366,51.13982523658598],[17.082045654426732,51.13965877456185],[17.081922514372085,51.13935388699266],[17.081862997744473,51.13920652730558],[17.0816597858937,51.13869429415985],[17.08132108994096,51.13786902673071],[17.08100515036092,51.13684458209498],[17.08059880736018,51.135763203677904],[17.08016987872043,51.13466759067284],[17.079786129329623,51.13367157869821],[17.07931203551619,51.132547495171174],[17.07892830129305,51.1315799349479],[17.078680021758647,51.13093963761621],[17.07858181787457,51.13072638120982],[17.07855509262936,51.13058774188211],[17.078523646421424,51.130306353019414],[17.078492444440037,51.12974452433924],[17.0784892769463,51.1295836603247],[17.07833506895002,51.127607545611795],[17.07795406713656,51.12762349416798],[17.077950063491542,51.127623665537556],[17.07345055775739,51.12781625963134],[17.070638186114337,51.12796013661428],[17.067768297181384,51.12811349585027],[17.067761419605436,51.12811386336965],[17.066039578602798,51.12819263626878],[17.0643454464776,51.128380535817314],[17.06178157258628,51.12884727484869],[17.060456964541984,51.12936631663698],[17.05940847297705,51.129777163407255],[17.059284564352367,51.12982571645237],[17.059005192104717,51.129993266445865],[17.058827757449404,51.13009968064983],[17.058185192166757,51.13048505110029],[17.056983975453416,51.13120546572341],[17.056261176530377,51.131638955291066],[17.05623515578813,51.13165456090412],[17.05644406926701,51.131781249922064],[17.05687052639305,51.13204828440257],[17.0565194407405,51.132246541962026],[17.056344471732334,51.13235181041252],[17.056145401526955,51.132464642155256],[17.056082734464514,51.13250324133739],[17.05596268109631,51.13256458853073],[17.05572590138493,51.1326586144542],[17.05542270844878,51.132770972774516],[17.055353439883056,51.13279834411353],[17.05531898951001,51.13281947018738],[17.05521736576099,51.13284370339441],[17.054936473420863,51.13294487769916],[17.05450084089156,51.13310137224629],[17.054344047564022,51.13316002050464],[17.05418337979771,51.13322366243231],[17.053951890727493,51.133320640206975],[17.053740990307166,51.133400811658774],[17.05351595082327,51.133493229068264],[17.053267859314936,51.133583769380586],[17.05301234701583,51.13367940913645],[17.052795639322742,51.13375274467854],[17.05250710414556,51.13384564371148],[17.052238711401507,51.13392471737929],[17.051982173606785,51.13399209211407],[17.051639427583208,51.134073743992246],[17.05123759224302,51.134165460370006],[17.050706697722408,51.1342741880485],[17.05028901398667,51.13435192846898],[17.050244229526747,51.1343563472702],[17.05014178748101,51.134375598155614],[17.050022986885548,51.134391983218464],[17.04957769281417,51.13445873621033]],[[17.05524402240065,51.13777069354838],[17.05526519216755,51.1375042947277],[17.055351343094138,51.137507750442744],[17.055330886907836,51.13777351677685],[17.05524402240065,51.13777069354838]],[[17.05886765215277,51.134613741775176],[17.058867651733188,51.13461374266231],[17.05886765122867,51.13461374350405],[17.05886765064408,51.134613744292274],[17.058867649985043,51.13461374501941],[17.058867649257905,51.13461374567844],[17.058867648469676,51.134613746263035],[17.05886764762794,51.134613746767556],[17.058867646740808,51.13461374718714],[17.05886764581682,51.13461374751775],[17.058867644864876,51.1346137477562],[17.058867643894146,51.13461374790019],[17.058867642913974,51.13461374794834],[17.0588676419338,51.13461374790019],[17.058867640963072,51.1346137477562],[17.058867640011126,51.13461374751775],[17.05886763908714,51.13461374718714],[17.058867638200006,51.134613746767556],[17.058867637358272,51.134613746263035],[17.058867636570042,51.13461374567844],[17.058867635842905,51.13461374501941],[17.05886763518387,51.134613744292274],[17.058867634599277,51.13461374350405],[17.05886763409476,51.13461374266231],[17.058867633675177,51.134613741775176],[17.05886763334457,51.13461374085119],[17.05886763310612,51.134613739899244],[17.058867632962126,51.134613738928515],[17.058867632913973,51.13461373794834],[17.058867632962126,51.13461373696817],[17.05886763310612,51.13461373599744],[17.05886763334457,51.1346137350455],[17.058867633675177,51.13461373412151],[17.05886763409476,51.134613733234374],[17.058867634599277,51.13461373239264],[17.05886763518387,51.13461373160441],[17.058867635842905,51.13461373087728],[17.058867636570042,51.13461373021824],[17.058867637358272,51.13461372963365],[17.058867638200006,51.13461372912913],[17.05886763908714,51.134613728709546],[17.058867640011126,51.13461372837894],[17.058867640963072,51.134613728140486],[17.0588676419338,51.134613727996495],[17.058867642913974,51.13461372794834],[17.058867643894146,51.134613727996495],[17.058867644864876,51.134613728140486],[17.05886764581682,51.13461372837894],[17.058867646740808,51.134613728709546],[17.05886764762794,51.13461372912913],[17.058867648469676,51.13461372963365],[17.058867649257905,51.13461373021824],[17.058867649985043,51.13461373087728],[17.05886765064408,51.13461373160441],[17.05886765122867,51.13461373239264],[17.058867651733188,51.134613733234374],[17.05886765215277,51.13461373412151],[17.05886765248338,51.1346137350455],[17.058867652721826,51.13461373599744],[17.05886765286582,51.13461373696817],[17.058867652913975,51.13461373794834],[17.05886765286582,51.134613738928515],[17.058867652721826,51.134613739899244],[17.05886765248338,51.13461374085119],[17.05886765215277,51.134613741775176]]],[[[17.044135158720643,51.137997833094374],[17.044110021011743,51.137994499240286],[17.044026739295308,51.13798357032122],[17.043993393607586,51.13810713013132],[17.043858844102417,51.138090523057535],[17.043813434896595,51.138269549195556],[17.04397812911379,51.138296165496804],[17.043982210850054,51.13834138082575],[17.043709006237734,51.138356047748125],[17.04366485100061,51.13835745765282],[17.043638142501518,51.13835268149956],[17.04361301822818,51.1383369329472],[17.043581350474884,51.13830176717891],[17.043564118394453,51.138262296551595],[17.04355373511987,51.138228851057335],[17.04355659647903,51.13822660906681],[17.043542488311342,51.13820538599744],[17.04364947396644,51.13851314046356],[17.043674805947088,51.13848771812564],[17.043716411605914,51.13846931491745],[17.04375156871106,51.1384628601466],[17.043888315712884,51.13845476377766],[17.043937660958896,51.13880465764309],[17.043948837326738,51.13888412757816],[17.043966402938274,51.1388811877218],[17.043988142300492,51.138877499881424],[17.044165360588153,51.13884856339007],[17.04421309034119,51.13884499802389],[17.0442419846183,51.13884289684897],[17.044215264865898,51.13896044284223],[17.04422025429098,51.13896102299644],[17.04423020367297,51.138922089245135],[17.044246563972116,51.138842574686386],[17.044286676548374,51.13883973813009],[17.04432253985926,51.13883715450591],[17.04442758273653,51.13882957153906],[17.04456805226117,51.13881563454973],[17.044800687398855,51.13880182989689],[17.044827269312226,51.138799601815684],[17.045013465875726,51.138787035594575],[17.04510890871718,51.13878762612016],[17.045320371044138,51.1387888310715],[17.04532842583501,51.13875441254395],[17.045386064919455,51.13850940279081],[17.04536581045928,51.138486835267315],[17.045317400052667,51.13847215555614],[17.04549297630872,51.13848600335528],[17.0455735520714,51.13849378074631],[17.045855994222663,51.138521094556914],[17.04582235324944,51.13866058210633],[17.045864209568855,51.13866464530415],[17.04605337069914,51.13868291811735],[17.04618908080989,51.13869602616126],[17.046375375836444,51.138714014378415],[17.046564807172683,51.13873236947306],[17.046598874582777,51.138592885194264],[17.046761311083483,51.13860852977445],[17.04672724415012,51.138748014102745],[17.046917974248295,51.138766460117296],[17.047104255569526,51.13878444705975],[17.047239839371123,51.138797471946376],[17.047427703323144,51.13881564206898],[17.047470501227494,51.13881979326685],[17.047477373980538,51.13879135207156],[17.047504051453842,51.13868031351136],[17.047841763883405,51.13871339451182],[17.047852455758683,51.13863196346865],[17.047630164228845,51.13861053810773],[17.047664358771907,51.13847096466391],[17.04768533495748,51.138385581025815],[17.047714083621702,51.13826829349528],[17.047936362961355,51.13828953881037],[17.047970570619274,51.138149965379576],[17.047996675429502,51.1380757256428],[17.047660385323844,51.13804318704434],[17.047684814337423,51.13794207266955],[17.047709381391446,51.13783979974806],[17.04773424905077,51.13773680110633],[17.047758090452234,51.137637839442284],[17.04766495993639,51.13762637445115],[17.04763195131933,51.137622222130936],[17.047526535138967,51.13760921863998],[17.047484900771586,51.13774717626077],[17.047372756251008,51.13773614949272],[17.047231474611145,51.13772240410739],[17.047203041201175,51.13771951153072],[17.04724811577904,51.137574821819626],[17.04716425146838,51.13756442976688],[17.047080115375067,51.13755405341867],[17.046996122374225,51.137543669186186],[17.046932539748916,51.13753580651162],[17.046887845182177,51.137532223982355],[17.046844147181783,51.13770924255441],[17.04647586024703,51.13767146848469],[17.04627842567406,51.137651303974025],[17.046200913344663,51.13790267859419],[17.04547661038136,51.13783278100284],[17.045366187651965,51.137822116958766],[17.04540910413797,51.13768119496785],[17.045464926767124,51.13750477929544],[17.045499533319795,51.13739054263057],[17.045536702007613,51.13727469973779],[17.0455227055427,51.13727297636205],[17.045066990422367,51.137216361146955],[17.045129423672517,51.137012527232535],[17.045158301695782,51.13700769284832],[17.044894872691227,51.136974194892886],[17.04493870080947,51.136994806493284],[17.044949804906615,51.13702797907673],[17.044879628886562,51.13725176061885],[17.04463091650968,51.137220342004085],[17.04438634968099,51.13718955004953],[17.04435102582431,51.13730656732564],[17.04433237766447,51.137365431980776],[17.044313002302818,51.13742698758431],[17.04428499471915,51.13742355839781],[17.044265330930862,51.137485929694044],[17.044211220418173,51.137662250923874],[17.04369708004003,51.13759912083006],[17.043691911225675,51.13761691402591],[17.044232196847652,51.13768302662383],[17.044223713206573,51.13771673139694],[17.04417535397857,51.13786293934062],[17.044177351362826,51.13786447491521],[17.044315930369734,51.13788244502001],[17.044296258978438,51.13795002126048],[17.04415611526055,51.13793169673817],[17.044135158720643,51.137997833094374]]],[[[17.049275784837054,51.139185887721624],[17.04930367770143,51.139269412486435],[17.049331569003066,51.13935301813721],[17.049345937387976,51.139395808761535],[17.049375686244716,51.139484994086914],[17.04938450330618,51.13951142338314],[17.04945224480579,51.13971424091027],[17.049490811244716,51.13982985549342],[17.049527668366025,51.139940341063884],[17.04956665594416,51.14005703779599],[17.049604228404277,51.14016958777804],[17.049631404415624,51.14025049962652],[17.049648620008234,51.14030219510668],[17.049668260765497,51.140363142650386],[17.049881545010138,51.140389417253374],[17.04992469724894,51.140389614984166],[17.049983715015216,51.14038964491738],[17.050381069837023,51.139123993149624],[17.05037722544009,51.139105209541775],[17.050351806036126,51.139093963861065],[17.05033823004255,51.139098177642026],[17.05031727814397,51.13900152168428],[17.050299315780755,51.13891865313918],[17.050134460006785,51.138900323908324],[17.05015347541038,51.138780062088124],[17.050214765875243,51.13878692451743],[17.05024367335792,51.13874864764706],[17.050331216300197,51.13857152543241],[17.05032824508718,51.13854779561832],[17.04981938837165,51.138486047895604],[17.049771291370277,51.13844350468515],[17.04972249283117,51.13840033546879],[17.04978919977297,51.13830202735017],[17.049860204278424,51.138197614180534],[17.049863504589045,51.1381927686061],[17.04974306736776,51.13818120029415],[17.0494779207785,51.13815570851495],[17.049449640421436,51.138152997522745],[17.049364913667358,51.13814486543418],[17.049322628880738,51.13814080000569],[17.048997773393314,51.13810943696386],[17.04898091672646,51.13810780761077],[17.048945619098188,51.13822060130647],[17.048945187663808,51.13822212603751],[17.048928543693876,51.138275515026734],[17.048716535703402,51.138255083306966],[17.048727757996687,51.1381950428597],[17.04852490166417,51.13817084665087],[17.048516010181487,51.13819951420526],[17.04813199921768,51.138162453479815],[17.048124386472367,51.13819354962706],[17.04810282827447,51.138282263764985],[17.048070210978576,51.138416087813404],[17.04803112728544,51.138575974130625],[17.04811262300631,51.13853835056785],[17.04840920032212,51.13856700483422],[17.048363652788222,51.13875359184068],[17.048391947731925,51.138756303213086],[17.048370386258558,51.13884518816785],[17.048539825669508,51.13886155248784],[17.04858225391424,51.138865619364246],[17.048709393974,51.13887790862072],[17.04883655023744,51.13889010797407],[17.04893526659679,51.138899693662516],[17.04899141382976,51.13890511252357],[17.049214563015184,51.13892662316923],[17.0492257604655,51.138990900248],[17.049242346121282,51.139085740963885],[17.049275784837054,51.139185887721624]],[[17.0481947341073,51.13836482454363],[17.048194733380164,51.138364825202665],[17.048194732591934,51.13836482578726],[17.0481947317502,51.13836482629178],[17.048194730863067,51.13836482671136],[17.04819472993908,51.13836482704197],[17.048194728987134,51.13836482728042],[17.048194728016405,51.13836482742441],[17.048194727036233,51.138364827472564],[17.04819472605606,51.13836482742441],[17.04819472508533,51.13836482728042],[17.048194724133385,51.13836482704197],[17.0481947232094,51.13836482671136],[17.048194722322265,51.13836482629178],[17.04819472148053,51.13836482578726],[17.0481947206923,51.138364825202665],[17.048194719965164,51.13836482454363],[17.048194719306128,51.138364823816495],[17.048194718721536,51.13836482302827],[17.04819471821702,51.13836482218653],[17.048194717797436,51.1383648212994],[17.048194717466828,51.13836482037541],[17.04819471722838,51.138364819423465],[17.048194717084385,51.138364818452736],[17.048194717036232,51.138364817472564],[17.048194717084385,51.13836481649239],[17.04819471722838,51.13836481552166],[17.048194717466828,51.13836481456972],[17.048194717797436,51.13836481364573],[17.04819471821702,51.138364812758596],[17.048194718721536,51.13836481191686],[17.048194719306128,51.13836481112863],[17.048194719965164,51.1383648104015],[17.0481947206923,51.13836480974246],[17.04819472148053,51.13836480915787],[17.048194722322265,51.13836480865335],[17.0481947232094,51.13836480823377],[17.048194724133385,51.13836480790316],[17.04819472508533,51.13836480766471],[17.04819472605606,51.138364807520716],[17.048194727036233,51.13836480747256],[17.048194728016405,51.138364807520716],[17.048194728987134,51.13836480766471],[17.04819472993908,51.13836480790316],[17.048194730863067,51.13836480823377],[17.0481947317502,51.13836480865335],[17.048194732591934,51.13836480915787],[17.048194733380164,51.13836480974246],[17.0481947341073,51.1383648104015],[17.048194734766337,51.13836481112863],[17.04819473535093,51.13836481191686],[17.048194735855446,51.138364812758596],[17.04819473627503,51.13836481364573],[17.048194736605637,51.13836481456972],[17.048194736844085,51.13836481552166],[17.04819473698808,51.13836481649239],[17.048194737036233,51.138364817472564],[17.04819473698808,51.138364818452736],[17.048194736844085,51.138364819423465],[17.048194736605637,51.13836482037541],[17.04819473627503,51.1383648212994],[17.048194735855446,51.13836482218653],[17.04819473535093,51.13836482302827],[17.048194734766337,51.138364823816495],[17.0481947341073,51.13836482454363]]],[[[17.04885099345374,51.14054040900528],[17.04882630505521,51.140409435919835],[17.048878905860892,51.14040254613662],[17.04883436339226,51.14026903832098],[17.048832671431708,51.140248456262356],[17.048829588499547,51.140211420837836],[17.04888660336536,51.14020390171701],[17.048876924069717,51.140174238092705],[17.048830693497482,51.14003318322218],[17.04899646954787,51.14001106837586],[17.049013176931908,51.14001791050218],[17.049080997790828,51.14004571854632],[17.049022236592453,51.13986978094391],[17.048967152446902,51.13992314502142],[17.048910270222763,51.139930485466685],[17.04874034996072,51.13995331262317],[17.048735384013245,51.139927247220065],[17.04817721759338,51.13987364946131],[17.048151058319746,51.139984548533505],[17.048124613826612,51.140096802712605],[17.048098592626815,51.140206534240036],[17.047616145936136,51.14016061593897],[17.047585231675157,51.1402920984],[17.048109973771577,51.140341723199974],[17.04807992980051,51.140469167529034],[17.04755476422653,51.14042060891795],[17.047520428393977,51.14055029253337],[17.048085176810474,51.14060175350005],[17.048069939336617,51.14066726284476],[17.048054701633554,51.14073278117467],[17.048315429951526,51.14075629841544],[17.048284820144918,51.14088625528241],[17.047461475557807,51.140811644686686],[17.04742799744821,51.14094267471025],[17.04815105153967,51.14100770445157],[17.048253923903726,51.14101692897926],[17.04844107998473,51.14103384211996],[17.048730098014683,51.141059791056826],[17.04876043201887,51.140929292458715],[17.048773941578986,51.140871329263014],[17.048790617241643,51.14079907131915],[17.04879463337497,51.14078235628353],[17.048820945353135,51.14066884234191],[17.048823404483347,51.14065835345234],[17.0488477039353,51.1405544510399],[17.04885099345374,51.14054040900528]],[[17.0475640721828,51.14086225567417],[17.047564071295668,51.140862256093754],[17.04756407037168,51.14086225642436],[17.047564069419735,51.140862256662814],[17.047564068449006,51.140862256806805],[17.047564067468834,51.14086225685496],[17.04756406648866,51.140862256806805],[17.047564065517932,51.140862256662814],[17.047564064565986,51.14086225642436],[17.047564063642,51.140862256093754],[17.047564062754866,51.14086225567417],[17.047564061913132,51.14086225516965],[17.047564061124902,51.14086225458506],[17.047564060397765,51.140862253926024],[17.04756405973873,51.14086225319889],[17.047564059154137,51.14086225241066],[17.04756405864962,51.140862251568926],[17.047564058230037,51.14086225068179],[17.04756405789943,51.1408622497578],[17.04756405766098,51.14086224880586],[17.047564057516986,51.14086224783513],[17.047564057468833,51.14086224685496],[17.047564057516986,51.140862245874786],[17.04756405766098,51.140862244904056],[17.04756405789943,51.140862243952114],[17.047564058230037,51.140862243028124],[17.04756405864962,51.14086224214099],[17.047564059154137,51.14086224129925],[17.04756405973873,51.14086224051103],[17.047564060397765,51.14086223978389],[17.047564061124902,51.14086223912486],[17.047564061913132,51.140862238540265],[17.047564062754866,51.140862238035744],[17.047564063642,51.14086223761616],[17.047564064565986,51.14086223728555],[17.047564065517932,51.1408622370471],[17.04756406648866,51.14086223690311],[17.047564067468834,51.14086223685496],[17.047564068449006,51.14086223690311],[17.047564069419735,51.1408622370471],[17.04756407037168,51.14086223728555],[17.047564071295668,51.14086223761616],[17.0475640721828,51.140862238035744],[17.047564073024535,51.140862238540265],[17.047564073812765,51.14086223912486],[17.047564074539903,51.14086223978389],[17.047564075198938,51.14086224051103],[17.04756407578353,51.14086224129925],[17.047564076288047,51.14086224214099],[17.04756407670763,51.140862243028124],[17.04756407703824,51.140862243952114],[17.047564077276686,51.140862244904056],[17.04756407742068,51.140862245874786],[17.047564077468834,51.14086224685496],[17.04756407742068,51.14086224783513],[17.047564077276686,51.14086224880586],[17.04756407703824,51.1408622497578],[17.04756407670763,51.14086225068179],[17.047564076288047,51.140862251568926],[17.04756407578353,51.14086225241066],[17.047564075198938,51.14086225319889],[17.047564074539903,51.140862253926024],[17.047564073812765,51.14086225458506],[17.047564073024535,51.14086225516965],[17.0475640721828,51.14086225567417]],[[17.04773182508073,51.14026225912937],[17.047731824238998,51.14026225963389],[17.047731823351864,51.140262260053476],[17.047731822427878,51.140262260384084],[17.04773182147593,51.140262260622535],[17.047731820505202,51.14026226076653],[17.04773181952503,51.14026226081468],[17.047731818544857,51.14026226076653],[17.047731817574128,51.140262260622535],[17.047731816622182,51.140262260384084],[17.047731815698196,51.140262260053476],[17.047731814811062,51.14026225963389],[17.047731813969328,51.14026225912937],[17.047731813181098,51.14026225854478],[17.04773181245396,51.140262257885745],[17.047731811794925,51.14026225715861],[17.047731811210333,51.140262256370384],[17.047731810705816,51.14026225552865],[17.047731810286233,51.14026225464151],[17.047731809955625,51.14026225371752],[17.047731809717177,51.14026225276558],[17.047731809573182,51.14026225179485],[17.04773180952503,51.14026225081468],[17.047731809573182,51.14026224983451],[17.047731809717177,51.14026224886378],[17.047731809955625,51.140262247911835],[17.047731810286233,51.140262246987845],[17.047731810705816,51.14026224610071],[17.047731811210333,51.140262245258974],[17.047731811794925,51.14026224447075],[17.04773181245396,51.140262243743614],[17.047731813181098,51.14026224308458],[17.047731813969328,51.140262242499986],[17.047731814811062,51.140262241995465],[17.047731815698196,51.14026224157588],[17.047731816622182,51.140262241245274],[17.047731817574128,51.14026224100682],[17.047731818544857,51.14026224086283],[17.04773181952503,51.14026224081468],[17.047731820505202,51.14026224086283],[17.04773182147593,51.14026224100682],[17.047731822427878,51.140262241245274],[17.047731823351864,51.14026224157588],[17.047731824238998,51.140262241995465],[17.04773182508073,51.140262242499986],[17.04773182586896,51.14026224308458],[17.0477318265961,51.140262243743614],[17.047731827255134,51.14026224447075],[17.047731827839726,51.140262245258974],[17.047731828344244,51.14026224610071],[17.047731828763826,51.140262246987845],[17.047731829094435,51.140262247911835],[17.047731829332882,51.14026224886378],[17.047731829476877,51.14026224983451],[17.04773182952503,51.14026225081468],[17.047731829476877,51.14026225179485],[17.047731829332882,51.14026225276558],[17.047731829094435,51.14026225371752],[17.047731828763826,51.14026225464151],[17.047731828344244,51.14026225552865],[17.047731827839726,51.140262256370384],[17.047731827255134,51.14026225715861],[17.0477318265961,51.140262257885745],[17.04773182586896,51.14026225854478],[17.04773182508073,51.14026225912937]],[[17.04763048522972,51.140499680970215],[17.047630484899113,51.140499681894205],[17.04763048447953,51.14049968278134],[17.047630483975013,51.14049968362308],[17.04763048339042,51.1404996844113],[17.047630482731385,51.14049968513844],[17.047630482004248,51.14049968579747],[17.047630481216018,51.140499686382064],[17.047630480374284,51.140499686886585],[17.04763047948715,51.14049968730617],[17.047630478563164,51.140499687636776],[17.047630477611218,51.14049968787523],[17.04763047664049,51.14049968801922],[17.047630475660316,51.14049968806737],[17.047630474680144,51.14049968801922],[17.047630473709415,51.14049968787523],[17.04763047275747,51.140499687636776],[17.047630471833482,51.14049968730617],[17.04763047094635,51.140499686886585],[17.047630470104615,51.140499686382064],[17.047630469316385,51.14049968579747],[17.047630468589247,51.14049968513844],[17.04763046793021,51.1404996844113],[17.04763046734562,51.14049968362308],[17.047630466841103,51.14049968278134],[17.04763046642152,51.140499681894205],[17.04763046609091,51.140499680970215],[17.047630465852464,51.14049968001827],[17.04763046570847,51.140499679047544],[17.047630465660315,51.14049967806737],[17.04763046570847,51.1404996770872],[17.047630465852464,51.14049967611647],[17.04763046609091,51.14049967516453],[17.04763046642152,51.14049967424054],[17.047630466841103,51.1404996733534],[17.04763046734562,51.140499672511666],[17.04763046793021,51.14049967172344],[17.047630468589247,51.140499670996306],[17.047630469316385,51.14049967033727],[17.047630470104615,51.14049966975268],[17.04763047094635,51.14049966924816],[17.047630471833482,51.140499668828575],[17.04763047275747,51.14049966849797],[17.047630473709415,51.140499668259515],[17.047630474680144,51.140499668115524],[17.047630475660316,51.14049966806737],[17.04763047664049,51.140499668115524],[17.047630477611218,51.140499668259515],[17.047630478563164,51.14049966849797],[17.04763047948715,51.140499668828575],[17.047630480374284,51.14049966924816],[17.047630481216018,51.14049966975268],[17.047630482004248,51.14049967033727],[17.047630482731385,51.140499670996306],[17.04763048339042,51.14049967172344],[17.047630483975013,51.140499672511666],[17.04763048447953,51.1404996733534],[17.047630484899113,51.14049967424054],[17.04763048522972,51.14049967516453],[17.04763048546817,51.14049967611647],[17.047630485612164,51.1404996770872],[17.047630485660317,51.14049967806737],[17.047630485612164,51.140499679047544],[17.04763048546817,51.14049968001827],[17.04763048522972,51.140499680970215]]],[[[17.054395153959913,51.141078178237],[17.05531784656286,51.14140903691083],[17.055477083911622,51.14147912968],[17.055590024135373,51.14155324432318],[17.05566040417814,51.1416142139766],[17.055729775869278,51.14168048831955],[17.05582068516656,51.14177751024243],[17.055895470637402,51.14185933530874],[17.055979024467728,51.141638810802924],[17.056061790579186,51.14172872792484],[17.056165210623107,51.141752594017866],[17.056333725832168,51.14171331168252],[17.056187542289194,51.14146830623088],[17.05613235267111,51.14137579799254],[17.056273277600543,51.141343233077684],[17.056414216255206,51.14131068608338],[17.056510115964,51.14147138536147],[17.056796056482888,51.14139485262722],[17.056789009501998,51.14138301937395],[17.05670597189983,51.141243280017],[17.056996620852757,51.14117754536287],[17.056924164065773,51.1410599430442],[17.056995600789588,51.140939347765396],[17.057090316152845,51.140961138172344],[17.057333593287645,51.141017342719536],[17.057379455916717,51.14102832912633],[17.05757487234281,51.14107344975116],[17.05762002692044,51.14107500023079],[17.057643178659628,51.141075636258535],[17.0576798204374,51.141138040877735],[17.05762093435682,51.141151850940155],[17.057656739362532,51.141212540792765],[17.057755426971756,51.14138039927321],[17.058005122914306,51.141322189112515],[17.058270829167505,51.14125948666495],[17.05830438450668,51.14127486842464],[17.058288835125182,51.14125527167604],[17.058238893719885,51.14119258935609],[17.058235607148166,51.14118836473226],[17.058576215941354,51.14110771909595],[17.058481359456852,51.1409586445265],[17.05849507799291,51.14095514113064],[17.05857969666194,51.14093378869982],[17.058661313892653,51.14091315818977],[17.058752067190802,51.14089019192801],[17.058759650906136,51.14088830221057],[17.058923300509022,51.14084487772162],[17.05902893199774,51.140816879901486],[17.059094533494683,51.140799563262426],[17.059265635729446,51.14075433739776],[17.059296479117926,51.14074706116107],[17.05943685946549,51.14070944487692],[17.05946271471138,51.14070291057934],[17.05955524211003,51.14067839376647],[17.059701644873076,51.140639746835845],[17.059885667105014,51.14059156746471],[17.060263733296622,51.14048719771062],[17.0604383936063,51.14044116268743],[17.060450102057814,51.14043811037556],[17.060652369257543,51.140386507485076],[17.06072481470378,51.14049522563388],[17.06073238671304,51.140507988798106],[17.060802549653456,51.140489772914215],[17.060856713319435,51.140478314574935],[17.06098935675312,51.14044863507776],[17.061250452246156,51.140391579295276],[17.061542591097236,51.14032648358903],[17.0613872560391,51.14007850756034],[17.061317781643474,51.139965579545],[17.061226636090513,51.13981992606861],[17.061141766020388,51.139679123358384],[17.061102891587414,51.13968997640995],[17.06107858883368,51.13969680221137],[17.060713556275786,51.1397965956678],[17.060641376084302,51.139816386460666],[17.060450859664368,51.13986789494828],[17.059920737501788,51.14001243145162],[17.05984243504535,51.13987279529804],[17.059891035429537,51.13985942284036],[17.059885330248296,51.13985115146395],[17.059836816138493,51.13978218854173],[17.05975963345382,51.139672577720866],[17.05975084626362,51.1396056961035],[17.059728156640876,51.13957953364035],[17.059596014136886,51.13942639350632],[17.05954421203638,51.13936668132173],[17.059825226050524,51.13927009065839],[17.059948525106485,51.13940767031197],[17.059953677278756,51.13940587783838],[17.060074881120944,51.13936449282092],[17.060355180515618,51.13927418788915],[17.060363178548137,51.13927158222604],[17.06043579211574,51.13924941283318],[17.06039712030787,51.13920031539548],[17.060325205608457,51.139109229953334],[17.060153257176154,51.139165516802954],[17.05996081453412,51.13914170282881],[17.059906815117746,51.13913529067496],[17.059861810457733,51.13912996663052],[17.059701222959276,51.13911093008139],[17.059344350051454,51.139067355217534],[17.059325349501165,51.139065008922906],[17.059417371986935,51.13880077948872],[17.05943082895896,51.1387812813156],[17.059454275784216,51.13876663697802],[17.059484423173714,51.13875838421505],[17.059518580316556,51.13875884767856],[17.059185994258847,51.13871779593818],[17.0591501312606,51.138713381193135],[17.059178967919895,51.13874008765405],[17.059124200351956,51.13891138509807],[17.058872466961805,51.13888286719417],[17.05856917721019,51.13884308325512],[17.05854556296387,51.13887507606877],[17.058517223759562,51.13891595755137],[17.058484882423873,51.13896250623855],[17.05845796989148,51.1389999831295],[17.05841690673834,51.13905731207373],[17.058140057833544,51.138994079169734],[17.057837082176725,51.1389248188399],[17.057842814334215,51.138916999084366],[17.057897927325474,51.13883216734873],[17.057947167809353,51.13874589488976],[17.057989857158507,51.13865782565281],[17.058017347838497,51.13860318331449],[17.05804080328722,51.13858953717818],[17.058095390943546,51.138585958456595],[17.057839516996832,51.13855528341909],[17.05788136536055,51.138566803648665],[17.05789078674343,51.13857570736767],[17.05789432732043,51.13860816151422],[17.057881434886852,51.13863710318064],[17.05783846797103,51.13872265304412],[17.057791209525245,51.13880631645176],[17.057752706132856,51.13886562552975],[17.057724001868447,51.138861933255704],[17.05739355104389,51.13882132512164],[17.05710139232022,51.138785861202805],[17.057072745237246,51.13884670584419],[17.057040944662177,51.138916442773684],[17.056924257619173,51.13887072451119],[17.0569172557509,51.1388777339057],[17.056696909994802,51.13877740346918],[17.05681263611174,51.13866689226926],[17.056815638624858,51.13865979668961],[17.05644876004046,51.138509416268484],[17.056612330572783,51.138405763792676],[17.056453479389145,51.13838725817531],[17.0563173209538,51.13837011309327],[17.056278903132277,51.13847841592009],[17.056254856265998,51.138515438984165],[17.056219953860296,51.13854733125435],[17.055932679508423,51.13873281522054],[17.0558242521735,51.13872008258764],[17.055655531579163,51.13870130742949],[17.055432090718156,51.13867369376889],[17.05511037238406,51.13863597244669],[17.05508297694221,51.13872287869751],[17.055005550006726,51.13871475574304],[17.054693389967582,51.138676409313845],[17.054342660799996,51.138632563170724],[17.054370636591827,51.13854529320549],[17.054213203753537,51.13852732640108],[17.05415205772016,51.13852037733953],[17.054054345419193,51.138506399252364],[17.05391448235267,51.138490156329816],[17.053761044743275,51.13847039633768],[17.053738193802392,51.138467694353615],[17.05356504116292,51.13844701945804],[17.053577960480307,51.1384036141443],[17.05348080841471,51.13839160884147],[17.053535324387777,51.1382147383548],[17.053589831161734,51.138037598075],[17.05333682499904,51.13800672961045],[17.052984958664744,51.137963598328554],[17.052658100699972,51.13792389584446],[17.052563717712932,51.13822415843312],[17.052296435056487,51.138191940482955],[17.05223417617708,51.13839011603736],[17.05217837407449,51.13856743397536],[17.05213751308603,51.13856219447306],[17.052117863476607,51.138623668199926],[17.05209520944668,51.13869438589242],[17.0520528745932,51.13882669390657],[17.052010713150118,51.1389588954331],[17.051948729945078,51.13915256924098],[17.051886769078344,51.13934652187115],[17.05184932096634,51.13946344319326],[17.05189181692291,51.13953051780383],[17.05204824645148,51.13977760753434],[17.052020352375308,51.13991296318522],[17.05195624069722,51.14022304453508],[17.05195120076839,51.14024794093968],[17.051926757518547,51.140371071654194],[17.051942608008154,51.140497909102635],[17.05194755867678,51.14053736879956],[17.05197712213681,51.1406644882015],[17.05201222823005,51.140812643324736],[17.05202729583515,51.14087655592846],[17.05213185665619,51.141023853589175],[17.05353827230435,51.141068505186226],[17.05381834508105,51.141180552796094],[17.054151812084992,51.141209203196084],[17.054192880548165,51.14104078186348],[17.054188198174437,51.14101327166743],[17.054157070465862,51.140997350996976],[17.054395153959913,51.141078178237]],[[17.06106208419769,51.14013675271258],[17.061062083245744,51.14013675247413],[17.061062082321758,51.14013675214352],[17.061062081434624,51.14013675172394],[17.06106208059289,51.140136751219416],[17.06106207980466,51.140136750634824],[17.061062079077523,51.14013674997579],[17.061062078418487,51.140136749248654],[17.061062077833896,51.14013674846043],[17.061062077329378,51.14013674761869],[17.061062076909796,51.14013674673156],[17.061062076579187,51.14013674580757],[17.06106207634074,51.140136744855624],[17.061062076196745,51.140136743884895],[17.06106207614859,51.14013674290472],[17.061062076196745,51.14013674192455],[17.06106207634074,51.14013674095382],[17.061062076579187,51.14013674000188],[17.061062076909796,51.14013673907789],[17.061062077329378,51.140136738190755],[17.061062077833896,51.14013673734902],[17.061062078418487,51.14013673656079],[17.061062079077523,51.14013673583366],[17.06106207980466,51.14013673517462],[17.06106208059289,51.14013673459003],[17.061062081434624,51.14013673408551],[17.061062082321758,51.140136733665926],[17.061062083245744,51.14013673333532],[17.06106208419769,51.14013673309687],[17.06106208516842,51.140136732952875],[17.061062086148592,51.14013673290472],[17.061062087128764,51.140136732952875],[17.061062088099494,51.14013673309687],[17.06106208905144,51.14013673333532],[17.061062089975426,51.140136733665926],[17.06106209086256,51.14013673408551],[17.061062091704294,51.14013673459003],[17.061062092492524,51.14013673517462],[17.06106209321966,51.14013673583366],[17.061062093878697,51.14013673656079],[17.06106209446329,51.14013673734902],[17.061062094967806,51.140136738190755],[17.06106209538739,51.14013673907789],[17.061062095717997,51.14013674000188],[17.061062095956444,51.14013674095382],[17.06106209610044,51.14013674192455],[17.061062096148593,51.14013674290472],[17.06106209610044,51.140136743884895],[17.061062095956444,51.140136744855624],[17.061062095717997,51.14013674580757],[17.06106209538739,51.14013674673156],[17.061062094967806,51.14013674761869],[17.06106209446329,51.14013674846043],[17.061062093878697,51.140136749248654],[17.06106209321966,51.14013674997579],[17.061062092492524,51.140136750634824],[17.061062091704294,51.140136751219416],[17.06106209086256,51.14013675172394],[17.061062089975426,51.14013675214352],[17.06106208905144,51.14013675247413],[17.061062088099494,51.14013675271258],[17.061062087128764,51.14013675285657],[17.061062086148592,51.14013675290472],[17.06106208516842,51.14013675285657],[17.06106208419769,51.14013675271258]]],[[[17.060192886874667,51.13434641741291],[17.059956464774885,51.13420115942545],[17.059895073494378,51.13428814416519],[17.059949675855655,51.13426317834582],[17.060132429097443,51.134373358957916],[17.060192886874667,51.13434641741291]]],[[[17.06147985948489,51.13669271971511],[17.061411079674972,51.136745907807416],[17.061379500082904,51.136757224027356],[17.061342348402995,51.13675864287235],[17.061350429181836,51.13681887538409],[17.06136249429569,51.13689331653323],[17.061372559116265,51.13696775061582],[17.061384617304807,51.1370418321195],[17.061400666824163,51.137135417210935],[17.061414428615517,51.13722837264313],[17.06143032533014,51.13732033836596],[17.061444372318086,51.1374105092924],[17.061457137289306,51.1374997799532],[17.060727403856088,51.13755728050574],[17.060732238442007,51.137579577678125],[17.061276500451903,51.13753602374805],[17.061400961197897,51.13752610026638],[17.0614985469825,51.13752236161452],[17.061755739752027,51.137511776802675],[17.061926060864327,51.13803106305711],[17.061866479633647,51.138040653534404],[17.060816548346992,51.138204800858475],[17.060850990413346,51.1383257183714],[17.060894315983372,51.13830812295955],[17.060944611012058,51.13829564465805],[17.062058564659715,51.13812001747458],[17.062481843481404,51.13804963339789],[17.063362970558565,51.13790779806259],[17.06357503884578,51.137874625466246],[17.064406990584157,51.13774687981903],[17.06460060511279,51.137717477219475],[17.06462272844153,51.13774912687861],[17.064923212106308,51.13816679696908],[17.065048775988604,51.13834141765031],[17.06518067495388,51.13846561202832],[17.065342053409655,51.138391694554755],[17.065524581772127,51.13830564803283],[17.065571179255144,51.13828373504289],[17.065583051930393,51.13827816643288],[17.06558604284596,51.138280779344164],[17.065636010186864,51.1383234028704],[17.065670565072804,51.13835299413119],[17.065653829696657,51.138360897165036],[17.06570579395145,51.138415034356385],[17.065816278804057,51.138515665910724],[17.065858586479727,51.138498150430664],[17.06600969341046,51.13841838764063],[17.066039424833395,51.138405185570406],[17.066041282577,51.13840447224559],[17.06622393172446,51.13831945940827],[17.066294861917985,51.13838052594732],[17.066509162801292,51.138233817787814],[17.066603773994284,51.13816930817202],[17.066772578916737,51.13805361024208],[17.06698168131982,51.13812707880646],[17.067044917159414,51.13815377007363],[17.067129077699185,51.13818943805513],[17.06713404235914,51.138218199536],[17.067158776357072,51.138201945792815],[17.067310178712873,51.13810239749931],[17.06733491258701,51.13808614371793],[17.067280333402174,51.138090077412556],[17.06745442896112,51.13800743962206],[17.067300643290007,51.13795794793084],[17.067246774099882,51.13794367427274],[17.067380274822472,51.137764496763786],[17.06698842045892,51.13764670852366],[17.06678903502885,51.13757687739128],[17.0666969015308,51.13755471988086],[17.066585918814873,51.13751422582792],[17.066379402184996,51.13743953661128],[17.066171729461313,51.1373626892731],[17.065963641074315,51.13728664731076],[17.06575668584622,51.13721042524488],[17.065484321984993,51.137109821677214],[17.06544689263409,51.13709667639674],[17.06544076137257,51.137094613723406],[17.06541705345273,51.13708552453086],[17.065194385821012,51.13700911297264],[17.065106257488726,51.136979057355546],[17.06493529830477,51.13692127164373],[17.064763909190876,51.1368628619572],[17.064670356393417,51.136829031931285],[17.064545395833967,51.136766947892966],[17.064284778696297,51.136641803859455],[17.06407101141992,51.13653528314097],[17.063877791169364,51.13644225812929],[17.063685726230045,51.136347255334094],[17.063467374123007,51.13624360044607],[17.0633188667222,51.136167491463695],[17.063097250573875,51.136050810715815],[17.062896477167058,51.13594429303298],[17.062732549494083,51.1358571193441],[17.06263702080465,51.13580602072158],[17.062579613312874,51.135776155470666],[17.062375283547077,51.135666857545225],[17.06227660836151,51.13561665034129],[17.062260753410115,51.13560720994532],[17.062181802419563,51.13556025324919],[17.061980899079916,51.13544484217704],[17.061941059880482,51.13542028656046],[17.06186838097939,51.135376211694876],[17.06161208088063,51.13522140347768],[17.061558960422914,51.135189468541284],[17.061495216089572,51.13522486164741],[17.06124719038577,51.13536038555938],[17.060951712739726,51.13552186759015],[17.060878082942878,51.13556273658322],[17.060799545922247,51.13551587217],[17.060687307746495,51.135601118488566],[17.060515506493243,51.135678982187414],[17.060612710621097,51.13576638719056],[17.060682902767805,51.135847075649394],[17.060839767446264,51.13602723828513],[17.060996959598892,51.1362138578926],[17.060965456933484,51.136214351091766],[17.061069478113936,51.136337013868406],[17.06109948143401,51.1363357714535],[17.06119779935025,51.13645222143197],[17.06078544455745,51.13648484218977],[17.06077806887584,51.13643144742245],[17.06071758571273,51.13643417097308],[17.06074365228466,51.13655512017646],[17.060586198306016,51.13656727705805],[17.060559904231884,51.136443476275296],[17.060489605448968,51.13645108314235],[17.060524561186853,51.13661840045115],[17.061287837471887,51.13655492263483],[17.061324945692313,51.136598622459495],[17.06134649766185,51.13660969088159],[17.061328061417722,51.136618316798156],[17.06139418592738,51.13665097647926],[17.06147985948489,51.13669271971511]],[[17.0659392781588,51.1381002664413],[17.065930280468727,51.13810711659806],[17.06571609846242,51.13795761618504],[17.06580808264454,51.13786045384684],[17.065861552124947,51.137866184823444],[17.065905465605955,51.137871030385234],[17.066005647991357,51.13788450588214],[17.06607520933076,51.137892972265426],[17.066218207358332,51.137916138697626],[17.065956656701815,51.138088808607975],[17.0659392781588,51.1381002664413]],[[17.065723629409185,51.13828820723908],[17.065667661817898,51.13824197591907],[17.065663091462447,51.13824044712711],[17.06579917657439,51.13817641332231],[17.065884661859116,51.13813293905066],[17.06588622270129,51.138134192086916],[17.065943192257052,51.138181051590045],[17.065969310135475,51.13820245773941],[17.06587511470608,51.138248442528216],[17.065749618660377,51.13830961240974],[17.065723629409185,51.13828820723908]]],[[[17.059449377228628,51.138035146714],[17.059459346590607,51.13806139572616],[17.059465462403782,51.13808952853992],[17.05946987029334,51.13811029409404],[17.059505403823934,51.13827507224695],[17.059541787924225,51.13844371377811],[17.059698687832373,51.13843102344458],[17.05966229435992,51.13826211219897],[17.05962675877465,51.138096704803736],[17.05961653265187,51.13804932809194],[17.059607565629655,51.13802226909595],[17.059601157668848,51.13800429223168],[17.05959145418875,51.1379867563291],[17.05957805607714,51.137966799473034],[17.059560641903392,51.137944769673375],[17.059529395041267,51.13791221863485],[17.059393166610803,51.13796392821084],[17.05941101159552,51.13798092730284],[17.059431555660275,51.13800574211546],[17.059449377228628,51.138035146714]]],[[[17.048220505343995,51.138621141414326],[17.04822050439205,51.13862114165278],[17.048220503468063,51.138621141983386],[17.04822050258093,51.13862114240297],[17.048220501739195,51.13862114290749],[17.048220500950965,51.13862114349208],[17.048220500223827,51.13862114415112],[17.048220499564792,51.13862114487825],[17.0482204989802,51.13862114566648],[17.048220498475683,51.138621146508214],[17.0482204980561,51.13862114739535],[17.04822049772549,51.13862114831934],[17.048220497487044,51.13862114927128],[17.04822049734305,51.13862115024201],[17.048220497294896,51.13862115122218],[17.04822049734305,51.138621152202354],[17.048220497487044,51.138621153173084],[17.04822049772549,51.138621154125026],[17.0482204980561,51.138621155049016],[17.048220498475683,51.13862115593615],[17.0482204989802,51.13862115677789],[17.048220499564792,51.138621157566114],[17.048220500223827,51.13862115829325],[17.048220500950965,51.13862115895228],[17.048220501739195,51.138621159536875],[17.04822050258093,51.138621160041396],[17.048220503468063,51.13862116046098],[17.04822050439205,51.13862116079159],[17.048220505343995,51.13862116103004],[17.048220506314724,51.13862116117403],[17.048220507294896,51.13862116122218],[17.04822050827507,51.13862116117403],[17.048220509245798,51.13862116103004],[17.048220510197744,51.13862116079159],[17.04822051112173,51.13862116046098],[17.048220512008864,51.138621160041396],[17.048220512850598,51.138621159536875],[17.048220513638828,51.13862115895228],[17.048220514365966,51.13862115829325],[17.048220515025,51.138621157566114],[17.048220515609593,51.13862115677789],[17.04822051611411,51.13862115593615],[17.048220516533693,51.138621155049016],[17.0482205168643,51.138621154125026],[17.04822051710275,51.138621153173084],[17.048220517246744,51.138621152202354],[17.048220517294897,51.13862115122218],[17.048220517246744,51.13862115024201],[17.04822051710275,51.13862114927128],[17.0482205168643,51.13862114831934],[17.048220516533693,51.13862114739535],[17.04822051611411,51.138621146508214],[17.048220515609593,51.13862114566648],[17.048220515025,51.13862114487825],[17.048220514365966,51.13862114415112],[17.048220513638828,51.13862114349208],[17.048220512850598,51.13862114290749],[17.048220512008864,51.13862114240297],[17.04822051112173,51.138621141983386],[17.048220510197744,51.13862114165278],[17.048220509245798,51.138621141414326],[17.04822050827507,51.138621141270335],[17.048220507294896,51.13862114122218],[17.048220506314724,51.138621141270335],[17.048220505343995,51.138621141414326]]],[[[17.062362854219824,51.13813357666471],[17.062362853249095,51.1381335768087],[17.06236285229715,51.13813357704715],[17.062362851373162,51.13813357737776],[17.06236285048603,51.13813357779734],[17.062362849644295,51.13813357830186],[17.062362848856065,51.13813357888645],[17.062362848128927,51.13813357954549],[17.062362847469892,51.13813358027262],[17.0623628468853,51.13813358106085],[17.062362846380783,51.138133581902586],[17.0623628459612,51.13813358278972],[17.06236284563059,51.13813358371371],[17.062362845392144,51.13813358466565],[17.06236284524815,51.13813358563638],[17.062362845199996,51.138133586616554],[17.06236284524815,51.13813358759673],[17.062362845392144,51.138133588567456],[17.06236284563059,51.1381335895194],[17.0623628459612,51.13813359044339],[17.062362846380783,51.13813359133052],[17.0623628468853,51.13813359217226],[17.062362847469892,51.138133592960486],[17.062362848128927,51.13813359368762],[17.062362848856065,51.138133594346655],[17.062362849644295,51.13813359493125],[17.06236285048603,51.13813359543577],[17.062362851373162,51.13813359585535],[17.06236285229715,51.13813359618596],[17.062362853249095,51.13813359642441],[17.062362854219824,51.1381335965684],[17.062362855199996,51.138133596616555],[17.06236285618017,51.1381335965684],[17.062362857150898,51.13813359642441],[17.062362858102844,51.13813359618596],[17.06236285902683,51.13813359585535],[17.062362859913964,51.13813359543577],[17.062362860755698,51.13813359493125],[17.062362861543928,51.138133594346655],[17.062362862271065,51.13813359368762],[17.0623628629301,51.138133592960486],[17.062362863514693,51.13813359217226],[17.06236286401921,51.13813359133052],[17.062362864438793,51.13813359044339],[17.0623628647694,51.1381335895194],[17.06236286500785,51.138133588567456],[17.062362865151844,51.13813358759673],[17.062362865199997,51.138133586616554],[17.062362865151844,51.13813358563638],[17.06236286500785,51.13813358466565],[17.0623628647694,51.13813358371371],[17.062362864438793,51.13813358278972],[17.06236286401921,51.138133581902586],[17.062362863514693,51.13813358106085],[17.0623628629301,51.13813358027262],[17.062362862271065,51.13813357954549],[17.062362861543928,51.13813357888645],[17.062362860755698,51.13813357830186],[17.062362859913964,51.13813357779734],[17.06236285902683,51.13813357737776],[17.062362858102844,51.13813357704715],[17.062362857150898,51.1381335768087],[17.06236285618017,51.13813357666471],[17.062362855199996,51.13813357661655],[17.062362854219824,51.13813357666471]]],[[[17.058071229955655,51.13882104865569],[17.058071228975482,51.138821048703846],[17.058071228004753,51.13882104884784],[17.058071227052807,51.13882104908629],[17.05807122612882,51.1388210494169],[17.058071225241687,51.13882104983648],[17.058071224399953,51.138821050341],[17.058071223611723,51.13882105092559],[17.058071222884585,51.13882105158463],[17.05807122222555,51.13882105231176],[17.058071221640958,51.13882105309999],[17.05807122113644,51.138821053941726],[17.058071220716858,51.13882105482886],[17.05807122038625,51.13882105575285],[17.058071220147802,51.13882105670479],[17.058071220003807,51.13882105767552],[17.058071219955654,51.138821058655694],[17.058071220003807,51.138821059635866],[17.058071220147802,51.138821060606595],[17.05807122038625,51.13882106155854],[17.058071220716858,51.13882106248253],[17.05807122113644,51.13882106336966],[17.058071221640958,51.1388210642114],[17.05807122222555,51.138821064999625],[17.058071222884585,51.13882106572676],[17.058071223611723,51.138821066385795],[17.058071224399953,51.13882106697039],[17.058071225241687,51.13882106747491],[17.05807122612882,51.13882106789449],[17.058071227052807,51.1388210682251],[17.058071228004753,51.13882106846355],[17.058071228975482,51.13882106860754],[17.058071229955655,51.138821068655695],[17.058071230935827,51.13882106860754],[17.058071231906556,51.13882106846355],[17.058071232858502,51.1388210682251],[17.05807123378249,51.13882106789449],[17.058071234669622,51.13882106747491],[17.058071235511356,51.13882106697039],[17.058071236299586,51.138821066385795],[17.058071237026724,51.13882106572676],[17.05807123768576,51.138821064999625],[17.05807123827035,51.1388210642114],[17.05807123877487,51.13882106336966],[17.05807123919445,51.13882106248253],[17.05807123952506,51.13882106155854],[17.058071239763507,51.138821060606595],[17.058071239907502,51.138821059635866],[17.058071239955655,51.138821058655694],[17.058071239907502,51.13882105767552],[17.058071239763507,51.13882105670479],[17.05807123952506,51.13882105575285],[17.05807123919445,51.13882105482886],[17.05807123877487,51.138821053941726],[17.05807123827035,51.13882105309999],[17.05807123768576,51.13882105231176],[17.058071237026724,51.13882105158463],[17.058071236299586,51.13882105092559],[17.058071235511356,51.138821050341],[17.058071234669622,51.13882104983648],[17.05807123378249,51.1388210494169],[17.058071232858502,51.13882104908629],[17.058071231906556,51.13882104884784],[17.058071230935827,51.138821048703846],[17.058071229955655,51.13882104865569]]],[[[17.048251842772892,51.140768335600434],[17.04825184235331,51.1407683347133],[17.048251841848792,51.14076833387156],[17.0482518412642,51.14076833308334],[17.048251840605165,51.1407683323562],[17.048251839878027,51.14076833169717],[17.048251839089797,51.140768331112575],[17.048251838248063,51.140768330608054],[17.04825183736093,51.14076833018847],[17.048251836436943,51.14076832985786],[17.048251835484997,51.14076832961941],[17.048251834514268,51.14076832947542],[17.048251833534096,51.14076832942727],[17.048251832553923,51.14076832947542],[17.048251831583194,51.14076832961941],[17.048251830631248,51.14076832985786],[17.04825182970726,51.14076833018847],[17.048251828820128,51.140768330608054],[17.048251827978394,51.140768331112575],[17.048251827190164,51.14076833169717],[17.048251826463027,51.1407683323562],[17.04825182580399,51.14076833308334],[17.0482518252194,51.14076833387156],[17.04825182471488,51.1407683347133],[17.0482518242953,51.140768335600434],[17.04825182396469,51.140768336524424],[17.048251823726243,51.140768337476366],[17.048251823582248,51.140768338447096],[17.048251823534095,51.14076833942727],[17.048251823582248,51.14076834040744],[17.048251823726243,51.14076834137817],[17.04825182396469,51.14076834233011],[17.0482518242953,51.1407683432541],[17.04825182471488,51.140768344141236],[17.0482518252194,51.14076834498297],[17.04825182580399,51.1407683457712],[17.048251826463027,51.140768346498334],[17.048251827190164,51.14076834715737],[17.048251827978394,51.14076834774196],[17.048251828820128,51.14076834824648],[17.04825182970726,51.140768348666064],[17.048251830631248,51.14076834899667],[17.048251831583194,51.140768349235124],[17.048251832553923,51.140768349379115],[17.048251833534096,51.14076834942727],[17.048251834514268,51.140768349379115],[17.048251835484997,51.140768349235124],[17.048251836436943,51.14076834899667],[17.04825183736093,51.140768348666064],[17.048251838248063,51.14076834824648],[17.048251839089797,51.14076834774196],[17.048251839878027,51.14076834715737],[17.048251840605165,51.140768346498334],[17.0482518412642,51.1407683457712],[17.048251841848792,51.14076834498297],[17.04825184235331,51.140768344141236],[17.048251842772892,51.1407683432541],[17.0482518431035,51.14076834233011],[17.048251843341948,51.14076834137817],[17.048251843485943,51.14076834040744],[17.048251843534096,51.14076833942727],[17.048251843485943,51.140768338447096],[17.048251843341948,51.140768337476366],[17.0482518431035,51.140768336524424],[17.048251842772892,51.140768335600434]]]]}}]}
