{"type":"FeatureCollection","features":[{"type":"Feature","properties":{"name":"Karłowice–Różanka — okręg 2","district":2,"precinct":85,"seats":3,"election_year":2021,"polling_station":"Szkoła Podstawowa nr 83, ul. Stanisława Przybyszewskiego 59","reconstruction":true,"method":"official 2021 address rules + current SIP EMUiA address points + current cadastral parcels","crs":"EPSG:4326"},"geometry":{"type":"MultiPolygon","coordinates":[[[[17.047573011144873,51.13684426362002],[17.047075698584297,51.136708702990795],[17.047111577459354,51.13659490771673],[17.047530502426877,51.13527544861827],[17.04628426462579,51.13537608070406],[17.04503860537042,51.1353555866887],[17.044766738215188,51.1362404111195],[17.04462521809105,51.136700954492625],[17.043052539710235,51.136510829742065],[17.043320333681088,51.13678371698031],[17.043741595584642,51.136835292806104],[17.043994304613495,51.136866098737734],[17.04414887996519,51.13688497292184],[17.044126770369004,51.13695507328732],[17.044098210736127,51.13704620165386],[17.0440654971435,51.13715026812107],[17.04418720465915,51.13716516985615],[17.044136230287553,51.137341858297994],[17.04433237766447,51.137365431980776],[17.04435102582431,51.13730656732564],[17.04438634968099,51.13718955004953],[17.04463091650968,51.137220342004085],[17.044879628886562,51.13725176061885],[17.044949804906615,51.13702797907673],[17.04493870080947,51.136994806493284],[17.044894872691227,51.136974194892886],[17.045158301695782,51.13700769284832],[17.045129423672517,51.137012527232535],[17.045066990422367,51.137216361146955],[17.0455227055427,51.13727297636205],[17.045536702007613,51.13727469973779],[17.045499533319795,51.13739054263057],[17.045464926767124,51.13750477929544],[17.04540910413797,51.13768119496785],[17.045366187651965,51.137822116958766],[17.04547661038136,51.13783278100284],[17.046200913344663,51.13790267859419],[17.04627842567406,51.137651303974025],[17.04647586024703,51.13767146848469],[17.046844147181783,51.13770924255441],[17.046887845182177,51.137532223982355],[17.046932539748916,51.13753580651162],[17.046996122374225,51.137543669186186],[17.047080115375067,51.13755405341867],[17.04716425146838,51.13756442976688],[17.04724811577904,51.137574821819626],[17.047203041201175,51.13771951153072],[17.047231474611145,51.13772240410739],[17.047372756251008,51.13773614949272],[17.047484900771586,51.13774717626077],[17.047526535138967,51.13760921863998],[17.04763195131933,51.137622222130936],[17.04766495993639,51.13762637445115],[17.047758090452234,51.137637839442284],[17.04780324247407,51.13764280976828],[17.048095536779325,51.137670297284544],[17.048167083105408,51.1373756776271],[17.04831893898659,51.13739562988098],[17.04870964222777,51.13744257912235],[17.04874978427785,51.13744727460097],[17.04868678660126,51.13765011693772],[17.048663779656774,51.13772386961969],[17.04857794333738,51.13799987261792],[17.04899856962976,51.13805120852459],[17.04898091672646,51.13810780761077],[17.048997773393314,51.13810943696386],[17.049322628880738,51.13814080000569],[17.049364913667358,51.13814486543418],[17.049449640421436,51.138152997522745],[17.0494779207785,51.13815570851495],[17.04974306736776,51.13818120029415],[17.049863504589045,51.1381927686061],[17.049860204278424,51.138197614180534],[17.04978919977297,51.13830202735017],[17.04972249283117,51.13840033546879],[17.049771291370277,51.13844350468515],[17.04981938837165,51.138486047895604],[17.05032824508718,51.13854779561832],[17.050331216300197,51.13857152543241],[17.05024367335792,51.13874864764706],[17.050214765875243,51.13878692451743],[17.05015347541038,51.138780062088124],[17.050134460006785,51.138900323908324],[17.050299315780755,51.13891865313918],[17.05031727814397,51.13900152168428],[17.05033823004255,51.139098177642026],[17.050351806036126,51.139093963861065],[17.05037722544009,51.139105209541775],[17.050381069837023,51.139123993149624],[17.049983715015216,51.14038964491738],[17.04992469724894,51.140389614984166],[17.049881545010138,51.140389417253374],[17.049668260765497,51.140363142650386],[17.04969073682035,51.14042867996542],[17.04969558773399,51.140442976950524],[17.049744245469245,51.140589157297015],[17.049797321732875,51.14074774326154],[17.049828208265986,51.14084006608431],[17.049860371086982,51.140936354706994],[17.049963391820565,51.1412488533953],[17.05012460997016,51.141217836135255],[17.05018908745825,51.141306314409796],[17.050309148223466,51.14127464800476],[17.050363773139132,51.1413544071338],[17.050488902037813,51.14132089387187],[17.050597387276053,51.14129201886761],[17.050673519613362,51.141272859656475],[17.051168266348622,51.141154480560544],[17.05142742646857,51.14109224394908],[17.051516768041992,51.14107071917374],[17.05183843984356,51.140947472502354],[17.051798929887337,51.14111195022953],[17.052010822389697,51.1411317460995],[17.05222257219806,51.14115154042857],[17.05213185665619,51.141023853589175],[17.05202729583515,51.14087655592846],[17.05201222823005,51.140812643324736],[17.05197712213681,51.1406644882015],[17.05194755867678,51.14053736879956],[17.051942608008154,51.140497909102635],[17.051926757518547,51.140371071654194],[17.05195120076839,51.14024794093968],[17.05195624069722,51.14022304453508],[17.052020352375308,51.13991296318522],[17.05204824645148,51.13977760753434],[17.05189181692291,51.13953051780383],[17.05184932096634,51.13946344319326],[17.051886769078344,51.13934652187115],[17.051948729945078,51.13915256924098],[17.052010713150118,51.1389588954331],[17.0520528745932,51.13882669390657],[17.05209520944668,51.13869438589242],[17.052117863476607,51.138623668199926],[17.05213751308603,51.13856219447306],[17.05217837407449,51.13856743397536],[17.05223417617708,51.13839011603736],[17.052296435056487,51.138191940482955],[17.052563717712932,51.13822415843312],[17.052658100699972,51.13792389584446],[17.052984958664744,51.137963598328554],[17.05333682499904,51.13800672961045],[17.053589831161734,51.138037598075],[17.053535324387777,51.1382147383548],[17.05348080841471,51.13839160884147],[17.053577960480307,51.1384036141443],[17.05356504116292,51.13844701945804],[17.053738193802392,51.138467694353615],[17.053761044743275,51.13847039633768],[17.05391448235267,51.138490156329816],[17.054054345419193,51.138506399252364],[17.05415205772016,51.13852037733953],[17.054213203753537,51.13852732640108],[17.054370636591827,51.13854529320549],[17.054342660799996,51.138632563170724],[17.054693389967582,51.138676409313845],[17.055005550006726,51.13871475574304],[17.05508297694221,51.13872287869751],[17.05511037238406,51.13863597244669],[17.055432090718156,51.13867369376889],[17.055655531579163,51.13870130742949],[17.0558242521735,51.13872008258764],[17.055932679508423,51.13873281522054],[17.056219953860296,51.13854733125435],[17.056254856265998,51.138515438984165],[17.056278903132277,51.13847841592009],[17.0563173209538,51.13837011309327],[17.056453479389145,51.13838725817531],[17.056612330572783,51.138405763792676],[17.05644876004046,51.138509416268484],[17.056815638624858,51.13865979668961],[17.05681263611174,51.13866689226926],[17.056696909994802,51.13877740346918],[17.0569172557509,51.1388777339057],[17.056924257619173,51.13887072451119],[17.057040944662177,51.138916442773684],[17.057072745237246,51.13884670584419],[17.05710139232022,51.138785861202805],[17.05739355104389,51.13882132512164],[17.057724001868447,51.138861933255704],[17.057752706132856,51.13886562552975],[17.057791209525245,51.13880631645176],[17.05783846797103,51.13872265304412],[17.057881434886852,51.13863710318064],[17.05789432732043,51.13860816151422],[17.05789078674343,51.13857570736767],[17.05788136536055,51.138566803648665],[17.057839516996832,51.13855528341909],[17.058095390943546,51.138585958456595],[17.05804080328722,51.138589537178184],[17.058017347838497,51.13860318331449],[17.057989857158507,51.1386578256528],[17.05795479930267,51.13873015094727],[17.05821220292049,51.13878390311378],[17.058140057833544,51.138994079169734],[17.05841690673834,51.13905731207373],[17.05845796989148,51.1389999831295],[17.058484882423873,51.13896250623855],[17.058517223759562,51.13891595755137],[17.05854556296387,51.13887507606877],[17.05856917721019,51.13884308325512],[17.058872466961805,51.13888286719417],[17.059124200351956,51.13891138509807],[17.059178967919895,51.13874008765405],[17.0591501312606,51.138713381193135],[17.059185994258847,51.13871779593818],[17.059518580316556,51.13875884767856],[17.059484423173714,51.13875838421505],[17.059454275784216,51.13876663697802],[17.05943082895896,51.1387812813156],[17.059417371986935,51.13880077948872],[17.059325349501165,51.139065008922906],[17.059344350051454,51.139067355217534],[17.059701222959276,51.13911093008139],[17.059861810457733,51.13912996663052],[17.059906815117746,51.13913529067496],[17.05996081453412,51.13914170282881],[17.060153257176154,51.139165516802954],[17.060325205608457,51.139109229953334],[17.06039712030787,51.13920031539548],[17.06043579211574,51.13924941283318],[17.060363178548137,51.13927158222604],[17.060355180515618,51.13927418788915],[17.060074881120944,51.13936449282092],[17.059953677278756,51.13940587783838],[17.059948525106485,51.13940767031197],[17.059825226050524,51.13927009065839],[17.05954421203638,51.13936668132173],[17.059596014136886,51.13942639350632],[17.059728156640876,51.13957953364035],[17.05975084626362,51.1396056961035],[17.05975963345382,51.139672577720866],[17.059836816138493,51.13978218854173],[17.059885330248296,51.13985115146395],[17.059891035429537,51.13985942284036],[17.05984243504535,51.13987279529804],[17.059920737501788,51.14001243145162],[17.06045085244991,51.139867896915284],[17.060086904497243,51.13996712678759],[17.06032151177477,51.14047196910152],[17.060263733296622,51.14048719771062],[17.059885667105014,51.14059156746471],[17.059701644873076,51.140639746835845],[17.05955524211003,51.14067839376647],[17.05946271471138,51.14070291057934],[17.05943685946549,51.14070944487692],[17.059296479117926,51.14074706116107],[17.059265635729446,51.14075433739776],[17.059094533494683,51.140799563262426],[17.05902893199774,51.140816879901486],[17.058923300509022,51.14084487772162],[17.058759650906136,51.14088830221057],[17.058752067190802,51.14089019192801],[17.058661313892653,51.14091315818977],[17.05857969666194,51.14093378869982],[17.05849507799291,51.14095514113064],[17.058481359456852,51.1409586445265],[17.058576215941354,51.14110771909595],[17.058235607148166,51.14118836473226],[17.058238893719885,51.14119258935609],[17.058218021960776,51.14119788698545],[17.0582462622855,51.141248330484345],[17.058270829167505,51.14125948666495],[17.058005122914306,51.141322189112515],[17.057755426971756,51.14138039927321],[17.057656739362532,51.141212540792765],[17.05762093435682,51.141151850940155],[17.05757487234281,51.14107344975116],[17.057379455916717,51.14102832912633],[17.057333593287645,51.141017342719536],[17.057090316152845,51.140961138172344],[17.056995600789588,51.140939347765396],[17.056924164065773,51.1410599430442],[17.056996620852757,51.14117754536287],[17.05670597189983,51.141243280017],[17.056789009501998,51.14138301937395],[17.056796056482888,51.14139485262722],[17.056510115964,51.14147138536147],[17.056414216255206,51.14131068608338],[17.056273277600543,51.141343233077684],[17.05613235267111,51.14137579799254],[17.056187542289194,51.14146830623088],[17.056333725832168,51.14171331168252],[17.056165210623107,51.141752594017866],[17.056061790579186,51.14172872792484],[17.055979024467728,51.141638810802924],[17.055895470637402,51.14185933530874],[17.05610764936593,51.14198446658371],[17.05555897569477,51.14210203554772],[17.05528795448813,51.14216005925547],[17.054802459356083,51.14230895145318],[17.05467697965267,51.14232677957624],[17.054503525529526,51.14241317023628],[17.05444648607049,51.1424357944851],[17.054332110451696,51.14248716244152],[17.054136216070727,51.14258415867281],[17.054030396947425,51.1426440637694],[17.053889959385117,51.142736402011344],[17.053801002607603,51.14280261019528],[17.05369099950143,51.142892362680065],[17.053617604627433,51.14295579298479],[17.053573685238728,51.14299928003765],[17.053535481374542,51.14303791397606],[17.053452041661558,51.143134776244416],[17.05341998271663,51.14317969868237],[17.05339321142157,51.14321483823803],[17.05335684653732,51.14326695347314],[17.053328929500733,51.14330919454058],[17.053302431040173,51.14335124931181],[17.053277086003078,51.14339420338717],[17.05311405749258,51.143699924551065],[17.053024966096675,51.143861960542196],[17.052865109110076,51.143829606926836],[17.05289361999073,51.1437751448793],[17.05274217792312,51.14374433353697],[17.052732346846,51.14372751521539],[17.05242194963938,51.14416476468493],[17.05210411322608,51.14461674995885],[17.051909723063517,51.14548858900443],[17.051876149207782,51.14559194931208],[17.051611175828167,51.146238573676946],[17.05151525754006,51.14647169705285],[17.0514294795835,51.14670023696672],[17.051363788016026,51.146874768222126],[17.051333950087667,51.14695403948201],[17.051453485495443,51.14784040649124],[17.05170577081672,51.14822283035071],[17.052106889432384,51.14857459168992],[17.052476992518592,51.14892246854989],[17.052875008207565,51.14935098242944],[17.053230442883663,51.14978693524741],[17.053678214727796,51.15057805892296],[17.0537564889294,51.150648894615436],[17.053813668482505,51.150625916985746],[17.053949625984277,51.150571282885885],[17.0542782264355,51.15042456872005],[17.054280771421624,51.15042334153822],[17.054305604899593,51.15041136588566],[17.054392319191493,51.15036954695738],[17.05447976232648,51.15032737606988],[17.054604656661095,51.15026714473346],[17.05494663298065,51.15010222225028],[17.054978169898387,51.150087013113385],[17.05529943764359,51.14993207516063],[17.055716588689258,51.14973089204423],[17.056098120623837,51.14954688413848],[17.05659558758553,51.149306959791126],[17.056774003637507,51.14922090903103],[17.056861762859764,51.14917858339522],[17.057097107009618,51.149065075699525],[17.05721482920026,51.149008296008546],[17.05742396411949,51.148907428855445],[17.057701487571467,51.1487735747316],[17.05774342277034,51.14875334791143],[17.057921047867946,51.14866767558724],[17.05833460798592,51.1484682045102],[17.058456524610754,51.14840940051599],[17.05887632725693,51.14820691321749],[17.0590754189188,51.1481108832248],[17.05931416445189,51.147995724573185],[17.059636104699194,51.1478404367399],[17.059742104647256,51.147789306430965],[17.059870559147857,51.14772734512763],[17.06010365998274,51.147614906502014],[17.060169498323486,51.147583148427756],[17.060486412831327,51.147430278334916],[17.060716758197294,51.147319165698605],[17.06101741691949,51.14717413472188],[17.061234290425705,51.14706951848845],[17.06145004002691,51.14696544389891],[17.061787715613455,51.146802551639745],[17.06179930266662,51.14679696224507],[17.0619318853548,51.146733004636914],[17.062012636503923,51.1466940502763],[17.06219898512583,51.146604155176696],[17.062295631050603,51.146557533163566],[17.062538437928726,51.14644040121328],[17.06271999707373,51.14635281498625],[17.062884843596365,51.146273290413056],[17.06302190037815,51.14620717215341],[17.063191661708622,51.14612527550455],[17.06320123214964,51.14612065867751],[17.06335411364045,51.146046905136366],[17.063440683142662,51.14600514218116],[17.063517768723344,51.14596795355823],[17.063704511294794,51.145877863245566],[17.06402466136871,51.14572341203164],[17.064088540165383,51.1456925943686],[17.06408854019815,51.14569259435279],[17.06418754637123,51.145644829121984],[17.06421134857269,51.14563334653832],[17.064621334404393,51.14543569722106],[17.064795154421486,51.145351899737705],[17.064885008376002,51.14530858160225],[17.065152179740334,51.145181523909606],[17.06529925858834,51.14511157710081],[17.0653357017493,51.14509553688762],[17.06558474122611,51.14498591791293],[17.065726606563622,51.1449274437257],[17.06584152503418,51.14488007567597],[17.06587200759542,51.14486767882792],[17.06621900680906,51.14472655551525],[17.066383636450066,51.144659600774766],[17.066712898649296,51.14452568792664],[17.06692279164624,51.14444032327038],[17.066959386170304,51.14442543982575],[17.06726876378523,51.144300274603374],[17.06740689551918,51.14424438998217],[17.067867485945257,51.14405804351627],[17.068087206685522,51.143969148462766],[17.068478472160812,51.143810845891764],[17.068480642091114,51.14380996780776],[17.06864722625743,51.1437425696816],[17.06873753150501,51.143706032161894],[17.06885837965561,51.14365713698286],[17.069027551252933,51.14358737396829],[17.069042774692864,51.14358109632982],[17.06914515238855,51.14353887785683],[17.06919384603992,51.143519646438584],[17.06936515363377,51.14345199092292],[17.069401859077445,51.14343691432153],[17.069478301773913,51.143405515870654],[17.069494575565447,51.1433988078365],[17.069638575317676,51.14333944963111],[17.069761985778474,51.14328712098811],[17.069779384774947,51.143279744046204],[17.069837759561526,51.143254991519775],[17.06987430591787,51.14323949548768],[17.06989475342979,51.14323082489359],[17.06998765629252,51.14318838110777],[17.070057471442922,51.14315648459207],[17.07012356669218,51.1431262880633],[17.07018439840804,51.14309673556033],[17.07025644210929,51.14306173724339],[17.070301828737513,51.14303968779732],[17.070450995218607,51.14296183755265],[17.070487800056355,51.142942628870586],[17.07056327848304,51.142903235665834],[17.070660211573365,51.14284968792594],[17.07071411169311,51.14281991196326],[17.07082743638842,51.14275730872528],[17.070899583751405,51.142717451944115],[17.07094211918691,51.142693954744665],[17.070986596831215,51.142669383414635],[17.070994559379898,51.14266498511177],[17.07103121984282,51.142645470363945],[17.071062797032962,51.142628660661984],[17.071117654017257,51.142599459358976],[17.071122399256577,51.14259693320502],[17.071287177278798,51.142504970811295],[17.071321989395482,51.14248554197917],[17.071461559846302,51.14240764751306],[17.07147852720235,51.14239817770315],[17.071715770112604,51.14226819842346],[17.071792897207647,51.14222594262989],[17.071880382985135,51.142178011133474],[17.07206835451841,51.142073508676646],[17.072097324486272,51.14205740347284],[17.07212632479998,51.14204128052339],[17.072229018712218,51.1419841876314],[17.072978404023974,51.14159478499339],[17.07361944834054,51.14127827485046],[17.07516131335046,51.140659727611414],[17.075207438373855,51.14064432813496],[17.075210107061658,51.140643437183805],[17.076536303874995,51.14020066878905],[17.076475156377022,51.14018564074256],[17.07484724092133,51.13974616292141],[17.074852587404166,51.139682432796654],[17.07469970341961,51.13967151453287],[17.074589112411825,51.139658000105634],[17.074398664261576,51.1396183050703],[17.07303971679533,51.139191915636786],[17.073034892597615,51.13915452549098],[17.07319912339631,51.139087514864286],[17.07316273023685,51.139047411391545],[17.073142163813905,51.139024037180896],[17.07317290225252,51.13901469783457],[17.07315419492174,51.138994107164606],[17.071939702902938,51.13861755535238],[17.07138759767656,51.13844722432269],[17.069054470227176,51.13772758338195],[17.069123424642704,51.13763124197129],[17.069043325367108,51.137569816492146],[17.06891694305628,51.137481413178755],[17.068639683609753,51.13737656187487],[17.068574732376145,51.13735204228572],[17.068663173817725,51.137267255192434],[17.069004205743624,51.13737564362961],[17.069061864166663,51.137293865432135],[17.069121805385937,51.13721153902866],[17.069169162049032,51.13714746926622],[17.069233019543983,51.137170955003086],[17.06926148121451,51.137134827432284],[17.069527167735036,51.13722112947329],[17.069642767894685,51.13705828497049],[17.06949435010836,51.13701760374947],[17.069501367697207,51.13701041393822],[17.06980327311977,51.136707950116985],[17.069936483949284,51.13664849134118],[17.069785602657305,51.13651998013856],[17.069751310699285,51.13649075176496],[17.069755744208752,51.13648842275573],[17.069643652081236,51.13641709731433],[17.06944547734527,51.13610016423005],[17.069268064409865,51.135875737561584],[17.069053030072137,51.1356932804148],[17.068837010388247,51.13550803721911],[17.06870549038502,51.1355993135487],[17.067727721656404,51.13627805291023],[17.06799919438294,51.136432141489934],[17.068702337455335,51.136833457597746],[17.068791619390836,51.13688440260727],[17.068610693674348,51.13707957417875],[17.068594459374385,51.13701646350749],[17.068588978122918,51.137013336409716],[17.068273224083406,51.137352337520554],[17.06835179133648,51.1373464009874],[17.068207640692307,51.13749481313129],[17.06792226531457,51.13767528938661],[17.067863922524406,51.137708616430416],[17.067829917961713,51.13770770713696],[17.067113604309277,51.137483871043614],[17.06708575232746,51.137473346752486],[17.066781249366628,51.13736131573033],[17.066698978462274,51.13732981577988],[17.066617568721398,51.13729742368044],[17.066454614179847,51.137231559475644],[17.0664925182553,51.13718717455257],[17.066479956596297,51.13718087143604],[17.06636625517808,51.13714486826531],[17.06586263245048,51.136984220285704],[17.06578793705797,51.13694913040469],[17.06566854109797,51.13690081020864],[17.065667532451524,51.13690193484471],[17.065098124869625,51.13667423465692],[17.06491160722476,51.13660224675725],[17.064712240704768,51.136514882407866],[17.064601415466573,51.136465389084506],[17.064495453909768,51.13641563790229],[17.064623279116372,51.136327420185495],[17.0643439143168,51.13622150798255],[17.064263947606374,51.136190006757914],[17.06403830420351,51.13609076244643],[17.063925923906073,51.136033462012335],[17.063792407896468,51.135960053645825],[17.063754799092326,51.13598834861706],[17.063480598810646,51.135885855783144],[17.06340461532646,51.13585175189843],[17.06338690965688,51.13584266541013],[17.063250388844246,51.13577941761579],[17.06321925620803,51.13576376000259],[17.06319084928732,51.135747566857276],[17.06316100473537,51.1357311014891],[17.063133164386034,51.13571374421493],[17.06310460090919,51.13569611145182],[17.06307604272972,51.13567821802449],[17.062967977461724,51.13560338547191],[17.062941268605083,51.13558449099895],[17.062916724738027,51.13556452612068],[17.062892314927737,51.13554429262212],[17.06284620122106,51.13550426980571],[17.06278702358936,51.135537147148995],[17.062780999296283,51.13553264000982],[17.062485329301477,51.13534753775868],[17.062189551404085,51.1350931147588],[17.06213780124481,51.135123300505526],[17.061746645419618,51.13482686697825],[17.060966696130414,51.13431761856223],[17.060739844316036,51.134169571311745],[17.06067622448712,51.13420379632159],[17.06057601696734,51.13413076862303],[17.060371683023185,51.13403000726097],[17.06030331221719,51.13399278915537],[17.06028002310561,51.13398008843763],[17.06017809892153,51.13390229107648],[17.060100011120486,51.133972816554454],[17.059747212577186,51.133769961038],[17.059354604001314,51.133523831721035],[17.058525724425902,51.13300401490559],[17.058316438511543,51.13287392177226],[17.0570837251437,51.13210794185745],[17.057097018227278,51.132099949362534],[17.05700165693852,51.13204201528158],[17.05692718973308,51.13208341443141],[17.05675450166519,51.13218129441727],[17.05671917348529,51.13220698955383],[17.056788710178047,51.13225052991819],[17.056686048391498,51.132315290351215],[17.05683864367097,51.132416135403574],[17.056916008114477,51.13246750587491],[17.056997643500914,51.13242143597896],[17.057667312869306,51.13284096002649],[17.05778908984175,51.13291598893304],[17.05795968724983,51.13302269495151],[17.05814727457916,51.13313849123641],[17.05833771630908,51.133259407328495],[17.05852986588743,51.13337789167025],[17.058696768995457,51.1334823464127],[17.058716178656525,51.1334946746176],[17.058903913995227,51.1336118103173],[17.059020271641245,51.13368513122623],[17.0591389009862,51.1337598816678],[17.059412016297788,51.133929456783044],[17.059632523066494,51.13412371632014],[17.059655792805252,51.13414439981497],[17.05984247726527,51.13431211924643],[17.059641778110173,51.13440596667115],[17.05942539185166,51.13422754409869],[17.059225977361155,51.13432705563059],[17.058846744361116,51.134517892988114],[17.05887357283476,51.134510011364924],[17.05887185943641,51.13451051472445],[17.058822665896926,51.13477128475178],[17.058740140940095,51.13480943219753],[17.058926282462796,51.13495603203301],[17.05875432455037,51.135035950522024],[17.05858236586293,51.135115877742145],[17.058757373843914,51.13525491782073],[17.058801623205156,51.13529017173674],[17.058934524354004,51.13539404678875],[17.059109681139937,51.13553289874255],[17.05916007146364,51.13557606786208],[17.059283832681995,51.13568119045564],[17.05933021809051,51.13572246642945],[17.059502219556517,51.13586905046217],[17.05951119336326,51.13587676382329],[17.059233658566928,51.13598032172152],[17.059259329921854,51.13602770586162],[17.059292829912536,51.13609064211866],[17.05930451862614,51.1361131203448],[17.059338748709894,51.1361774019165],[17.059389229024607,51.13626892693322],[17.0593926462927,51.13627584947228],[17.059375214365982,51.13628285603454],[17.059418271457265,51.13636701275396],[17.05946632694969,51.13645342110543],[17.059510096191534,51.13653559680435],[17.059554159946007,51.13661805353249],[17.059598074188845,51.13670014046497],[17.05964170696213,51.136780615970586],[17.05968447980727,51.13685911581325],[17.059729249016886,51.13693923184522],[17.059747833071818,51.13693249519272],[17.05978960949266,51.13701152636147],[17.059810710273734,51.137049020979674],[17.059834379346427,51.13709092318424],[17.05981364756651,51.13709927869905],[17.059861550402484,51.13718694419561],[17.059911172975557,51.137279999298755],[17.059954511015682,51.13736307930297],[17.05999985188332,51.137445348340556],[17.06005872900035,51.13755485688036],[17.06010906876851,51.137643593639496],[17.06012745796266,51.137678836972846],[17.05983257869823,51.13779234327385],[17.05985255283193,51.13781356656554],[17.059947886436966,51.13791302113893],[17.060131930317915,51.13789700648896],[17.060348697770408,51.137878126077666],[17.060533171817745,51.13786202435667],[17.06055434587715,51.13796072986573],[17.06056414472987,51.13801512396858],[17.060600098818494,51.13819105230942],[17.060606485562214,51.138226289050685],[17.060619216087787,51.13834746374066],[17.06063577876541,51.138626940754385],[17.06063346899822,51.13864006505133],[17.06062718104793,51.138649948094894],[17.060614586014445,51.13866009511595],[17.060604509923703,51.138667934052606],[17.060235039146953,51.138622804385214],[17.060064405035092,51.138595453091796],[17.060075358992524,51.13864642247313],[17.05967362282809,51.13847820629846],[17.05951344924829,51.13848954879646],[17.05947886454286,51.138491149509115],[17.059438294720668,51.138491937958705],[17.059371764506857,51.1381831482025],[17.059322627794483,51.138177287293715],[17.059126342259784,51.13815364778187],[17.05910219284629,51.13815084650376],[17.05900415711275,51.13804941874834],[17.058875033187718,51.13800747689169],[17.058868043233783,51.138005487870366],[17.05868307784923,51.13794240227375],[17.058740163303963,51.13788481562723],[17.05872058865158,51.13787770010324],[17.058664948521404,51.13793448031644],[17.058654071690206,51.137947958134596],[17.058583362277904,51.13793417420482],[17.058293663267573,51.13787426324804],[17.057988544833908,51.13781093716519],[17.057850981790928,51.1377828241797],[17.05783308968985,51.13780537888195],[17.057778129249098,51.13788768573884],[17.057727167084476,51.13797503201227],[17.057418388425166,51.13785497729481],[17.057139186068923,51.13774284634391],[17.057049933087143,51.13770154752078],[17.05702853559,51.13767520615416],[17.056838969678648,51.13776445493572],[17.05683441084885,51.13776658467414],[17.056904893636887,51.13782792303262],[17.056984110057325,51.13789544472459],[17.05698936151215,51.137904207019076],[17.05699303590034,51.13791322628632],[17.05699527792269,51.137922413796815],[17.05699580366843,51.13793167736506],[17.05699475966938,51.13794083837975],[17.056969691817674,51.1380210036302],[17.056817039827656,51.13800197315162],[17.05675887510611,51.138184623017814],[17.056747899658955,51.1381832759488],[17.05625717730231,51.13812406678189],[17.056223324588654,51.13811991007891],[17.056055326799893,51.13809942430159],[17.056056611416196,51.13809529044588],[17.05605304755346,51.13809277155091],[17.056052333015213,51.13809277477334],[17.056041033508183,51.13809680981673],[17.055548747335756,51.138035894996435],[17.05556575499433,51.13803643687503],[17.05558262335302,51.1380333008633],[17.055594775174097,51.13802881427501],[17.055609781074956,51.1380182108078],[17.055703480977147,51.137920647700504],[17.05555946806707,51.137914558496504],[17.05556223076012,51.13787860426446],[17.055569184325435,51.137797627795415],[17.055573816017667,51.13774010452753],[17.055662109189736,51.137742939047016],[17.055664719673207,51.137710939024736],[17.055514567450995,51.13770673296375],[17.05550673643013,51.13779499294346],[17.055370590024882,51.137789263692675],[17.055173281630445,51.13778090964097],[17.0551342304988,51.137930631257476],[17.05512042244409,51.13798335181932],[17.055070021379354,51.13797716426887],[17.05515908786402,51.137693622421814],[17.0551669326047,51.13759772137773],[17.055179548432132,51.13743468827453],[17.055185482415183,51.13737428986313],[17.05502802664188,51.137382124228445],[17.054907861117144,51.13738808423922],[17.05484398178264,51.137391199824364],[17.054623789671115,51.137402149444206],[17.054623766604628,51.13740213133593],[17.054623789671115,51.1374021494442],[17.05484398178264,51.13739119982436],[17.054907861117144,51.13738808423921],[17.05464000136445,51.13717736433199],[17.054415098541416,51.13723831709928],[17.054397406377515,51.13722442791912],[17.054102591461042,51.13737339345971],[17.054066023323035,51.13748816511305],[17.053478136628474,51.13741398164987],[17.053457072973103,51.13723445881234],[17.053434908036483,51.13724505800064],[17.053368860501315,51.13727873799598],[17.053446079591634,51.1373388204964],[17.053371743773937,51.13737671248109],[17.053294367562884,51.13731662865998],[17.052707349741635,51.13761559943273],[17.052723835547184,51.13768841422482],[17.05208869637609,51.13760991256447],[17.05194845931892,51.137101400359214],[17.05190897842308,51.137035123287596],[17.051892436099852,51.1370076966231],[17.051512003541713,51.137084359019866],[17.051162597875948,51.13704220407143],[17.051024439114617,51.13748395791034],[17.05070402588743,51.13744378983119],[17.050282468314013,51.13739205693664],[17.0503070431084,51.13739009898192],[17.05033605055838,51.13738103024872],[17.050355214556244,51.13736908580057],[17.050367666307135,51.137356960991795],[17.050515307087032,51.136869806270504],[17.050221325120656,51.136833519209986],[17.050175620406208,51.13682765535186],[17.05000733560637,51.13680688884009],[17.049867197580895,51.13678973985555],[17.049839065247326,51.13678612220296],[17.049670780571166,51.13676536419649],[17.049502510520277,51.136744597076536],[17.04933422615224,51.136723838587244],[17.049091387065605,51.13669378069838],[17.04902995271894,51.136909679925566],[17.048933668084967,51.13722704051785],[17.048160695559172,51.13713386709827],[17.04827810303667,51.1367359609835],[17.047995967712655,51.13670183234389],[17.047932055068866,51.13669408438789],[17.047754540189953,51.13667266415173],[17.04769684124881,51.13666571280116],[17.04762826770756,51.13665740532655],[17.047573011144873,51.13684426362002]],[[17.062129354622986,51.13962003842338],[17.06224422114937,51.13958809339671],[17.062129354622986,51.13962003842339],[17.062044838946854,51.13964356074407],[17.062129354622986,51.13962003842338]],[[17.062027006812116,51.139621617867284],[17.061944261355563,51.13963605680243],[17.062027006812116,51.13962161786727],[17.062044838946854,51.13964356074407],[17.062027006812116,51.139621617867284]],[[17.061356705705148,51.13964155039817],[17.061430610708694,51.139742436404354],[17.061464769255377,51.13973229602941],[17.061430610708694,51.13974243640436],[17.061356705705148,51.13964155039817]],[[17.061316314276436,51.139530613274935],[17.061282800701605,51.13954066439199],[17.0612828007016,51.13954066439198],[17.061316314276436,51.139530613274935]],[[17.061349827851267,51.13952056215788],[17.061349827851263,51.13952056215788],[17.061298813983026,51.13945393055875],[17.061349827851267,51.13952056215788]],[[17.060837258017756,51.13873983258361],[17.060843826569123,51.13875485307546],[17.060853533943714,51.13876272054693],[17.060843826569123,51.13875485307547],[17.060837258017756,51.13873983258361]],[[17.060816548346992,51.138204800858475],[17.061866479633647,51.138040653534404],[17.061926060864327,51.13803106305711],[17.061755739752027,51.137511776802675],[17.0614985469825,51.13752236161452],[17.061400961197897,51.13752610026638],[17.061276500451903,51.13753602374805],[17.060732238442007,51.137579577678125],[17.060727403856088,51.13755728050574],[17.061457137289306,51.1374997799532],[17.061444372318086,51.1374105092924],[17.06143032533014,51.13732033836596],[17.061414428615517,51.13722837264313],[17.061400666824163,51.137135417210935],[17.061384617304807,51.1370418321195],[17.061372559116265,51.13696775061582],[17.06136249429569,51.13689331653323],[17.061350429181836,51.13681887538409],[17.061342348402995,51.13675864287235],[17.061379500082904,51.136757224027356],[17.061411079674972,51.136745907807416],[17.06147985948489,51.13669271971511],[17.06139418592738,51.13665097647926],[17.061328061417722,51.136618316798156],[17.06134649766185,51.13660969088159],[17.061324945692313,51.136598622459495],[17.061287837471887,51.13655492263483],[17.060524561186853,51.13661840045115],[17.060489605448968,51.13645108314235],[17.060559904231884,51.136443476275296],[17.060586198306016,51.13656727705805],[17.06074365228466,51.13655512017646],[17.06071758571273,51.13643417097308],[17.06077806887584,51.13643144742245],[17.06078544455745,51.13648484218977],[17.06119779935025,51.13645222143197],[17.06109948143401,51.1363357714535],[17.061069478113936,51.136337013868406],[17.060965456933484,51.136214351091766],[17.060996959598892,51.1362138578926],[17.060839767446264,51.13602723828513],[17.060682902767805,51.135847075649394],[17.060612710621097,51.13576638719056],[17.060515506493243,51.135678982187414],[17.060687307746495,51.135601118488566],[17.060799545922247,51.13551587217],[17.060878082942878,51.13556273658322],[17.060908781505425,51.13558072864403],[17.060977116415213,51.13553814504451],[17.06151005158739,51.13524580969845],[17.0615324652939,51.13526226980082],[17.061571625287296,51.135242779855105],[17.06161208088063,51.13522140347768],[17.06186838097939,51.135376211694876],[17.061941059880482,51.13542028656046],[17.061980899079916,51.13544484217704],[17.062181802419563,51.13556025324919],[17.062260753410115,51.13560720994532],[17.06227660836151,51.13561665034129],[17.062375283547077,51.135666857545225],[17.062579613312874,51.135776155470666],[17.06263702080465,51.13580602072158],[17.062732549494083,51.1358571193441],[17.062896477167058,51.13594429303298],[17.063097250573875,51.136050810715815],[17.0633188667222,51.136167491463695],[17.063467374123007,51.13624360044607],[17.063685726230045,51.136347255334094],[17.063877791169364,51.13644225812929],[17.06407101141992,51.13653528314097],[17.064284778696297,51.136641803859455],[17.064545395833967,51.136766947892966],[17.064670356393417,51.136829031931285],[17.064763909190876,51.1368628619572],[17.06493529830477,51.13692127164373],[17.065106257488726,51.136979057355546],[17.065194385821012,51.13700911297264],[17.06541705345273,51.13708552453086],[17.06544076137257,51.137094613723406],[17.06544689263409,51.13709667639674],[17.065484321984993,51.137109821677214],[17.06575668584622,51.13721042524488],[17.065963641074315,51.13728664731076],[17.066171729461313,51.1373626892731],[17.066379402184996,51.13743953661128],[17.066585918814873,51.13751422582792],[17.0666969015308,51.13755471988086],[17.06678903502885,51.13757687739128],[17.06698842045892,51.13764670852366],[17.06677057328505,51.13790290099556],[17.067061094819913,51.13799982578541],[17.067280333402174,51.138090077412556],[17.06733491258701,51.13808614371793],[17.067310178712873,51.13810239749931],[17.067158776357072,51.138201945792815],[17.06713404235914,51.138218199536],[17.067129077699185,51.13818943805513],[17.067044917159414,51.13815377007363],[17.06698168131982,51.13812707880646],[17.066772578916737,51.13805361024208],[17.066603773994284,51.13816930817202],[17.066509162801292,51.138233817787814],[17.066294861917985,51.13838052594732],[17.06622393172446,51.13831945940827],[17.066150627296516,51.1382556769768],[17.066066212300235,51.138183076839184],[17.065985732313017,51.13811376231291],[17.065956656701815,51.138088808607975],[17.066218207358332,51.137916138697626],[17.06607520933076,51.137892972265426],[17.066005647991357,51.13788450588214],[17.065905465605955,51.137871030385234],[17.065861552124947,51.137866184823444],[17.06580808264454,51.13786045384684],[17.06571609846242,51.13795761618504],[17.065930280468727,51.13810711659806],[17.0659196870662,51.13811514963088],[17.065884661859116,51.13813293905066],[17.06579917657439,51.13817641332231],[17.065663091462447,51.13824044712711],[17.06559319526101,51.13827332115491],[17.065583051930393,51.13827816643288],[17.065571179255144,51.13828373504289],[17.065524581772127,51.13830564803283],[17.065342053409655,51.138391694554755],[17.06518067495388,51.13846561202832],[17.06510934190217,51.13849884285766],[17.064880209133218,51.13860562376923],[17.064532437191573,51.138767829335826],[17.064318302723194,51.13886769922017],[17.06420189790461,51.13892198736609],[17.06344859065911,51.13888534455837],[17.061405700715405,51.13822295019308],[17.060944611012058,51.138295644658044],[17.060894315983372,51.13830812295954],[17.060850990413346,51.138325718371405],[17.06081638736764,51.1383500631139],[17.060850990413346,51.1383257183714],[17.060816548346992,51.138204800858475]],[[17.05909991755708,51.134643124216225],[17.059099898413063,51.134643133065616],[17.05909991755707,51.13464312421622],[17.05909991755708,51.134643124216225]],[[17.059956464774885,51.13420115942545],[17.060192886874667,51.13434641741291],[17.060132429097443,51.134373358957916],[17.059949675855655,51.13426317834582],[17.059895073494378,51.13428814416519],[17.059956464774885,51.13420115942545]],[[17.060708925968825,51.139797865232815],[17.060713556275786,51.1397965956678],[17.06107858883368,51.13969680221137],[17.06071355627579,51.1397965956678],[17.060708925968825,51.139797865232815]],[[17.060450102057814,51.14043811037556],[17.0604383936063,51.14044116268743],[17.060438372475325,51.1404411682569],[17.0604383936063,51.140441162687424],[17.060450102057814,51.14043811037556]],[[17.060652369257543,51.140386507485076],[17.060652369257546,51.140386507485076],[17.06072481470378,51.14049522563386],[17.06072986270995,51.14050373441003],[17.06072481470378,51.14049522563388],[17.060652369257543,51.140386507485076]],[[17.060802549653456,51.140489772914215],[17.060767468183247,51.140498880856164],[17.060802549653456,51.14048977291421],[17.060856713319435,51.14047831457493],[17.06098935675312,51.14044863507776],[17.060856713319435,51.140478314574935],[17.060802549653456,51.140489772914215]],[[17.061250452246156,51.14039157929527],[17.061542591097236,51.14032648358903],[17.061250452246156,51.140391579295276],[17.06098935675312,51.14044863507776],[17.061250452246156,51.14039157929527]],[[17.06353346574354,51.13923560564857],[17.063538962290558,51.13923403692415],[17.06353896229056,51.13923403692416],[17.06353346574354,51.13923560564857]],[[17.063872894599104,51.139076065523085],[17.063961655203975,51.13903403024323],[17.063961661926975,51.139034027107805],[17.063961655203975,51.13903403024324],[17.063872894599104,51.139076065523085]],[[17.062858912235146,51.13945487677658],[17.06284676282334,51.139458555069936],[17.06255663965004,51.13951550759189],[17.06284676282334,51.13945855506993],[17.062858912235146,51.139454876776576],[17.063073870425118,51.139384493168045],[17.062858912235146,51.13945487677658]]],[[[17.05524402240065,51.13777069354838],[17.055330886907836,51.13777351677685],[17.055351343094138,51.137507750442744],[17.05526519216755,51.1375042947277],[17.05524402240065,51.13777069354838]]],[[[17.053369501713984,51.14222138160676],[17.05331604682695,51.14223223092772],[17.053326504212176,51.1423239199571],[17.053347825071,51.14252168471134],[17.05357772386532,51.14264106679947],[17.05381698007383,51.14248036217195],[17.05365765017002,51.14237072100348],[17.05360426505113,51.14233762069502],[17.053498992192257,51.1421940223722],[17.053369501713984,51.14222138160676]]],[[[17.052119719139743,51.14320665464665],[17.051905665103106,51.14320331049654],[17.051908128322648,51.14318003832072],[17.05183625449506,51.143176758773684],[17.051760941902064,51.143173217571814],[17.051763629174744,51.14320108924779],[17.051733613309143,51.14320062114687],[17.051198757169313,51.143192256037686],[17.051051887132605,51.14349618167494],[17.050986961912262,51.14363071514749],[17.05128569551667,51.1436799477765],[17.051338429224067,51.143571924572385],[17.05223002707387,51.14364231426844],[17.052705396079382,51.14368201614674],[17.052732346846,51.14372751521539],[17.052760543652486,51.14368770375796],[17.052793214620838,51.14362479820166],[17.052847514562906,51.143520373874594],[17.05294234352395,51.143343335822365],[17.053014233890462,51.14322220727783],[17.05251994062815,51.143123534154945],[17.052552716566876,51.14305968559887],[17.05251274704809,51.14305189141874],[17.05250432002344,51.143050267942726],[17.052461256032213,51.14314335732384],[17.052441700249286,51.14318551309806],[17.052429664181357,51.14321148552361],[17.052319487678606,51.143209729828975],[17.052195167067197,51.14320777850224],[17.052119719139743,51.14320665464665]]],[[[17.053048318838794,51.14316280107417],[17.053047472936324,51.14316433145265],[17.053029565349,51.14319650419523],[17.05312469325427,51.143219919272504],[17.05314673783913,51.143190899410854],[17.053048318838794,51.14316280107417]]]]}}]}
