{"type":"FeatureCollection","features":[{"type":"Feature","properties":{"name":"Karłowice-Różanka","source":"SIP Wrocławia — granice osiedli","source_url":"https://gis.um.wroc.pl/portal_srv/rest/services/search/MapServer/12","crs":"EPSG:4326"},"geometry":{"type":"Polygon","coordinates":[[[17.03838955740722,51.15026294615376],[17.038068468567594,51.150262745664016],[17.03778363936261,51.150263754143786],[17.03748098770465,51.150272124305],[17.03718723717117,51.15028024782388],[17.03692158530011,51.15028653166232],[17.035488034127486,51.150324439688916],[17.03530872227769,51.150327534814366],[17.035289638203,51.150327864648325],[17.03515949850546,51.15033011105346],[17.034973419169344,51.150333323338785],[17.034887585885556,51.15033480499578],[17.034881769298508,51.15033490532932],[17.03473796315439,51.15033738729375],[17.034463402401027,51.150342125817964],[17.034323891461284,51.150344533056995],[17.034079193047972,51.150348609274154],[17.03380505025585,51.150353175305895],[17.03353039985117,51.15035774818725],[17.033479265068994,51.150358600376656],[17.033461169236052,51.150358901221125],[17.03338853421541,51.150360110581715],[17.033194269831974,51.150363344986395],[17.032980681351052,51.1503669011475],[17.03285398467971,51.15036900984237],[17.032402114546574,51.15037653114631],[17.03234099815765,51.150377547477774],[17.031808770312708,51.150386403636226],[17.031738352869105,51.15038757549197],[17.031244833080326,51.15039578403126],[17.031139111806482,51.15039754229985],[17.030861425424302,51.15040216017795],[17.030752102392054,51.15040397814933],[17.030642014399646,51.15040580855696],[17.030585030132382,51.150406755735055],[17.030400232290674,51.15040982843172],[17.030262002438963,51.15041212637899],[17.030010324452405,51.15041630971669],[17.029934765286644,51.15041756549831],[17.02965252611986,51.15042225691503],[17.029488143262217,51.15042498782367],[17.0294202650853,51.15042611642632],[17.029291909542426,51.15042824884977],[17.02923007873812,51.15042965496863],[17.02913062293659,51.150431915602816],[17.0289369293774,51.15043631992405],[17.028758672776668,51.15044037206529],[17.028669494376675,51.150443626501314],[17.028608764263772,51.15044584240926],[17.0285821580558,51.150447304298055],[17.028352046463507,51.15045994533529],[17.028338131341126,51.150460994793875],[17.02819671809668,51.150471662872675],[17.028168267399185,51.15047410719185],[17.028124867512343,51.150477835964246],[17.027998705844386,51.150488673682645],[17.027918497120176,51.15049556468042],[17.02765312054851,51.15052623302939],[17.027610442821683,51.15053116503433],[17.027434614876082,51.15055354184717],[17.027380562994363,51.1505604207364],[17.027064606547892,51.1506115150054],[17.026939664241155,51.15063346213025],[17.026913823614663,51.15063854384335],[17.02676358502071,51.15066808962035],[17.026695954910874,51.15068138977736],[17.026468327577952,51.15073259714923],[17.026333863588512,51.15076481144773],[17.026260080378844,51.15078365797854],[17.02617071356444,51.15080648477777],[17.026075306667977,51.15083085417839],[17.025850453155527,51.15089349129766],[17.025705179985852,51.15093668109228],[17.02558291202872,51.15097735198928],[17.02540574965189,51.151036281790276],[17.0253622983006,51.15105137381054],[17.025232963529813,51.151096295088045],[17.025080936898732,51.15115400002879],[17.024981554432326,51.151193390348354],[17.024941698500697,51.15120918640737],[17.024791893028237,51.15127174142027],[17.02471022115025,51.151305845837484],[17.02455616129919,51.1513748403104],[17.024554956397434,51.151375380427666],[17.024522376999347,51.15139083878741],[17.02449512377814,51.15140376962453],[17.024395242785843,51.15145116146071],[17.024211446736228,51.151543749761295],[17.024191407108926,51.151555268205584],[17.02408434751849,51.15161680711012],[17.023865655281543,51.1517425100905],[17.02370428896958,51.15183526230953],[17.023505828540394,51.151949334592096],[17.02334192202285,51.15205049109191],[17.023172770658686,51.15215488387879],[17.022797618807502,51.15238640849382],[17.02261548121814,51.15249881231845],[17.02240287518989,51.1526300192372],[17.022308389020967,51.1526883300484],[17.022288586286873,51.15270063224585],[17.022190555882425,51.1527615347137],[17.022188855436298,51.152762591163935],[17.022063795728528,51.152840284943444],[17.021912889783493,51.15293403639965],[17.021882145367165,51.1529531366886],[17.021661781684003,51.153090037049076],[17.021630465711457,51.15310932037472],[17.02156087184092,51.153152173454394],[17.021382848055275,51.1532617933222],[17.021282809343912,51.153323392004566],[17.021127144400044,51.15341924395851],[17.021031908998058,51.15347788458124],[17.020911626452072,51.15355194844356],[17.020781907814197,51.15363182229595],[17.020743572629833,51.15365542637131],[17.020432960363394,51.15384668247058],[17.020048761626388,51.154083243912076],[17.020037225649308,51.15409034706153],[17.01999714590275,51.1541150249213],[17.019819241288697,51.15422554956686],[17.019490631403123,51.1544296990041],[17.019460296334284,51.15444854498541],[17.019225860829575,51.15459307096453],[17.018958726239244,51.15475775476267],[17.018561341287743,51.155002731892054],[17.018547400297866,51.15501132587268],[17.018424547366063,51.15508670506935],[17.01824016151113,51.15519983745462],[17.018111785047658,51.15527860490119],[17.017960968899192,51.15537114021762],[17.01792478492366,51.15539360536473],[17.017608704196434,51.155589844954385],[17.0174352628021,51.155697525883284],[17.017251815519497,51.15580150775495],[17.017235207770234,51.15581092150236],[17.017216344272192,51.15582161349854],[17.01708967238103,51.15588976030786],[17.016962904753875,51.15595566775657],[17.01683381704694,51.1560170517597],[17.016546848504305,51.15614192354778],[17.016358313492983,51.15621541424894],[17.016336266411344,51.15622400811912],[17.01633247552679,51.1562253444613],[17.016120364286337,51.156300114403614],[17.015969505677024,51.156349277204924],[17.015958138343038,51.15635262999689],[17.015876078300053,51.15637683280113],[17.01588502380674,51.156393514618],[17.0159036820769,51.15642830866285],[17.01592687776639,51.15647156416671],[17.015929586789095,51.156476599578674],[17.015991550425685,51.15659178726109],[17.0159937823218,51.15659593407748],[17.016063510344278,51.156725555169885],[17.01613545969898,51.15685930136618],[17.016157983406906,51.1569011703597],[17.016257597507956,51.1570863433324],[17.016399800438343,51.15735068107613],[17.016446963876167,51.15743835082624],[17.016462781351176,51.157466945008004],[17.01652994525479,51.15758859650073],[17.0165713722882,51.15766362978131],[17.016603363166542,51.15772157442944],[17.016506289165548,51.157731393890764],[17.01645582168672,51.15773649816556],[17.016408266729865,51.15774130867703],[17.016362502124043,51.15774521908034],[17.016318635099058,51.1577489683282],[17.016210832212014,51.15775818041288],[17.01615645457369,51.15776282646184],[17.016002891247265,51.15777594869498],[17.01600281534136,51.15777595524815],[17.015580976012046,51.157801951109725],[17.015232055039363,51.157823451467145],[17.01498401856841,51.1578387354402],[17.01428788162169,51.15784714212678],[17.01428074960188,51.1578470056123],[17.014242490234775,51.15784627146224],[17.01423222305396,51.15784607436255],[17.013403166483958,51.15783016855164],[17.012580616406435,51.15778921542442],[17.011497238528875,51.15767017732394],[17.010775942270843,51.15754634306314],[17.01006763290501,51.15739906679666],[17.00938462234871,51.15723630277879],[17.008801787920945,51.157058685091805],[17.008206647306015,51.15687311128228],[17.007451302237403,51.15659198524666],[17.00673374122567,51.156295477443145],[17.00604317039383,51.1559050055855],[17.005686985671392,51.15560410469185],[17.005573095199775,51.15550789031569],[17.005594975867425,51.155431907098304],[17.005688643251002,51.15510662027803],[17.005794851184532,51.15473777906375],[17.005861380720614,51.154506729073525],[17.00592415431359,51.15428872165554],[17.0059857837217,51.15402334972459],[17.006037698533948,51.15373746083649],[17.006093965820053,51.15342759485953],[17.006111439712654,51.15333268863118],[17.006169380819177,51.15301798511119],[17.006223367810254,51.15273114282468],[17.006248340468485,51.15251715779849],[17.006280851096573,51.152231254003475],[17.00630944749649,51.15197976346318],[17.00633066767959,51.15176642163741],[17.00634735703579,51.15116266673756],[17.006349365248823,51.15095196463712],[17.006353428232607,51.15073703057837],[17.0063538097344,51.15056859206539],[17.006354392588264,51.15031098063059],[17.006354493061092,51.15009060381318],[17.006336493228908,51.149912995200054],[17.00631849352545,51.14973538657962],[17.006292628712995,51.14948017089461],[17.006271693774867,51.14927360322355],[17.00624475975675,51.149007833561036],[17.006209012119264,51.148714293672],[17.006182947781344,51.1485012907299],[17.006156964502008,51.14838313918808],[17.00602443324835,51.14778046401949],[17.005942275541518,51.14738017475683],[17.005390041148477,51.14509923869289],[17.005036166229793,51.14361916841868],[17.00428204601742,51.14070857785793],[17.004002863166022,51.139450341520885],[17.003782984098496,51.138599337075185],[17.00366346102658,51.13804045148142],[17.003080823297413,51.13513376673073],[17.003076004489277,51.13511668123036],[17.003023084587355,51.134895984873914],[17.0029886749009,51.134752489602896],[17.002828394202194,51.134084047778025],[17.00276384943286,51.13381490475792],[17.002725772700508,51.13365612712235],[17.002516882965654,51.132785046489204],[17.002486976593232,51.13266033559773],[17.00245712952379,51.13253592995148],[17.0023208705178,51.13196796292711],[17.002306293176527,51.131907814474],[17.002303261244112,51.13189535498173],[17.00226047164078,51.13171952126113],[17.00224286822596,51.131647180346576],[17.0022165956843,51.13153921757057],[17.002210190688462,51.131512895076725],[17.002207661401748,51.13150250569823],[17.00220623999224,51.131496662863874],[17.002275056757863,51.131494153953646],[17.002316936208135,51.13149262700687],[17.00236693875292,51.13149080346176],[17.002386260577836,51.131490098988515],[17.002559354684045,51.1314494417293],[17.002732187131183,51.131408845809865],[17.002760882894826,51.13140210553291],[17.002843658696225,51.13138266279813],[17.003077828061294,51.1313494925309],[17.003319744508573,51.1313152236579],[17.00333796938546,51.131312641623225],[17.00340411171707,51.13130327260498],[17.003480894867312,51.13129239585811],[17.00365345404356,51.13126795160506],[17.003768121268187,51.1312517078602],[17.003915453196466,51.1312308365631],[17.003920874870648,51.13123530386688],[17.006150968674245,51.13140257748351],[17.011888667290147,51.131635837958164],[17.01411320067248,51.13172619740933],[17.018507246273522,51.13138422540665],[17.020680236623143,51.13178905231502],[17.028643870426116,51.131420611731876],[17.032716556972947,51.13159618248881],[17.03665719827777,51.13250391627924],[17.038793901052713,51.132996039295506],[17.040594474470836,51.13344884739234],[17.04097735401428,51.13354518535635],[17.041248353504486,51.13361966170936],[17.04155770399839,51.133691887892006],[17.041776622583722,51.13374480779019],[17.042342321040834,51.13386214211957],[17.042669453349067,51.13392242796429],[17.04303279722134,51.133976623858636],[17.0434948148604,51.1340483158933],[17.043774489909364,51.13408634045259],[17.044088620725308,51.13413429727193],[17.04450315658633,51.13416393734894],[17.044798708338988,51.134188828533006],[17.045103927061447,51.134208562327956],[17.045942423386037,51.13426043309744],[17.04657909300144,51.13427598494391],[17.046841311655523,51.134281321799946],[17.047535892680024,51.13427275461749],[17.0478628563742,51.13426834219624],[17.04818385624047,51.13425662477628],[17.04869010857481,51.13422184663034],[17.04887052070014,51.13420529698519],[17.049385799318507,51.13414977999847],[17.049714488885748,51.134098546649895],[17.05026039670283,51.13400226840775],[17.050729467771966,51.13391943186462],[17.051132175348727,51.13383933983517],[17.051578404530574,51.13373874429262],[17.051919125765078,51.13365482157679],[17.052205784857634,51.1335755343983],[17.05247326086721,51.13349117106174],[17.05293656948429,51.13331834924438],[17.053061196523107,51.13327063273381],[17.053163734137332,51.13322871446931],[17.055254564192975,51.13224261347201],[17.056166253138162,51.13169588440225],[17.059284564352367,51.12982571645237],[17.06178157258628,51.12884727484869],[17.0643454464776,51.128380535817314],[17.066039578602798,51.12819263626878],[17.067761419605436,51.12811386336965],[17.070638186114337,51.12796013661428],[17.07345055775739,51.12781625963134],[17.07795406713656,51.12762349416798],[17.07833506895002,51.127607545611795],[17.0784892769463,51.1295836603247],[17.078492444440037,51.12974452433924],[17.078523646421424,51.130306353019414],[17.07855509262936,51.13058774188211],[17.07858181787457,51.13072638120982],[17.078680021758647,51.13093963761621],[17.07892830129305,51.1315799349479],[17.07931203551619,51.132547495171174],[17.079786129329623,51.13367157869821],[17.08016987872043,51.13466759067284],[17.08059880736018,51.135763203677904],[17.08100515036092,51.13684458209498],[17.08132108994096,51.13786902673071],[17.0816597858937,51.13869429415985],[17.081862997744473,51.13920652730558],[17.082045654426732,51.13965877456185],[17.082060921400366,51.13982523658598],[17.082061171645528,51.139827966001846],[17.082056905046656,51.139874276720214],[17.082053833142485,51.13990761489991],[17.082050597454796,51.139942726345495],[17.08204310422038,51.140024050591734],[17.082027720900545,51.140105833406885],[17.08200522738858,51.140225411217614],[17.081997606767327,51.14025025355634],[17.081926669913386,51.14048147887602],[17.08188755361891,51.14060897907486],[17.081877106423942,51.140643034254474],[17.081844846629732,51.14082274425078],[17.081839192071435,51.140854218373526],[17.081829167965704,51.140910018269956],[17.081818800782212,51.14097597913815],[17.081792336946894,51.14114436723675],[17.08176134177135,51.14132217323476],[17.081755212531327,51.14135732667221],[17.081751640586518,51.141377821034524],[17.081728268397608,51.141497824272214],[17.081716592658204,51.141557769784704],[17.081711321033787,51.141584843788145],[17.081703000956644,51.14162756096729],[17.081702818004768,51.141628498946204],[17.081696836877306,51.1416592081744],[17.081672078316302,51.14176789875941],[17.08165942648372,51.141823446068955],[17.081654799203896,51.1418437550449],[17.081646258176757,51.14188125380669],[17.08164590276173,51.14188281700784],[17.081633852099973,51.14193571979298],[17.08163174190883,51.141944983208546],[17.081622682790552,51.141984751374906],[17.08162041051152,51.14199469313273],[17.08161316653152,51.14202638309487],[17.081609997524883,51.14204024897195],[17.080630447065705,51.1417607374496],[17.080535938430103,51.14173136075457],[17.080341672141834,51.141670976494424],[17.08022994156635,51.14163624655181],[17.08009364707716,51.14159361379936],[17.08002769913755,51.14157298528865],[17.07991391548284,51.1415373929693],[17.07983611458507,51.14151305637559],[17.079328581773833,51.14135460609989],[17.079133039975986,51.14129355803102],[17.07873336708683,51.14116877816666],[17.07849434153686,51.141094151967],[17.07847341336439,51.14108761792128],[17.07826508306819,51.14102116105209],[17.07790669105348,51.14091057736179],[17.077767047380497,51.14086748936698],[17.0775622906268,51.14080431006461],[17.07732200239794,51.14072833743456],[17.077253836058773,51.14070678459324],[17.077054383620197,51.14064662450834],[17.077014201133714,51.14063450492425],[17.076746786282268,51.14054935706441],[17.076686210275714,51.14053044023531],[17.0764585174076,51.14045933604885],[17.07611364774536,51.14035163769571],[17.076098367908948,51.140346882839104],[17.07609769896545,51.14034710589118],[17.076063220020735,51.14035861711568],[17.076025875372338,51.14037108466047],[17.075959623394088,51.14039320430253],[17.075958229386877,51.14039366973887],[17.075946399756578,51.140397618908864],[17.075887747863355,51.140417200556094],[17.075876414527492,51.14042098463551],[17.075814891111076,51.14044152522392],[17.07577754343615,51.14045399446362],[17.075733906149967,51.140468563405804],[17.075701077121664,51.14047952301416],[17.07567620931162,51.14048782617134],[17.075652715395293,51.14049566912539],[17.075595501867195,51.140514770261916],[17.075548644854088,51.140530414016744],[17.0754577187679,51.14056077060895],[17.075413587829384,51.140575504534475],[17.07530988377005,51.14061012715533],[17.075273892463322,51.14062214219486],[17.075207438373855,51.14064432813496],[17.07516131335046,51.140659727611414],[17.07361944834054,51.14127827485046],[17.072978404023974,51.14159478499339],[17.072229018712218,51.1419841876314],[17.07212632479998,51.14204128052339],[17.072097324486272,51.14205740347284],[17.07206835451841,51.142073508676646],[17.071880382985135,51.142178011133474],[17.071792897207647,51.14222594262989],[17.071715770112604,51.14226819842346],[17.07147852720235,51.14239817770315],[17.071461559846302,51.14240764751306],[17.071321989395482,51.14248554197917],[17.071287177278798,51.142504970811295],[17.071122399256577,51.14259693320502],[17.071117654017257,51.142599459358976],[17.071062797032962,51.142628660661984],[17.07103121984282,51.142645470363945],[17.070994559379898,51.14266498511177],[17.070986596831215,51.142669383414635],[17.07094211918691,51.142693954744665],[17.070899583751405,51.142717451944115],[17.07082743638842,51.14275730872528],[17.07071411169311,51.14281991196326],[17.070660211573365,51.14284968792594],[17.07056327848304,51.142903235665834],[17.070487800056355,51.142942628870586],[17.070450995218607,51.14296183755265],[17.070301828737513,51.14303968779732],[17.07025644210929,51.14306173724339],[17.07018439840804,51.14309673556033],[17.07012356669218,51.1431262880633],[17.070057471442922,51.14315648459207],[17.06998765629252,51.14318838110777],[17.06989475342979,51.14323082489359],[17.06987430591787,51.14323949548768],[17.069837759561526,51.143254991519775],[17.069779384774947,51.143279744046204],[17.069761985778474,51.14328712098811],[17.069638575317676,51.14333944963111],[17.069494575565447,51.1433988078365],[17.069478301773913,51.143405515870654],[17.069401859077445,51.14343691432153],[17.06936515363377,51.14345199092292],[17.06919384603992,51.143519646438584],[17.06914515238855,51.14353887785683],[17.069042774692864,51.14358109632982],[17.069027551252933,51.14358737396829],[17.06885837965561,51.14365713698286],[17.06873753150501,51.143706032161894],[17.06864722625743,51.1437425696816],[17.068480642091114,51.14380996780776],[17.068478472160812,51.143810845891764],[17.068087206685522,51.143969148462766],[17.067867485945257,51.14405804351627],[17.06740689551918,51.14424438998217],[17.06726876378523,51.144300274603374],[17.066959386170304,51.14442543982575],[17.06692279164624,51.14444032327038],[17.066712898649296,51.14452568792664],[17.066383636450066,51.144659600774766],[17.06621900680906,51.14472655551525],[17.06587200759542,51.14486767882792],[17.06584152503418,51.14488007567597],[17.065726606563622,51.1449274437257],[17.06558474122611,51.14498591791293],[17.0653357017493,51.14509553688762],[17.06529925858834,51.14511157710081],[17.065152179740334,51.145181523909606],[17.064885008376002,51.14530858160225],[17.064795154421486,51.145351899737705],[17.064621334404393,51.14543569722106],[17.06421134857269,51.14563334653832],[17.06418754637123,51.145644829121984],[17.064088540165383,51.1456925943686],[17.06402466136871,51.14572341203164],[17.063704511294794,51.145877863245566],[17.063517768723344,51.14596795355823],[17.063440683142662,51.14600514218116],[17.06335411364045,51.146046905136366],[17.06320123214964,51.14612065867751],[17.063191661708622,51.14612527550455],[17.06302190037815,51.14620717215341],[17.062884843596365,51.146273290413056],[17.06271999707373,51.14635281498625],[17.062538437928726,51.14644040121328],[17.062295631050603,51.146557533163566],[17.06219898512583,51.146604155176696],[17.062012636503923,51.1466940502763],[17.0619318853548,51.146733004636914],[17.06179930266662,51.14679696224507],[17.061787715613455,51.146802551639745],[17.06145004002691,51.14696544389891],[17.061234290425705,51.14706951848845],[17.06101741691949,51.14717413472188],[17.060716758197294,51.147319165698605],[17.060486412831327,51.147430278334916],[17.060169498323486,51.147583148427756],[17.06010365998274,51.147614906502014],[17.059870559147857,51.14772734512763],[17.059742104647256,51.147789306430965],[17.059636104699194,51.1478404367399],[17.05931416445189,51.147995724573185],[17.0590754189188,51.1481108832248],[17.05887632725693,51.14820691321749],[17.058456524610754,51.14840940051599],[17.05833460798592,51.1484682045102],[17.057921047867946,51.14866767558724],[17.05774342277034,51.14875334791143],[17.057701487571467,51.1487735747316],[17.05742396411949,51.148907428855445],[17.05721482920026,51.149008296008546],[17.057097107009618,51.149065075699525],[17.056861762859764,51.14917858339522],[17.056774003637507,51.14922090903103],[17.05659558758553,51.149306959791126],[17.056098120623837,51.14954688413848],[17.055716588689258,51.14973089204423],[17.05529943764359,51.14993207516063],[17.054978169898387,51.150087013113385],[17.05494663298065,51.15010222225028],[17.054604656661095,51.15026714473346],[17.05447976232648,51.15032737606988],[17.054392319191493,51.15036954695738],[17.054305604899593,51.15041136588566],[17.054280771421624,51.15042334153822],[17.0542782264355,51.15042456872005],[17.053949625984277,51.150571282885885],[17.053813668482505,51.150625916985746],[17.053756488349173,51.1506488948486],[17.053714829654595,51.15066563540496],[17.05361792087678,51.150701969482185],[17.053486668536838,51.15074791235002],[17.053448733875758,51.15076119047977],[17.053258948748418,51.15082185364958],[17.05314721223456,51.15085492993811],[17.05312502453395,51.15086107901471],[17.05307846696968,51.15087398336866],[17.053026738722973,51.15088832013891],[17.05297656725273,51.150902225403804],[17.05294772246771,51.15091021915434],[17.052937323611513,51.150913101530016],[17.052782401713763,51.150953379070934],[17.052771536710374,51.15095605988515],[17.052732024460166,51.150965809165506],[17.0527195102247,51.1509688973324],[17.05270773584192,51.15097180270798],[17.05260248467571,51.15099777166673],[17.05257964125222,51.151003408314104],[17.052551703630474,51.151010301793825],[17.052466708411725,51.15103127286802],[17.052438053876376,51.15103834390118],[17.052419123737803,51.151043014371886],[17.05238752416233,51.15105081126794],[17.05237077477768,51.151054943840116],[17.052313047633827,51.15106918674472],[17.052294374606358,51.15107379455324],[17.052242593524877,51.151086570849856],[17.052241029049604,51.15108695731215],[17.05223408019293,51.151088671062],[17.052227286471325,51.15109034741313],[17.052210843060593,51.15109440423207],[17.052188696288244,51.15109986935284],[17.05215796865389,51.15110745120904],[17.052146961360307,51.15111016677083],[17.052113058805126,51.151118531952314],[17.052093707680708,51.15112330593529],[17.05207810896513,51.151127154729245],[17.0520714890571,51.15112878843086],[17.05205710427156,51.15113233781724],[17.052017851754933,51.151142022438705],[17.05201582468956,51.1511425229128],[17.051892194143477,51.151173026761136],[17.051881989892244,51.15117554384407],[17.05180634928727,51.15119420711931],[17.051770433922634,51.15120306829291],[17.05175142462555,51.151207758690205],[17.05173378874149,51.15121210962384],[17.05168471538118,51.1512242172234],[17.05156232131885,51.15125441611216],[17.051551868487017,51.151256994976976],[17.051416016014276,51.151290513221525],[17.051243032390378,51.15133319260115],[17.051108353183558,51.15136642155064],[17.050981707415787,51.15139766769097],[17.05078936871155,51.15144512196318],[17.05063675826982,51.151482773376685],[17.050471653149078,51.15152350818244],[17.05042166543415,51.15153584066164],[17.05028992743963,51.15156743036789],[17.050063600045842,51.15162170028014],[17.05000182467353,51.1516365132711],[17.049958343852314,51.151646098134776],[17.049741502281247,51.151693900926645],[17.049698344026567,51.1517021812233],[17.049626943088914,51.151715880206716],[17.049464686486463,51.151747009751745],[17.049363900104925,51.15176448273207],[17.049276913334634,51.151779563285025],[17.049268217897463,51.151780983085004],[17.049093768377116,51.151809466246775],[17.049048551658505,51.151815796800015],[17.048946677424382,51.151830061169974],[17.04893532282889,51.1518313667301],[17.048746936823967,51.15185302350197],[17.048695329250968,51.15185713184776],[17.04852891385257,51.15187038097059],[17.048329945437864,51.15188622100029],[17.048192719699426,51.15189714509768],[17.048172088652713,51.15189878771934],[17.04797602449171,51.15191295983336],[17.047784611165735,51.151926795513475],[17.04750722305578,51.151946844701875],[17.047486642326998,51.15194833209199],[17.047409641926937,51.151954095729046],[17.04715278193106,51.151973323302556],[17.046984469411964,51.151985921905485],[17.04680555021069,51.15199931391267],[17.04660457305569,51.152014357037245],[17.04658865573935,51.152015317733195],[17.046538134500125,51.152018366914604],[17.04637832158735,51.15202801072137],[17.046370927622952,51.15202834777892],[17.046337079639233,51.15202989040746],[17.046335385652192,51.1520299682898],[17.0461839295454,51.15203687160894],[17.04607938581843,51.15203980995943],[17.046037017409493,51.152041000737164],[17.04595784264908,51.152043226247],[17.045785337025336,51.152043634951056],[17.045784418331664,51.152043615769685],[17.0457140150644,51.15204212714242],[17.045613615116256,51.15204000446427],[17.045551950921265,51.15203783012019],[17.04547793732121,51.15203522054939],[17.045425491998426,51.152032244882996],[17.04531560581772,51.1520260108844],[17.04520828669358,51.152019921794434],[17.045160031044674,51.15201590055553],[17.045032504240474,51.15200527198524],[17.044923421348987,51.151994682410105],[17.044858911437736,51.151988419354936],[17.044803347550726,51.15198169354097],[17.044714776178758,51.15197097102402],[17.044547258701346,51.151947669847836],[17.04452053899395,51.151943952815955],[17.044367829388662,51.151919228827545],[17.0443463377353,51.15191574954521],[17.044334167320002,51.1519134323659],[17.04419684154408,51.15188728942952],[17.044070998797498,51.151861387610495],[17.044068173507362,51.15186080626409],[17.04391552907935,51.1518274198122],[17.043856867022825,51.15181458943721],[17.04380381718436,51.151800836730594],[17.043735152288072,51.15178303596074],[17.043646659736034,51.15176009457689],[17.04350472378945,51.15172329817871],[17.043497022187644,51.151721301528575],[17.043453054143633,51.15170799330288],[17.043375210598928,51.15168443221626],[17.043353554033484,51.151677876949705],[17.04321866107225,51.15163451335061],[17.0431451825595,51.15160904066315],[17.043010892048255,51.15156248414093],[17.042944587744557,51.15153949812329],[17.04282590207056,51.15149348888778],[17.04275634924814,51.15146531073844],[17.04267892384626,51.15143394331799],[17.042608592411305,51.151402784938455],[17.042512046891634,51.151360013077884],[17.042376225127516,51.151295656408344],[17.04231628702399,51.15126725556093],[17.042281808247125,51.151249022759124],[17.042149855705766,51.15117924439701],[17.042076777016675,51.15114059910776],[17.04205707818572,51.151129876758944],[17.041991710412947,51.15109429620554],[17.04198868288136,51.15109264788118],[17.0419234297057,51.15105712935722],[17.041918273567646,51.151054322811184],[17.041902789623244,51.1510458940549],[17.041765380526048,51.15097110019056],[17.04174444086465,51.15095970239019],[17.041621940270502,51.15090630085672],[17.041465682209907,51.15083818430728],[17.040804117771618,51.15059192593094],[17.040393276631775,51.150475439451164],[17.040137176797018,51.15042024617721],[17.039889903594673,51.150373045559],[17.039594343153265,51.150319345768345],[17.039411544277694,51.15028938705093],[17.0391104923252,51.15027311241266],[17.03878199856495,51.15026318919428],[17.03838955740722,51.15026294615376]]]}}]}
