{"type":"FeatureCollection","features":[{"type":"Feature","properties":{"name":"Karłowice–Różanka — okręg 5","district":5,"precinct":88,"seats":5,"election_year":2021,"polling_station":"Szkoła Podstawowa nr 50, ul. Czeska 38","reconstruction":true,"method":"official 2021 address rules + current SIP EMUiA address points + current cadastral parcels","crs":"EPSG:4326"},"geometry":{"type":"MultiPolygon","coordinates":[[[[17.00220623999224,51.131496662863874],[17.002207661401748,51.13150250569823],[17.002208716731822,51.13150684060558],[17.002210190688462,51.131512895076725],[17.0022165956843,51.13153921757057],[17.00224286822596,51.131647180346576],[17.00226047164078,51.13171952126113],[17.002299141846645,51.1318784272954],[17.002303261244112,51.13189535498173],[17.002306293176527,51.131907814474],[17.0023208705178,51.13196796292711],[17.00245712952379,51.13253592995148],[17.002486976593232,51.13266033559773],[17.002516882965654,51.132785046489204],[17.002725772700508,51.13365612712235],[17.00276384943286,51.13381490475792],[17.002828394202194,51.134084047778025],[17.0029886749009,51.134752489602896],[17.003023084587355,51.134895984873914],[17.003076004489277,51.13511668123036],[17.003080823297413,51.13513376673073],[17.00366346102658,51.13804045148142],[17.003782984098496,51.138599337075185],[17.004002863166022,51.139450341520885],[17.00428204601742,51.14070857785793],[17.005036166229793,51.14361916841868],[17.00515721231723,51.14412543972067],[17.005390041148477,51.14509923869289],[17.005942275541518,51.14738017475683],[17.00602443324835,51.14778046401949],[17.006156964502008,51.14838313918808],[17.006182947781344,51.1485012907299],[17.006209012119264,51.148714293672],[17.00624475975675,51.149007833561036],[17.006271693774867,51.14927360322355],[17.006292628712995,51.14948017089461],[17.00631849352545,51.14973538657962],[17.006336493228908,51.149912995200054],[17.006354493061092,51.15009060381318],[17.006354392588264,51.15031098063059],[17.0063538097344,51.15056859206539],[17.006353428232607,51.15073703057837],[17.006349431831172,51.15094844239464],[17.006505301743005,51.15093057513905],[17.006505465472348,51.15010955185784],[17.006460195364934,51.14965710477247],[17.006401920138867,51.149203297591924],[17.006358495626685,51.14875084809244],[17.006368560651676,51.148592976421426],[17.00638619691967,51.14831814176833],[17.00658498873965,51.148261775221194],[17.007157136842626,51.148111256274504],[17.007388228190052,51.147919634540486],[17.008617675665537,51.147433141099974],[17.008962376850196,51.14684601751583],[17.009019167174685,51.146758247280054],[17.009445098553527,51.1463384786524],[17.009259743275578,51.14619638240628],[17.009133442780907,51.14611438759373],[17.00920929732936,51.14606132601059],[17.009840046186074,51.14562708247222],[17.010536059868937,51.14521258060914],[17.010605361872805,51.14517039410717],[17.0106090399211,51.14516815083859],[17.011426485301328,51.14467221774762],[17.012003285906356,51.14328279606187],[17.011988209711838,51.14324593696448],[17.01199334422096,51.14318751160951],[17.012015039797546,51.142931714392525],[17.012168427122795,51.141911928698306],[17.012321988418996,51.1408930340948],[17.01234022115596,51.14085494605404],[17.013111209016834,51.140589103667466],[17.014208374358383,51.14069232564849],[17.015230494042484,51.14039045168945],[17.01545110703423,51.140477737817804],[17.016660959496726,51.14094253246547],[17.01676791898142,51.14098307611452],[17.01816371334777,51.1415181171116],[17.01814582160153,51.14153428313424],[17.01820350356569,51.141557610087006],[17.018322738621915,51.141601653440524],[17.019466337253778,51.14035802583675],[17.02000548292529,51.13985968133083],[17.020665259156996,51.14021667660972],[17.022047102484034,51.14085233745788],[17.02251793990852,51.14106887891881],[17.023079728686167,51.14132727891262],[17.02355357490075,51.14154526165589],[17.023731236532964,51.14137649875757],[17.02401306652007,51.141499492116644],[17.024076769732545,51.14143868730205],[17.02406482240097,51.14145009106356],[17.02451988123078,51.14148351931884],[17.024720995008103,51.141425288976976],[17.02461400224905,51.14138399909596],[17.024614002249052,51.14138399909595],[17.024886592069834,51.14148919467567],[17.02520700880004,51.141612938359245],[17.025397997686007,51.141410923427536],[17.025869898807947,51.14160237904577],[17.025985805269123,51.141667090006855],[17.026022168172005,51.141634131125755],[17.026122641639212,51.141542617117835],[17.026168763767757,51.141484577420506],[17.026301888394872,51.14150931062165],[17.02632319586806,51.141501145617156],[17.026447613688426,51.14136506220597],[17.026351904391007,51.14127024269526],[17.026316819217953,51.14123570003128],[17.026283867163755,51.14120709030694],[17.026283627422103,51.14117976875848],[17.026144285770457,51.14111979826597],[17.02610847304252,51.14108588774491],[17.026126840342723,51.14104698065097],[17.026151031040943,51.14102470795274],[17.026115625300342,51.14100949030936],[17.02610205775536,51.14099958759929],[17.025998589757425,51.140851826044084],[17.025990351823186,51.14083177343968],[17.02597812022399,51.14079302505531],[17.02595472772483,51.14069521159373],[17.02584019932225,51.14010618153236],[17.025839580356006,51.140056832166245],[17.025693391109638,51.14006166443085],[17.0257306304825,51.14001620832747],[17.025776952145034,51.13992419853195],[17.025837816847265,51.13992199963497],[17.02583258578963,51.139492951770656],[17.025830958110753,51.139444681745466],[17.025828505121517,51.13937519824923],[17.025842879195377,51.13932774472456],[17.025858532330698,51.139286055230905],[17.025889513936285,51.13922081465674],[17.025892954008526,51.13921488316804],[17.02589295400853,51.13921488316803],[17.02603491606336,51.139243753633295],[17.026126374720953,51.13927146230568],[17.026143547962057,51.13900436922231],[17.026050402207265,51.13897094767493],[17.026186631293292,51.13885796739083],[17.026403141219994,51.13867151760294],[17.026494570177768,51.138591848240914],[17.026453313391645,51.13857295016341],[17.02654088569664,51.13849795025058],[17.02655462242515,51.13848618925318],[17.026591695048513,51.13845331700017],[17.026612005333966,51.13843814070136],[17.026637886232493,51.13842647177961],[17.026664046355936,51.13841579403817],[17.02669235874738,51.13840673436147],[17.02672165190469,51.13840064043674],[17.026753671160474,51.13839877634968],[17.02678480321698,51.13840104910242],[17.02639777249208,51.138225666875265],[17.025951052676238,51.13802335664707],[17.02583355574119,51.13797014808814],[17.025674214901006,51.13790019367937],[17.025654522112273,51.1378914624729],[17.025705598452543,51.13784637335424],[17.025714470764235,51.13783829364788],[17.02570919207688,51.13783585842375],[17.025716344290217,51.137829391515524],[17.02572077522299,51.137831370194135],[17.025753259757607,51.137802631182346],[17.02574868784914,51.137800561434],[17.025754849436638,51.137794994226496],[17.025759408949714,51.13779697397476],[17.025787461595584,51.137771730969696],[17.02580745249177,51.137780554533805],[17.025933234084725,51.137666849238045],[17.025930672376777,51.137665677225826],[17.02593867690003,51.13765741048159],[17.025990488897115,51.137611967779094],[17.026084219109148,51.13752744549907],[17.02614388609793,51.13747607203945],[17.026163578615346,51.13748481215173],[17.026304495001675,51.137546845442024],[17.026376885905066,51.1375787141509],[17.02706546932821,51.13788212810844],[17.02707473967864,51.13772321416176],[17.027089047586028,51.13770533589653],[17.02731583773901,51.13749639690081],[17.027682103014637,51.13764867086493],[17.027989209373462,51.13777456179186],[17.028213382032526,51.13786640219826],[17.028559194752063,51.13800418291897],[17.028597328207656,51.13801940451168],[17.028691273929052,51.13805380610124],[17.028732838512067,51.13806759083181],[17.02876068341614,51.13807669486657],[17.02882246833368,51.13800191059821],[17.029059045173746,51.137715082236774],[17.029115065115533,51.137368052157804],[17.0293652224053,51.13746980591236],[17.029383619507854,51.13739997412639],[17.02940920934377,51.13730263075537],[17.02934376892134,51.137219976118566],[17.02934638696632,51.137195977485966],[17.02965586191301,51.13693424972324],[17.029910450982513,51.136681298258395],[17.03034337735121,51.1368506038577],[17.0306237377792,51.13656225649155],[17.03066052529631,51.136522997931536],[17.030586900566608,51.136547936275115],[17.030546358700818,51.13652561151204],[17.030510237910928,51.13650574160212],[17.03030065756406,51.13664711937616],[17.030147832635674,51.13675300882695],[17.029905979532888,51.13640238403002],[17.029645784549324,51.13602715464772],[17.02951461733141,51.13594311868002],[17.029376084617642,51.13582194808202],[17.029358686766177,51.13580054314502],[17.028651887263543,51.13554341384338],[17.028523613503562,51.134583592142675],[17.02851370084299,51.13444452964324],[17.028713983124725,51.13445734938067],[17.02878400706548,51.13470881437292],[17.02893292242167,51.135022082066854],[17.029152898972537,51.135400665027404],[17.029148139151065,51.135251541005566],[17.029001377812467,51.135009183945776],[17.028854312105867,51.134701037826225],[17.02878498769517,51.134462523797616],[17.028780174931175,51.134433123597226],[17.028701373408605,51.13397895872255],[17.0286302163082,51.13398313223331],[17.028543335652323,51.13349192562468],[17.028585852097574,51.13344448974698],[17.028447674259073,51.13345257428513],[17.028423380063902,51.13329075630272],[17.02840166895946,51.13328499334818],[17.02803164183784,51.13321338138402],[17.02789620623761,51.13285954623468],[17.027858574085506,51.132725404292586],[17.027996724218948,51.132722624126934],[17.028010746104236,51.13272167988879],[17.02797519367929,51.13252726159056],[17.02793732274716,51.132526299556645],[17.027809784923303,51.13248981112256],[17.02775245639805,51.13249282251928],[17.027732872139985,51.13249398118239],[17.02772359870065,51.13240965295062],[17.027743920469838,51.13240875213119],[17.027733678817437,51.132318141063784],[17.027458820887485,51.13232996940511],[17.02746186098768,51.1323620877897],[17.025307299142334,51.13246272406694],[17.02494093757172,51.132484211830985],[17.02493756895432,51.132460990406614],[17.02471073065711,51.13247213389543],[17.02453686361851,51.13240362087046],[17.02443463482652,51.13238667662071],[17.02384303839648,51.13243136298983],[17.02275970654221,51.132487220741766],[17.02164353134955,51.132542074532644],[17.021089763235526,51.13254085655137],[17.020774290861063,51.13256104919249],[17.020468834561285,51.132567031304774],[17.019878435007627,51.13256163520307],[17.019585440750543,51.13254587455599],[17.019308579490975,51.13253069794721],[17.019039655281667,51.13251181159853],[17.0187526728747,51.13249555991074],[17.01831129071345,51.13245670601604],[17.017974463818273,51.13240587324759],[17.017685178316647,51.13237027180614],[17.01743248764439,51.13234729296703],[17.016813424568845,51.13224527127873],[17.01614732618962,51.13214473844088],[17.01565597577359,51.132064011729824],[17.015373390524047,51.13203601227641],[17.015082866866905,51.13203194770653],[17.014862468175497,51.132022450079866],[17.01465318187913,51.131987604894505],[17.014622919260578,51.13197961878924],[17.014596702375744,51.131969509244776],[17.014582679432454,51.13195707523301],[17.014583305030136,51.13194782114178],[17.014592800734643,51.13193801251505],[17.014612282559575,51.13192891730837],[17.012728059326196,51.13203501547339],[17.01221569606211,51.13199526959438],[17.011987217121927,51.13198282159994],[17.011361559328964,51.13195622854155],[17.010803216146787,51.13193541555181],[17.010242309230666,51.13190756624994],[17.009172709371974,51.13185562814555],[17.008598818243005,51.13182037930586],[17.00781187363617,51.131779724381545],[17.007178678973105,51.13174504416842],[17.006532462758198,51.13170467630407],[17.006218406717334,51.13168546692238],[17.00593288408964,51.13166820728061],[17.005737495544977,51.13165854544666],[17.005617396216596,51.131649163905685],[17.006008026015174,51.13152428297229],[17.006370445867702,51.13141150011221],[17.006150968674245,51.13140257748351],[17.003920874870648,51.13123530386688],[17.003915453196466,51.1312308365631],[17.003768121268187,51.1312517078602],[17.00365345404356,51.13126795160506],[17.003480894867312,51.13129239585811],[17.00340411171707,51.13130327260498],[17.00333796938546,51.131312641623225],[17.003319744508573,51.1313152236579],[17.003077828061294,51.1313494925309],[17.002843658696225,51.13138266279813],[17.002760882894826,51.13140210553291],[17.002732187131183,51.131408845809865],[17.002559354684045,51.1314494417293],[17.002386260577836,51.131490098988515],[17.00236693875292,51.13149080346176],[17.002316936208135,51.13149262700687],[17.002275056757863,51.131494153953646],[17.00220623999224,51.131496662863874]],[[17.02431869920412,51.141207954721466],[17.0245901021349,51.14132870218783],[17.02431869920412,51.14120795472147],[17.024076769732545,51.14143868730205],[17.02431869920412,51.141207954721466]],[[17.024761893296027,51.14115822568475],[17.024818869269488,51.14118128278052],[17.024761893296027,51.141158225684755],[17.0245901021349,51.14132870218783],[17.024761893296027,51.14115822568475]],[[17.02599954920467,51.13904408652326],[17.02597291611736,51.13907993121245],[17.025999549204666,51.13904408652326],[17.026050402207265,51.13897094767493],[17.02599954920467,51.13904408652326]]],[[[17.023683271716894,51.141422061257764],[17.023866479805655,51.14143552040791],[17.023731236532964,51.14137649875758],[17.023683271716894,51.141422061257764]]],[[[17.028502323466405,51.13968780537713],[17.028969325562674,51.139902077537464],[17.029030424617563,51.139931612397945],[17.029397351310703,51.14010122738519],[17.02944190236212,51.14012193170088],[17.02963292779738,51.14021007815851],[17.030237584896387,51.140485663973244],[17.03011316794424,51.14054597763842],[17.02985647268508,51.14066732146187],[17.029834587605762,51.140678547787886],[17.02956201650287,51.14080796682213],[17.029270144718332,51.140947266466696],[17.02923939748047,51.14096198801588],[17.02906907710418,51.14104410600735],[17.029149009576834,51.14109217199123],[17.02937767107677,51.14122977767459],[17.029446806775,51.1412714161437],[17.02987427080088,51.14152874050784],[17.03001273041936,51.141611991400104],[17.03017388140207,51.141709004662005],[17.029718134734264,51.14199146399687],[17.02941601969599,51.14217865677358],[17.02937045494075,51.14220687470631],[17.02934734624938,51.142221210193895],[17.02940415928088,51.142257658265244],[17.029608835636733,51.14238832216305],[17.02970673990938,51.142451127058],[17.029399949003565,51.142647162767695],[17.02913067546505,51.14281905727494],[17.02835462629059,51.14233822882346],[17.028302781619296,51.142370790107556],[17.028249043353203,51.14233699202471],[17.027783532013036,51.14263238871143],[17.02798723813052,51.14280434582842],[17.02812581161975,51.1427386054473],[17.028210450520692,51.14279538617347],[17.028573711493998,51.14317937625065],[17.029341270873886,51.14365965622276],[17.02938568946921,51.14363164454365],[17.029450211396547,51.14359089054199],[17.029464796704534,51.14358163537407],[17.029517469076175,51.143614579013104],[17.029853335223436,51.14382479257874],[17.029841883174022,51.14383251857641],[17.029779364061856,51.1438745389678],[17.02973715228104,51.14390362988106],[17.02983021946042,51.14396077599011],[17.02987470729894,51.14393150615066],[17.02993594619303,51.143890562837505],[17.0299468170816,51.14388329048242],[17.030459528854163,51.144203968376395],[17.0305996585268,51.1442318022036],[17.030761968165475,51.14424396193882],[17.030918728641552,51.144243355122065],[17.03103581101728,51.14421979244172],[17.03084301603933,51.144853277438756],[17.031025586583688,51.144958584573686],[17.031032500725303,51.14493620370524],[17.031084490407963,51.14478891658899],[17.03111603842061,51.144728533800794],[17.0313073128858,51.144064390059896],[17.031314634672054,51.14404641747451],[17.03133294925503,51.14402899440613],[17.031340852935397,51.14400984899494],[17.031386421803848,51.1438544628165],[17.031387163831415,51.14384359149119],[17.03139678923257,51.143811146670195],[17.031419089637186,51.143813587754714],[17.03143403738242,51.14376514948049],[17.03141217883107,51.143762082782835],[17.03142251618004,51.14373044393387],[17.031429437355957,51.14370088037006],[17.03144698331697,51.14363823300164],[17.031459053023532,51.14359824812483],[17.031223003208375,51.143435207648544],[17.03116534414156,51.14339534639219],[17.031260176345736,51.143343632385395],[17.031336079178782,51.14332984166559],[17.03140921911147,51.14309026204293],[17.031176986632776,51.14294160953145],[17.031055517737244,51.14286358895813],[17.031374246562685,51.141817640662225],[17.031466075257153,51.14159379479169],[17.031520560079546,51.1415674028921],[17.03193499144336,51.141368324172944],[17.031773509441262,51.14138196418541],[17.031879813097166,51.14105078453985],[17.031663566546072,51.14091849156277],[17.031686450992783,51.14081918359493],[17.031804461261345,51.14040585460434],[17.031769869862185,51.14016447480495],[17.03163108959146,51.14009660460696],[17.03200555656709,51.139774333159764],[17.032384146733634,51.13989710931121],[17.03247522202775,51.13959882205908],[17.032487901469505,51.13945095729654],[17.032640269620458,51.139328807757344],[17.0333195455203,51.13879064931299],[17.03314381902255,51.138693807500914],[17.033114836854505,51.138677521369964],[17.033185960646616,51.1386212228364],[17.033029454379296,51.13862972765423],[17.032884015708987,51.1385482834284],[17.032622889719427,51.138601500056645],[17.03216594356524,51.13869476280209],[17.032119200638483,51.13870371622205],[17.032057748853568,51.13871563133878],[17.031699567548284,51.138785140920554],[17.031671559885915,51.1387905994792],[17.031587226682827,51.13880609156033],[17.031514055710918,51.138819437592616],[17.03150118683216,51.13882392473675],[17.03153654279998,51.13887294143629],[17.031462089974085,51.13896529586694],[17.031101191314523,51.138775375698046],[17.031043236828644,51.13874171474653],[17.0307467467552,51.138581049021894],[17.030299822227448,51.13831105270292],[17.030979097771695,51.137776224906595],[17.03096000502393,51.13774834261411],[17.030805919649037,51.13752260309444],[17.030708935526622,51.137593015376616],[17.030209121764187,51.13734212379059],[17.030048086633148,51.137526020181994],[17.029839069816514,51.13777316508955],[17.0296836016916,51.137957880265205],[17.02960760261617,51.13812115807291],[17.02962960674449,51.1381157850409],[17.02965490671954,51.13811678604667],[17.029786964645908,51.138179083222724],[17.029832508790776,51.13820141377746],[17.029786964645908,51.13817908322273],[17.029727878170853,51.138183994632854],[17.029709578423148,51.13829912889231],[17.03002393632931,51.13829935271456],[17.030023936329325,51.13829935271457],[17.03006134771158,51.13831906266539],[17.030230655493472,51.138406111129505],[17.03014866319016,51.13836395540587],[17.029764268499285,51.138684324394745],[17.029700856899325,51.13866166165656],[17.02960150688569,51.138771796649365],[17.029502596321247,51.13888139582453],[17.029406917400657,51.13898214903713],[17.029286303840923,51.139082670026994],[17.02906731476926,51.139000725451844],[17.029055869532442,51.13901294625911],[17.02897376643264,51.13897656669132],[17.02891209350527,51.13894856425855],[17.028844537070018,51.13892991611529],[17.028730445116715,51.13905262134608],[17.02870655083399,51.139078582798454],[17.028658440322108,51.13913086260069],[17.028583718795893,51.13921189500687],[17.028609566630024,51.139220182406966],[17.028786797580135,51.13927765986773],[17.0288516039095,51.139308897689375],[17.028502323466405,51.13968780537713]],[[17.030035293281387,51.139539866239645],[17.030035293281383,51.139539866239645],[17.03004517016323,51.13952747051656],[17.030035293281387,51.139539866239645]],[[17.030852912237165,51.139688312338045],[17.03078005710439,51.13976565786124],[17.03073110608913,51.13977353613532],[17.03078005710439,51.13976565786123],[17.030852912237165,51.13968831233804],[17.030903486400522,51.139695725365705],[17.030903486400526,51.13969572536571],[17.030852912237165,51.139688312338045]],[[17.0308573164576,51.13961856216759],[17.03094308373232,51.13960154526206],[17.030943083732325,51.13960154526207],[17.030857316457602,51.1396185621676],[17.0308573164576,51.13961856216759]],[[17.030967257578727,51.13950007259856],[17.030885776873546,51.13951916569269],[17.03088577687354,51.139519165692676],[17.030967257578727,51.13950007259856]],[[17.029647666930714,51.1389338136207],[17.029596856566734,51.13898712767927],[17.029647666930714,51.138933813620696],[17.029747305004882,51.13882358209458],[17.029647666930714,51.1389338136207]],[[17.029846490238466,51.1387137097083],[17.029846506262597,51.13871371543517],[17.029846506262594,51.13871371543518],[17.029846490238466,51.1387137097083]],[[17.030192216552976,51.138839183589546],[17.030337292695894,51.1388920500572],[17.03033729269589,51.13889205005721],[17.030192216552976,51.138839183589546]],[[17.02980526545709,51.13927686277294],[17.029805256511857,51.13927685942568],[17.029805265457096,51.139276862772924],[17.02980526545709,51.13927686277294]],[[17.03005905553287,51.13950032720459],[17.030070437815105,51.13945845075949],[17.03007043781511,51.13945845075949],[17.03005905553287,51.13950032720459]],[[17.030137461038763,51.13911116096485],[17.03008786259533,51.13916564495003],[17.030137461038763,51.139111160964845],[17.03023752806295,51.139001561859466],[17.030137461038763,51.13911116096485]],[[17.030260756170566,51.13937975138334],[17.030435538982424,51.13944234811786],[17.030260756170566,51.139379751383345],[17.030086684623686,51.139317331087646],[17.030004078968435,51.13940851125293],[17.03000407896843,51.13940851125293],[17.03008668462369,51.13931733108764],[17.030260756170566,51.13937975138334]],[[17.030609313321218,51.139504675530205],[17.030609313321207,51.13950467553022],[17.030435538982424,51.13944234811786],[17.030609313321218,51.139504675530205]],[[17.03017828985102,51.13947111261845],[17.030091184409724,51.139439811935695],[17.03017828985102,51.139471112618445],[17.030265615195574,51.139502500395324],[17.03017828985102,51.13947111261845]]],[[[17.032004435872526,51.138289862642935],[17.03199775193798,51.13828989655886],[17.03217863272075,51.13859328970789],[17.033228631745644,51.13821538045094],[17.033179045835414,51.13819700690801],[17.033001358721098,51.13816335490582],[17.03281777844578,51.13815666780385],[17.03278118288789,51.13816077907501],[17.032658265881995,51.138187387660686],[17.032266652259775,51.13826235783674],[17.032144464430697,51.13828276905655],[17.032064439262328,51.1382891007167],[17.032004435872526,51.138289862642935]]]]}}]}
